NODE_NAME,NODE_IP,LAT,LNG,COUNTRY,REGION,SITE_NAME
cepheid.physics.utoronto.cat.lnf.infn.it,NOT-SET,NOT-SET,,Italy,
ba59-97-hsrp-144.nrl.navy.mil,132.250.144.1,38.85,77.04,United States,http://www.nrl.navy.mil/
www.banjuldiocese.gm,184.168.58.1,13.453,-16.5775,Gambia,http://www.banjuldiocese.gm
ucsd.edu,132.239.180.101,32.72,-117.16,United States,
pingerfsbd.pern.edu.pk,121.52.153.242,31.4338079,73.0689096,Pakistan,http://pingerfsbd.pern.edu.pk
unlp.unlp.edu.ar,163.10.0.67,-34.36,-58.27,Argentina,
indix.ncst.ernet.in,202.141.151.109,18.93,72.85,India,
pitcairn.mcs.anl.gov,140.221.9.180,41.858,-88.017,United States,
gamsv01.in2p3.fr,193.48.98.33,43.6,3.88,France,
134.158.69.191,134.158.69.191,45.77,4.88,France,
www.ihep.su,194.190.160.200,55.750,37.583,Russia,
www.presidency.edu.bd,118.179.168.210,23.7925,90.4078,Bangladesh,http://www.presidency.edu.bd
hip.fi,128.214.56.84,60.167,24.967,Finland,
132.250.144.197,132.250.144.197,38.85,77.04,United States,http://www.nrl.navy.mil
flywheel.princeton.edu,128.112.85.205,40.35,-74.66,United States,
www.nu.edu.bd,202.51.179.35,23.9500,90.3802,Bangladesh,http://www.nu.edu.bd/
pinger.stanford.edu,171.66.6.39,37.42849,-122.177496,United States,http://www.stanford.edu
www.lbl.gov,128.3.7.51,37.87,-122.29,United States,
suncs02.cern.ch,137.138.24.92,46.23,6.06,Switzerland,
bne-a-ext1.aarnet.net.au,202.158.195.196,-27.4985,153.014,Australia,http://bne-a-ext1.aarnet.net.au
loans.co.ke,212.49.70.12,1,38,Kenya,http://loans.co.ke
www.nic.lk,203.94.66.130,6.8,79.9,Sri Lanka,
grid001f.cnaf.infn.it,131.154.99.101,41.883,12.500,Italy,
lnpac01.lip.pt,194.65.67.4,NOT-SET,,Portugal,
physuna.pord.edu,NOT-SET,NOT-SET,,NOT-SET,
westnet.ie,78.153.203.102,53.26,-6.25,Ireland,http://westnet.ie/speedtest/upload.php
www.eldjazair.net.dz,193.194.64.71,36.7361,3.0564,Algeria,http://www.eldjazair.net.dz
www.boz.zm,81.199.101.81,-15.420,28.2832,Zambia,http://www.boz.zm
www.ucc.edu.co,190.27.197.153,4.6264,-74.0692,Colombia,http://www.ucc.edu.co
www.ucla.edu,164.67.228.152,34.05,-118.24,United States,
www.gncic.org.gh,193.194.185.25,5.65,-0.18,Ghana,
lavhep.lancs.ac.uk,148.88.88.32,51.500,-0.167,United Kingdom,
www.estamer.ae,83.111.201.4,25.2644,55.3117,United Arab Emirates,http://www.estamer.ae
tamu.edu,128.194.103.38,30.615,-96.333,United States,
nikhefh.nikhef.nl,192.16.199.192,52.350,4.900,Netherlands,
oceana.sdsc.edup.ucsc.edu,NOT-SET,36.972,-122.017,United States,
cruise.ornl.gov,192.31.96.43,36.01,-84.27,United States,
cc.metu.edu.tr,144.122.156.102,39.917,32.833,Turkey,
217.19.72.130,,,,,
mitlns.mit.edu,18.77.0.2,42.365,-71.100,United States,
www.mekong.edu.kh,115.178.24.8,11.5574,104.8890,Cambodia,http://www.mekong.edu.kh/
wopr.scripps.edu,137.131.253.199,32.8957,-117.2424,United States,http://www.scripps.edu
iperf1.nslabs.ufl.edu,128.227.74.133,29.65,-82.33,United States,
www.hepi.edu.ge,217.147.226.4,41.750,44.9,Georgia,
www.uniswafoundation.org.sz,69.63.71.163,-26.3167,31.1333,Swaziland,http://www.uniswafoundation.org.sz/
171.66.182.145,171.66.182.145,NOT-SET,,NOT-SET,
www.tec.ac.cr,201.204.122.4,10.3621,-84.5099,Costa Rica,http://www.tec.ac.cr/
www.lechwe.sch.zm,81.199.193.4,-12.817,28.2,Zambia,http://www.lechwe.sch.zm
athens.twx.gr,217.19.72.130,38.00,23.733,Greece,
www.ucl.ac.uk,144.82.100.130,51.5248,-0.1334,United Kingdom,
www.utl.co.ug,196.0.3.3,0.19,32.25,Uganda,
www.crtv.cm,62.193.194.210,3.85,11.52,Cameroon,
can-gate-e1-0.nmsu.edu,128.123.100.18,32.312,-106.767,United States,
znng.rhnet.is,,,,,
www.roma1.infn.it,141.108.4.1,41.88,12.50,Italy,
library.uonbi.ac.ke,41.89.93.208,-1.28,36.8162,Kenya,http://library.uonbi.ac.ke/website/index.html
pgdu.pipolfastaem.gov.sb,202.1.160.254,-9.47,159.95,Solomon Islands,
helsinki.cc.gatech.edu,130.207.114.14,33.75,-84.39,United States,
enterprise.puc.edu,,,,,
mail.fcien.edu.uy,164.73.80.11,-34.86,-56.17,Uruguay,
snowmassserver.snowmass2001.org,131.225.68.53,41.85,-88.31,United States,
www.sudan.gov.sd,212.0.148.24,15.55,32.53,Sudan,
i.root-servers.net,192.36.148.17,59.333,18.050,Denmark,
www.rnu.edu.ng,193.220.214.4,6.33,7.5,Nigeria,http://www.rnu.edu.ng
www.iitkgp.ac.in,202.63.234.243,22.51,89.14,India,www.iitkgp.ac.in
twmb.info,61.56.191.65,24.74867,121.76520,Taiwan,http://english.taiwanmobile.com/english/about/companyProfile.html
www.lip.pt,193.137.99.16,38.733,-9.133,Portugal,
www.ubaguio.edu,122.55.103.200,15.5512,120.8147,Philippines,http://www.ubaguio.edu
vaxsan.iss.infn.it,141.108.15.3,NOT-SET,,Italy,
orgwy-fw.ornl.gov,192.31.96.161,36.010,-84.250,United States,
www.upi.edu,103.23.244.6,-6.9149,107.6082,Indonesia,http://www.upi.edu
www-hep.fzu.cz,147.231.26.118,50.08,14.43,Czech Republic,
www-wanmon.slac.stanford.edu,134.79.197.197,37.4177,-122.2035,United States,http://www-wanmon.slac.stanford.edu
www.umss.edu.bo,200.87.182.20,-17.43,-66.17,Bolivia,http://www.umss.edu.bo
pinger.fnal.gov,131.225.110.18,41.85,-88.31,United States,
159.226.251.1,159.226.251.1,,,,
www.kazrena.kz,89.250.80.3,43.2,76.9,Kazakhstan,http://www.kazrena.kz
203.255.248.234,203.255.248.234,NOT-SET,,Korea, Rep,
wwwproxy.ac.il,128.139.197.54,32.08,34.77,Israel,
net.shams.edu.eg,193.227.20.23,30.1,31.4,Egypt,
pingeramity.in,202.12.103.71,28.5441,77.3332,India,http://www.amity.edu
www.kmutt.ac.th,202.44.8.40,13.681,100.74,Thailand,http://www.kmutt.ac.th
www.attiaslevy.gi,85.115.130.100,6.1428,-5.3539,Gibralter,http://www.attiaslevy.gi/
www.espe.edu.ec,192.188.58.167,-0.9331,-78.6160,Ecuador,http://www.espe.edu.ec
www.uan.ao,193.236.0.1,-8.85,13.23,Angola,http://www.uan.ao
speedtest.btcbahamas.com,216.137.12.100,25.08,-77.35,Bahamas,
www.enda.sn,80.86.200.29,14.72,-17.26,Senegal,http://www.enda.sn
sep505.cithep.caltech.edu,,,,,
www.presidencymaldives.gov.mv,202.1.207.147,4.1787,73.5126,Maldives,http://www.presidencymaldives.gov.mv
www.unand.ac.id,103.212.43.94,-0.9500,100.3531,Indonesia,http://www.unand.ac.id
hepwww.ph.qmw.ac.uk,138.37.51.91,51.500,-0.167,United Kingdom,
fal000phys03.lancs.ac.uk,148.88.146.10,54.07,-2.83,United Kingdom,
ns.thrunet.co.kr,210.117.65.100,37.550,126.967,Korea, Rep,
scipp.uccs.anl.gov,,,,,
194.67.220.161,194.67.220.161,41.27,69.22,Uzbekistan,
www.queenscollege.edu.ye,195.94.0.226,15.3520,44.2075,Yemen,http://www.giay.org
www.ptwit.ac.th,202.29.68.13,13.7473,100.5258,Thailand,http://www.ptwit.ac.th
ermi.physics.umd.edu,,,,,
guide.just.edu.jo,87.236.232.129,32.55,35.85,Jordan,
dnsspeedy.selenebs.net,195.206.8.235,45.32,10.14,Italy,http://dnsspeedy.selenebs.net/speedtest/upload.php
LM-HOME-G-PBI.NET,63.203.91.14,NOT-SET,,United States,
www.acdam.cu,200.55.136.69,21.3614,-78.336,Cuba,http://www.acdam.cu
www.colegiosimonbolivar.edu.ve,50.23.149.232,10.5,-66.92,Venezuela,http://www.colegiosimonbolivar.edu.ve
www.gig.ac.cn,,,,,
sanfrancisco01-max1.pop.internex.net,205.158.3.52,37.345,-121.933,United States,
euclid.tp.ph.ic.ac.uk,155.198.210.44,51.500,-0.167,United Kingdom,
speedtest.sby.dnet.net.id,202.148.11.34,-7.14,112.44,Indonesia,http://speedtest.sby.dnet.net.id/speedtest/upload.php
netslave1.cc.monash.edu.au,130.194.1.99,-37.82,144.97,Australia,
ns1.es.net,198.128.2.10,37.873,-122.267,United States,
www.zu.edu.eg,193.227.29.2,30.6,31.5,Egypt,
pinger.lcwu.edu.pk,111.68.103.135,31.544775,74.328958,Pakistan,http://pinger.lcwu.edu.pk/
www.ben.bi,196.2.12.32,-3.412839,29.39254,Burundi,http://www.ben.bi
www.unam.na,196.20.25.195,-22.57,17.1,Namibia,
ns.kren.ne.kr,147.47.1.1,37.550,126.967,Korea, Rep,
www.drfn.org.na,196.44.146.2,-22.57,17.1,Namibia,http://www.drfn.org.na
hep505.cithep.imelb.edu.au,NOT-SET,NOT-SET,,Australia,
www.itc.edu.kh,116.212.139.66,11.5708,104.8980,Cambodia,http://www.itc.edu.kh
surveyor.slac.stanford.edu,134.79.196.52,37.42,-122.20,United States,
www.singaren.net.sg,203.30.39.3,1.283,103.850,Singapore,
www.museumsnc.co.za,64.150.181.85,-33.55,18.22,South Africa,
rainbow.inp.nsk.su,84.237.43.50,54.8482,83.1125,Russia,http://www.inp.nsk.su/
www.comnet.co.ls,196.202.244.170,-29.317,27.4832,Lesotho,http://www.comnet.co.ls
www.unri.ac.id,103.10.169.245,0.5153,101.4339,Indonesia,http://www.unri.ac.id
ns.conacyt.gob.sv,168.243.10.151,13.67,-89.17,El Salvador,
www.kek.jp,130.87.104.107,36.1545,140.0724,Japan,
63.194.54.157,63.194.54.157,NOT-SET,,NOT-SET,
www.uns.ac.id,203.6.148.11,-7.5667,110.8167,Indonesia,http://www.uns.ac.id
www.um.edu.my,23.98.73.250,3.1601,101.6910,Malaysia,http://www.um.edu.my
pingerlhr-pu.pern.edu.pk,111.68.102.214,31.50304,74.308098,Pakistan,http://pingerlhr-.pern.edu.pk/
speedtest.rack66.com,85.88.55.41,50.4,4.22,Belgium,http://speedtest.rack66.com/speedtest/upload.php
www.icci.edu.iq,185.76.35.9,33.3250,44.4220,Iraq,http://www.icci.edu.iq/
www.u-tokyo.ac.jp,210.152.135.178,35.700,139.767,Japan,
www.unimas.my,49.50.236.15,1.4653,110.4274,Malaysia,http://www.unimas.my
115-186-132-222.nayatel.pk,115.186.132.222,33.7168,73.0720,Pakistan,http://www.nayatel.pk/
vega.skyinet.net,202.78.98.45,14.38,121.2,Philippines,http://vega.skyinet.net/speedtest/upload.php
mirage.uerj.br,152.92.5.188,-22.88,-43.28,Brazil,
nbi.dk,NOT-SET,55.717,12.567,Denmark,
fal000phys01.lancs.ac.uk,148.88.80.194,,,United Kingdom,
syd-a-ext1.aarnet.net.au,202.158.196.134,-33.8835,151.2011,Australia,
bu.edu,128.197.27.7,42.362,-71.050,United States,
cjsun.riken.go.jp,,,,,
adc0003.cern.ch,137.138.225.18,46.23,6.07,Switzerland,
rtr-glastfw3.slac.stanford.edu,134.79.205.130,38.85,77.04,United States,http://www.slac.stanford.edu
www.gabalfc.az,109.235.193.52,40.4093,49.8671,Azerbaijan,http://www.gabalfc.az
www.uoa.edu.er,196.200.98.1,15.33,38.97,Eritrea,
underground.npi.msu.ru,158.250.4.211,55.750,37.583,Russia,
www.sustech.edu,41.67.53.4,15.5610,32.5408,Sudan,http://www.sustech.edu
speed.chassco.net,112.78.219.248,48.15,17.12,Slovak Republic,http://speed.chassco.net/speedtest/upload.php
www.ku.edu.np,,,,,
sunstats.cern.ch,192.65.185.20,46.23,6.06,Switzerland,
82.206.222.17,82.206.222.17,9.5092,-13.7122,Guinea,
br3s3p0-10bt-ibms.ascc.net,140.109.40.1,25.03,121.63,Taiwan,
www.metu.edu.tr,144.122.144.160,39.92,32.83,Turkey,
www.phys.hawaii.edu,128.171.11.5,21.313,-157.850,United States,
ornl.gov,128.219.128.17,36.010,-84.250,United States,
aprilia.pa.msu.edu,35.9.71.61,,,United States,
www.bos.gov.ls,41.203.191.8,-29.3167,27.483,Lesotho,http://www.bos.gov.ls
ns.uchicago.edu,128.135.12.23,41.883,-87.617,United States,
circe.icmf.inf.cu,169.158.130.106,23.13,-82.36,Cuba,
gw3.reitoria.unesp.br,200.145.3.10,-15.783,-47.917,Brazil,
cc.in2p3.fr,134.158.69.34,45.78325,4.8664,France,http://cc.in2p3.fr
umn.edu,134.84.119.207,44.98,-93.25,United States,
www.pu.edu.pk,202.59.80.25,31.57,74.37,Pakistan,http://www.pu.edu.pk
prime.edu.np,202.52.0.9,27.45,85.20,Nepal,http://www.prime.edu.np
mix-serial3-0-0.newyork.cw.net,204.189.136.145,35.822,-78.817,United States,
nonoc.ilan.net.il,,,,,
ftp.physisdsc.edu,,,,,
sky.is.utoronto.ca,NOT-SET,NOT-SET,,NOT-SET,
www.tau.ac.il,132.66.11.111,32.08,34.77,Israel,http://www.tau.ac.il
www.babcock.edu.ng,196.11.231.85,7.0109,3.6576,Nigeria,http://www.babcock.edu.ng/
ping.riken.go.jp,134.160.4.17,35.700,139.767,Japan,
fwi.ie,195.7.226.12,52.67,-8.62,Ireland,http://www.fwi.ie/flashspeed/speedtest/upload.php
www.vnn.vn,203.162.168.130,21.03,105.85,Vietnam,http://www.vnn.vn
www.cms.sn,41.208.153.133,14.75,-17.333,Senegal,
marwww.in2p3.fr,134.158.16.190,48.867,2.333,France,
dolphinics.no,NOT-SET,59.933,10.750,Norway,
www.unibe.edu.do,190.167.211.99,18.4690,-69.9044,Dominican Republic,http://www.unibe.edu.do
www.triumf.ca,142.90.113.81,49.2477,-123.2304,Canada,
www.cais.unimas.my,49.50.236.15,1.4653,110.4274,Malaysia,http://www.cais.unimas.my
pinger2.unimas.my,49.50.236.121,1.4653,110.4274,Malaysia,http://www.unimas.my
www.acat.org.sz,196.28.7.66,-26.3167,31.133,Swaziland,http://www.acat.org.sz
multivac.sdsc.edu,132.249.20.57,32.8831,-117.238,United States,http://www.sdsc.edu
rtlin1.dl.ac.uk,193.62.119.20,53.33,-2.63,United Kingdom,
umaxp1.physics.lsa.umich.edu,141.211.101.64,42.28,-83.75,United States,
143.108.30.100,143.108.31.3,-23.55,-46.63,Brazil,
washington.edu,140.142.3.7,47.60,-122.32,United States,
www.swu.edu.ph,121.96.58.6,10.3021,123.8931,Philippines,http://www.swu.edu.ph
ccd0.in2p3.fr,134.158.105.60,45.75,4.85,France,
www.tarena.tj,77.95.0.38,38.5367,68.7800,Tajikistan,
ns.uu.net,137.39.1.3,38.845,-77.300,United States,
www.infn.it,193.206.84.220,41.883,12.500,Italy,
aspu.edu.jo,217.29.240.15,31.95,35.93,Jordan,
br2s8s9-fddi-cc.ascc.net,140.109.15.2,25.03,121.63,Taiwan,
www-eng1.es.net,198.128.2.28,37.873,-122.267,United States,
crackle.lanl.gov,204.121.19.1,35,-106,United States,
tp.platform.com,NOT-SET,43.700,79.250,Canada,
www.ht.hr,205.219.255.33,45.817,15.933,Croatia,
pinger.unza.zm,196.46.196.9,-15.3915,28.329,Zambia,http://www.unza.zm
br2s3p1-10bf-math.ascc.net,140.109.105.1,25.03,121.63,Taiwan,
ns.kornet.nm.kr,168.126.63.1,37.550,126.967,Korea, Rep,
pktw03.phy.e,,,,,
ping.rhnet.is,130.208.16.20,64.15,-21.97,Iceland,
www.cs.wisc.edu,128.105.7.11,43.070,-89.383,United States,
unixhub.slac.stanford.edu,NOT-SET,NOT-SET,,United States,
www.lbr.gov.lr,83.229.80.155,6.3193,-10.810,Liberia,http://www.lbr.gov.lr
manila.global.net.pg,202.171.240.52,-5.22,145.82,Papua New Guinea,http://www.dwu.ac.pg
www.wits.ac.za,146.141.97.214,-25.550,28.000,South Africa,
speedtest.telmexchile.cl,200.27.3.23,-33.27,-70.4,Chile,http://speedtest.telmexchile.cl/speedtest/upload.php
www.ecm.ub.es,161.116.81.151,41.28,2.07,Spain,http://www.ecm.ub.es
www.ucsy.edu.mm,203.81.81.245,17.0021,96.0924,Myanmar,http://www.ucsy.edu.mm
www.kuet.ac.bd,180.211.192.67,24,90,Bangladesh,http://www.kuet.ad.bd
www.ipc.bf,196.28.248.26,12.3702,-1.5247,Burkina Faso,http://www.ipc.bf
bbcos.myftp.org,69.65.19.116,24.8,121.8,Taiwan,http://http://www.twmbroadband.com/
www.hep.anl.gov,146.139.180.60,41.858,-88.017,United States,
wainbow.inp.nsk.su,,,,,
hephp4.rl.ac.uk,130.246.40.94,51.75,-1.25,United Kingdom,
www.cnrst.bf,212.52.137.27,12.3805,-1.5066,Burkina Faso,http://www.cnrst.bf
hp73.pvamu.edu,129.207.10.9,30.09,-95.98,United States,
www.ic.cd,41.194.60.3,-4.28,15.5,Democratic Republic of Congo,http://www.ic.cd
xdc.arm.gov,130.199.208.73,46.283,-119.283,United States,
yalph2.phys.carleton.ca,,,,,
cir.red.sv,168.243.254.1,13.67,-89.17,El Salvador,
www.suvl.edu.sd,41.67.16.7,15.6100,32.5424,Sudan,http://www.suvl.edu.sd
antonia.slac.stanford.edu,,,,,
www.yumit.am,209.160.40.196,40.181,44.5136,Armenia,http://www.yumit.am
www.kunstmuseum.gl,194.177.230.36,64.1777,-51.7294,Greenland,http://www.kunstmuseum.gl/
rs2.aads.rsng.net,198.32.130.131,34.033,-118.233,United States,
ocu.uni.edu.pe,190.81.186.14,-12.05,-77.05,Peru,http://ocu.uni.edu.pe
www.jazanu.edu.sa,212.138.84.57,17.4751,42.7076,Saudi Arabia,http://www.jazanu.edu.sa
www.ljm.org.ly,62.240.36.24,32.7,13.1,Libya Arab Jamahiriya,
krypton.uchicago.edu,128.135.12.53,41.858,-87.65,United States,http://www.uchicago.edu
ippm.cac.psu.edu,146.186.157.50,40.792,-77.867,United States,
www.duet.ac.bd,203.112.196.165,24.50,92.05,Bangladesh,http://www.duet.ac.bd
pizero.physics.yale.edu,,,,,
cio-sys.cisco.com,192.31.7.130,37.335,-121.867,United States,
www.mop.cl,164.77.211.44,-33.4394,-70.6537,Chile,http://www.mop.cl/
www.polinpdg.ac.id,103.252.189.2,-0.9500,100.3531,Indonesia,http://www.polinpdg.ac.id
tifr.res.in,158.144.1.22,18.98,72.85,India,
curta.cc.ip6.columbia.edu,,,,,
spruna.sprace.org.br,200.136.80.9,-23.5242,-46.6653,Brazil,http://spruna.if.usp.br
tas-hbrt-am1.aarnet.net.au,182.255.120.140,42.02555,147.44306,Australia,http://www.aarnet.edu.au
web.wahyan.edu.hk,202.82.25.212,22.2743,114.1762,Hong Kong,http://web.wahyan.edu.hk
www.uu.net,164.109.145.211,38.84,-77.30,United States,
fn872.fnal.gov,131.225.196.129,41.85,-88.31,United States,
glast.phys.washington.edu,128.95.99.23,47.61,-122.33,United States,
atlantic.com.gh,85.214.241.154,5.5557,-0.1963,Ghana,http://www.atlantic.com.gh/
evagore.slac.stanford.edu,134.79.140.22,37.41,-122.20,United States,
tbn04.nikhef.nl,192.16.186.229,52.35,4.92,Netherlands,
pinger.aiou.edu.pk,111.68.97.52,33.6830,73.0538,Pakistan,http://www.aiou.edu.pk/
ccjalteon01.riken.go.jp,134.160.229.254,35.78,139.62,Japan,
dept.physics.upenn.edu,128.91.43.98,39.95,-75.15,United States,
143.108.25.100,143.108.25.100,-22,-46,Brazil,
140.90.6.103,140.90.6.103,38.848,-76.917,United States,
202.41.10.146,,,,,
jelly.lunet.edu,192.135.141.38,35.95,-97.26,United States,
uaemex.mx,148.215.78.146,NOT-SET,,Mexico,
198.46.223.4,198.46.223.4,-15.417,28.2833,Zambia,http://www.unza.zm
moore.ece.rice.edu,128.42.4.233,29.834,-95.000,United States,
www.ionmed.agh.edu.pl,149.156.96.9,50.05,19.92,Poland,
arions.lv,85.15.218.6,57.25,21.32,Latvia,http://www.arions.lv/speedtest/upload.php
hep505.cithe,,,,,
hephp1.rl..50,NOT-SET,NOT-SET,,NOT-SET,
www.amity.edu,180.150.156.33,28.5441,77.3332,India,http://www.amity.edu
www.surya.ac.id,182.253.236.10,-6.1783,106.6319,Indonesia,http://www.surya.ac.id
www.auf.edu.ph,210.4.97.195,15.1450,120.5943,Philippines,http://www.auf.edu.ph
www.ulacit.ac.cr,201.195.91.147,9.9410,-84.0771,Costa Rica,http://www.ulacit.ac.cr
speedtest.vivonet.lv,83.136.136.162,56.55,23.9,Latvia,http://speedtest.vivonet.lv/speedtest/upload.php
www.mfcc.ir,78.157.60.104,32.7026,51.1537,Iran,http://www.mfcc.ir
www.cau.ac.kr,165.194.95.137,37.550,126.967,Korea, Rep,
www.fsjesr.ac.ma,196.200.139.12,34.0150,-6.8327,Morocco,http://www.fsjesr.ac.ma
amp-singapore,155.69.254.101,1.3,103.83,Singapore,
gateway.ch.sinica.edu.tw,140.109.88.1,25.03,121.63,Taiwan,
www.kdd.com.br,200.218.6.169,-15.783,-47.917,Brazil,
speedtest.grupoamnet.net,200.13.161.170,13.71,-89.2,El Salvador,http://speedtest.grupoamnet.net/speedtest/upload.php
eros.cnea.gov.ar,168.96.66.6,-34.617,-58.400,Argentina,
icfamon.dl.ac.uk,193.62.127.224,53.3431,-2.6407,United Kingdom,http://www.srs.ac.uk/srs/
www.uabobo.ci,41.207.210.54,5.3651,4.0236,Ivory Coast,http://www.uabobo.ci
beta.carnet.hr,161.53.160.25,45.817,15.933,Croatia,
wanmoninst1.cern.ch,137.138.24.234,46.23,6.06,Switzerland,http://www.cern.ch
amp-apantyo,203.181.248.51,35.66,139.75,Japan,
sun.ihep.ac.hu,,,,,
192.215.17.39,192.215.17.39,40.270,-74.517,United States,
w4.lns.cornell.edu,128.84.44.110,41.48,-81.68,United States,
tl00.hep.ph.ic.ac.uk,155.198.216.26,51.500,-0.167,United Kingdom,
phys150.ph.phys.vt.edu,,,,,
magic.mn,202.72.241.5,47.55,106.53,Mongolia,
www.alaskari.net.ye,82.114.162.10,15.4,47.7667,Yemen,http://www.alaskari.net.ye
www.physics.umd.edu,128.8.140.6,38.99,-76.93,United States,
www.daffodilvarsity.edu.bd,203.190.10.99,23.7531,90.3773,Bangladesh,http://www.daffodilvarsity.edu.bd
www.ifs.ac.lk,192.248.97.1,7.296,80.635,Sri Lanka,http://www.ifs.ac.lk
spdtst.doda.uz,195.158.18.218,41.16,69.13,Uzbekistan,http://spdtst.doda.uz/speedtest/upload.php
www.amoud-university.borama.ac.so,209.68.63.245,2.07,45.36,Somalia,
dialup.giki.edu.pk,203.135.39.214,32.3,69.32,Pakistan,
pha.jhu.edu,,,,,
ns1.svu.edu.eg,67.215.65.132,24.0777,32.9177,Egypt,http://www.svu.edu.eg
www.msu.ru,188.44.50.103,55.75,37.7,Russia,
pinger.ustb.edu.pk,213.229.80.194,32.9844,70.6025,Pakistan,http://pinger.ustb.edu.pk/
cad.zju.edu.cn,210.32.131.2,30.25,120.17,China,
lattice.vic.aarnet.edu.au,NOT-SET,-37.82,144.97,Australia,
sousa.showcases.com,207.19.82.143,30.00,-97.00,United States,
www.lcwu.edu.pk,198.154.224.88,31.4,74.3,Pakistan,http://www.lcwu.edu.pk
www.qiup.edu.my,103.6.196.75,4.5831,101.0958,Malaysia,http://www.qiup.edu.my
downey.pbdsl.stanford.edu,171.66.181.249,37.775,-122.417,United States,
pingerisl-air.pern.edu.pk,111.68.106.242,33.7182,73.0605,Pakistan,http://pingerisl-air.pern.edu.pk
www.ttu.tj,77.95.1.236,38.5367,68.78,Tajikistan,http://www.ttu.tj
www.aiu.edu.my,110.4.45.135,6.1356,100.3905,Malaysia,http://www.aiu.edu.my
209.76.109.254,,,,,
melspeed.intervolve.com.au,122.100.4.228,-37.98,145.12,Australia,http://melspeed.intervolve.com.au/speedtest/upload.asp
tigris.klte.hu,193.6.138.33,47.50,21.61,Hungary,
www.act.edu.om,46.40.224.132,23.6138,58.5922,Oman,http://www.act.edu.om
www.ibadat.edu.pk,203.82.48.3,33.67,73.13,Pakistan,http://www.ibadat.edu.pk
eschilo.sissa.it,147.122.21.11,45,13,Italy,
145.100.20.35,145.100.20.35,NOT-SET,,Netherlands,
www.riesgroup.dj,196.201.197.76,11.5,43,Djibouti,http://www.riesgroup.dj
www.ioe.edu.np,103.5.150.13,27.7166,85.3166,Nepal,
enterprise.p.edu,,,,,
ping.riken.jp,134.160.4.17,35.700,139.767,Japan,http://www.riken.jp
dns.sinica.edu.tw,140.109.1.10,25.03,121.63,Taiwan,
www.turkmenistan.gov.tm,217.174.238.56,37.9308,58.3872,Turkmenistan,http://www.turkmenistan.gov.tm
www.nic.af,203.215.43.24,34.5167,69.1833,Afghanistan,http://www.nic.af
www.gsi.de,140.181.3.31,52.270,13.180,Germany,
www.logisticservices.hn,200.107.237.250,15.5017,-88.0277,Honduras,http://www.logisticservices.hn/
www.unikadelasalle.ac.id,103.16.199.85,1.4917,124.8428,Indonesia,http://www.unikadelasalle.ac.id
aias.cs.ucy.ac.cy,194.42.16.1,35.15,33.35,Cyprus,http://www.cs.ucy.ac.cy
sgiserv.rmki.kfki30.225.212.55,30.225.212.55,47.43,19.25,Hungary,
www.physics.rutgers.edu,128.6.228.190,40.499,-74.399,United States,
www.psi.gov.ps,213.244.86.50,31.54,35.12,Palestine,http://www.psi.gov.ps
ffden-1.phys.uaf.edu,137.229.52.41,64.847,-147.717,United States,
www.akcansa.com.tr,148.251.139.248,41.0053,28.977,Turkey,
sp8sun.spring8.or.jp,203.181.216.11,34.390,135.25,Japan,
www.cyberdyne.net.lr,197.231.220.215,6.3173,-10.8068,Liberia,http://www.cyberdyne.net.lr
ias.comtec.co.jp,202.32.192.59,38.269,140.872,Japan,http://www.comtec.co.jp
www.inia.gov.ve,190.202.124.231,10.2446,-67.5937,Venezuela,
espg.upt.edu.pe,200.48.211.49,-16.39,-71.53,Peru,http://espg.upt.edu.pe
haramaya.edu.et,213.55.85.92,9.62,41.85,Ethiopia,http://www.haramaya.edu.et
www.dos.gov.jo,193.188.90.67,31.95,35.95,Jordan,http://www.dos.gov.jo
bnl.gov,130.199.128.163,40.76,-72.90,United States,
proton.tau.ac.il,132.66.140.15,31.783,35.233,Israel,
www.registro.br,200.160.2.3,-15.783,-47.917,Brazil,
sagrid.ac.za,196.21.182.2,-29.16,26.2,South Africa,http://www.sagrid.ac.za
pinger-ncp.ncp.edu.pk,111.68.99.142,33.7500,73.1650,Pakistan,http://www.ncp.edu.pk
speedtest.ratiokontakt.de,212.223.36.186,49.27,11.5,Germany,http://speedtest.ratiokontakt.de/speedtest/upload.php
www.tut.ac.za,196.36.199.12,-30.46,28.34,South Africa,
www.cmb.ac.lk,192.248.16.89,6.83,79.89,Sri Lanka,http://www.cmb.ac.lk
cithep.caltech.edu,,,,,
200.37.46.80,200.37.46.80,-12.050,-77.050,Peru,
moon.at.physics.utoronto.ca,,,,,
142.90.115.2,NOT-SET,NOT-SET,,NOT-SET,
caltech.edu,131.215.239.108,34.15,-118.14,United States,
ps.uci.edu,128.200.109.211,33.67,-117.82,United States,
spc5-1.ncb.ernet.in,172.16.1.174,12.97,77.58,India,
www.parlament.al,213.207.32.1,41.19,20.18,Albania,http://www.parlament.al/
www.infocom.co.ug,217.113.64.6,0.317,32.583,Uganda,
spin.riken.bnl.gov,130.199.80.216,40.76,-72.90,United States,
millsom-dsl1.stanford.edu,171.66.197.250,NOT-SET,,NOT-SET,
starlight-tpr2.jp.apan.net,203.181.248.213,35.67,139.75,Japan,
www.esg.edu.kw,91.140.245.73,29.2679,48.0519,Kuwait,http://www.esg.edu.kw/
www.utah.edu,155.97.137.55,40.7855,-111.7367,United States,http://www.utah.edu
www.uet.edu.pk,111.68.102.6,31.58,74.36,Pakistan,http://www.uet.edu.pk
www.cob.edu.bs,65.75.64.69,25.0833,-77.35,Bahamas,http://www.cob.edu.bs
multivac.ysics.yale.edu,10.0.0.1,NOT-SET,,United States,
www.micti.co.mz,196.3.97.231,-25.94,32.56,Mozambique,
www.sesame.org.jo,194.165.152.108,32.60997,35.73663,Jordan,http://www.sesame.org.jo
www.usep.edu.ph,202.137.113.149,7.1,125.7,Philippines,http://www.usep.edu.ph
rs1.mae-east.rsng.net,192.41.177.166,38.987,-76.933,United States,
rzserv2.gsi.de,140.181.69.13,49.85,8.67,Germany,
br2s6p1-10b5-ccnet-1.ascc.net,140.109.6.1,25.03,121.63,Taiwan,
www.amcham.uz,62.209.128.119,41.2667,69.2167,Uzbekistan,
kadri.ut.sk,,,,,
66.178.68.5,,,,,
sgiserv.rmki.kfki.hu,148.6.176.200,47.43,19.25,Hungary,
br4s8s9-fddi-iis.ascc.net,140.109.15.4,25.03,121.63,Taiwan,
www.lafex.cbpf.br,152.84.100.160,-22.88,-43.28,Brazil,
198.150.3.2,198.150.3.2,43.07,-89.40,United States,
ns1.zu.ae,195.229.145.4,24.47,54.37,United Arab Emirates,http://www.zu.ac.ae/
www.advocatus.pt,109.71.41.152,38.7069,-9.1356,Portugal,
monitor.seecs.edu.pk,111.68.101.10,33.642886,72.990525,Pakistan,http://www.seecs.edu.pk
iaeand.iaea.org,195.212.98.83,48.217,16.367,Austria,
cs.wisc.edu,128.105.2.6,43.070,-89.383,United States,
129.6.53.158,129.6.53.158,NOT-SET,,NOT-SET,
niit.edu.pk,202.125.153.142,33.40,73.08,Pakistan,
yal.utexas.edu,,,,,
0.ae2.gw.200p-sf.sonic.net,79.36.211.53,37.4485,-122.1803,United States,http://www.sonic.net
www.uo.edu.cu,200.55.162.196,20.0435,-75.8173,Cuba,http://www.uo.edu.cu
www.agetur.bj,213.186.33.18,6.35,2.4333,Benin,http://www.agetur.bj
nyu.edu,128.122.253.92,40.849,-73.867,United States,
pupgg.princeton.edu,128.112.84.50,40.35,-74.65,United States,
www.utem.edu.my,103.198.52.23,2.3164,102.3209,Malaysia,http://www.utem.edu.my
www.iut.ac.ir,176.101.52.130,32.6514,51.6792,Iran,http://www.iut.ac.ir
www.er.doe.gov,205.254.141.139,38.90,-77.04,United States,
www.o.com.bh,193.188.112.80,26.1573,50.4684,Bahrain,http://www.o.com.bh/
monalisa.niit.edu.pk,202.83.166.173,33.6,73.13,Pakistan,
www.ans.edu.ni,69.163.218.206,12.1508,-86.2683,Nicaragua,
140.109.42.1,140.109.42.1,NOT-SET,,NOT-SET,
brc.minsk.by,194.226.121.36,53.9,27.57,Belarus,
mun.compuserve.com,NOT-SET,NOT-SET,,United States,
www.monash.edu.my,59.191.192.148,3.1,101.62,Malaysia,
speedtest.amnetdatos.com.ni,165.98.132.8,12.14,-86.25,Nicaragua,http://afinsa.com.ni
dns.physics.ucla.edu,NOT-SET,34.058,-118.250,United States,
www.uum.my,103.6.196.90,6.461,100.504,Malaysia,http://www.uum.my
www.cut.edu.lb,89.108.129.107,33.8719,35.5097,Lebanon,http://www.cut.edu.lb
ns.rcub.bg.ac.yu,147.91.1.5,44.500,20.290,Serbia and Montenegro,
www.nic.ly,62.240.36.25,32.00,13.1,Libya Arab Jamahiriya,http://www.nic.ly
elbert.scl.ameslab.gov,147.155.138.52,42.032,-93.617,United States,
mail.cns.s.u-tokyo.ac.jp,133.11.20.100,35.700,139.767,Japan,
cae.seecs.edu.pk,121.52.147.136,34.0625,71.987778,Pakistan,http://cae.seecs.edu.pk
jasper.cacr.caltech.edu,131.215.145.33,34.147,-118.133,United States,
www.accommodationpng.com.pg,202.171.240.208,-9.4723,147.2,Papua New Guinea,
www.bacim.mr,82.151.72.218,18.086,-15.975,Mauritania,http://www.bacim.mr
www.una.py,200.10.228.135,-25.33,-57.53,Paraguay,http://www.una.py
202.241.2.45,202.241.2.45,NOT-SET,,Japan,
xiwtpinger.inversenet.com,204.212.172.115,NOT-SET,,United States,
speed.alienstation.ro,89.46.3.130,44.18,28.65,Romania,http://speed.alienstation.ro/speedtest/upload.php
www.unipa.ac.id,180.250.183.158,-0.8615,134.0620,Indonesia,http://www.unipa.ac.id
probe6.motorola.com,129.188.154.101,33.488,-111.917,United States,
ns.cw.net,204.70.128.1,38.900,-77.267,United States,
www.antenalivre.pt,62.48.187.49,38.6796,-8.4622,Portugal,
lamar.colostate.edu,129.82.103.75,40.59,-105.08,United States,
www.atlantic.com.gh,216.122.144.112,6.6833,-1.6167,Ghana,http://www.atlantic.com.gh
iaea.or.at,,,,,
www.advsouth.co.nz,202.174.117.137,-43.5410,172.6474,New Zealand,http://www.advsouth.co.nz
pc35.hep.ucl.ac.uk,128.40.4.35,51.5,-0.12,United Kingdom,
www.buitms.edu.pk,121.52.157.166,30.1657,66.9906,Pakistan,http://www.buitms.edu.pk
www.arcticcircleregion.gl,194.177.251.43,66.9333,-53.6833,Greenland,http://www.arcticcircleregion.gl
dns.roxy.ac.il,,,,,
hep.ph.liv.ac.uk,138.253.48.102,51.500,-0.167,United Kingdom,
137.158.200.6,137.158.200.6,,,,
ns1.credis.ro,195.95.166.203,44.4351,26.0801,Romania,http://www.credis.ro
denise.gowdy.org,,,,,
www.aegean.gr,195.251.128.3,39.06,26.32,Greece,http://www.aegean.gr/aegean/en/intro_en.htm
needmore.physics.indiana.edu,129.79.157.90,39.16,-86.53,United States,
uc.cache.nlanr.net,141.142.30.135,40.11,-88.20,United States,
www.uam.es,150.244.214.237,40.4,-3.68,Spain,http://www.uam.es
www.belarus.by,86.57.250.209,53.9,27.5667,Belarus,http://www.belarus.by
oceanus.slac.stanford.edu,134.79.196.41,37.41,-122.20,United States,
falcon.cse.unsw.edu.au,129.94.232.13,-31.916,151.231,Australia,http://www.cse.unsw.edu.au/~salilk
www.unisza.edu.my,103.16.183.3,5.3957,103.0828,Malaysia,http://www.unisza.edu.my
www.fshn.edu.al,,,,,
enterprise.phys.vt.edu,198.82.152.153,37.23,-80.42,United States,
speedtest.netdriver.com.br,200.213.20.132,-29.6,-50.58,Brazil,http://speedtest.netdriver.com.br/speedtest/upload.php
ftp.eid.physics.utoronto.ca,,,,,
haradhgw.twx.it,62.41.48.197,24.65,46.77,Saudi Arabia,
www.uri.edu,64.131.77.69,41.4773,-71.5208,United States,http://www.uri.edu
216.102.95.254,,,,,
dloud.kaist.kr.apan.net,,,,,
www.uho.edu.cu.,200.55.148.25,21.3614,-78.336,Cuba,http://www.uho.edu.cu.
pingerqta.pern.edu.pk,121.52.157.148,30.269561,66.939694,Pakistan,http://pingerqta.pern.edu.pk/
mail.prl.res.in,210.212.155.234,23.00,72.65,India,
d0um05.fnal.gov,131.225.224.224,41.85,-88.31,United States,
www.vincy.bg.ac.yu,147.91.1.133,44.500,20.290,Serbia and Montenegro,
ucsc.edu,,,,,
bach.ph.unimelb.edu.au,128.250.51.210,-37.83,145.00,Australia,
www.alaqsa.edu.sa,89.238.131.84,24.6,46.77,Saudi Arabia,http://www.alaqsa.edu.sa
192.215.118.29,192.215.118.29,NOT-SET,,NOT-SET,
www.bonvoyagetravel.com.ng,212.100.64.10,6.4531,3.3958,Nigeria,http://www.bonvoyagetravel.com.ng
king.qbed.nren.nasa.gov,198.10.49.62,39.00,-76.87,United States,
www.caen..edu.pe,200.37.34.80,-12.05,-77.05,Peru,
ns2.dns.br,200.19.119.99,-15.783,-47.917,Brazil,
sparty.surf.com,206.14.59.10,37.873,-122.267,United States,
ornl-net1.ornl.gov,192.31.96.44,36.01,-84.27,United States,
www.sistec.co.ao,196.29.206.18,13.5,8.50,Angola,http://www.sistec.co.ao
194.67.213.1,194.67.213.1,34.31,69.18,Afghanistan,http://www.ku.edu.af
ing.iac.es,161.72.6.2,40.417,-3.717,Spain,
speedtest.biznetnetworks.com,203.142.69.190,-6.17,106.83,Indonesia,http://speedtest.biznetnetworks.com/speedtest/upload.php
fal000phys02.lancs.ac.uk,148.88.80.195,54.07,-2.83,United Kingdom,
ns3.nic.fr,192.134.0.49,48.867,2.333,France,
hepls01.phys.uvic.ca,142.104.60.9,48.43,-123.35,Canada,
121.52.146.180,121.52.146.180,33.521825,71.446622,Pakistan,http://pinger.kohat.edu.pk/
www.ird.bf,192.136.55.129,12.33,-2.33,Burkina Faso,www.ird.bf
ouhep1.nhn.ou.edu,129.15.30.147,35.13,-97.26,United States,
www.mefb.gov.mg,62.56.243.145,-18.87,47.5,Madagascar,http://www.mefb.gov.mg/
www.hust.edu.vn,202.191.56.199,21.0060,105.8430,Vietnam,http://www.hust.edu.vn
sunbirdj.ccs.ornl.gov,160.91.199.133,NOT-SET,,United States,
dns.nirs.go.jp,133.63.20.2,35.700,139.767,Japan,
surveyor.net.berkeley.edu,128.32.0.109,37.873,-122.267,United States,
www.llnl.gov,198.128.246.160,37.68,-121.77,United States,
a.root-servers.net,198.41.0.4,38.970,-77.383,United States,
www.multinet.af,202.86.23.70,34.5,69.17,Afghanistan,http://www.multinet.net
amp-kiwi.cs.waikato.ac.nz,192.107.171.130,-37.7890,175.3176,New Zealand,http://www.waikato.ac.nz/
znsun1.ifh.de,141.34.1.16,52.270,13.180,Germany,
www.startel.ao,41.222.236.20,-11.3683,15.7324,Angola,http://www.startel.ao
domen.uninett.no,158.38.62.25,59.933,10.750,Norway,
131.154.99.10,131.154.99.10,41.88,12.5,Italy,
212.88.97.44,212.88.97.44,0.33,32.55,Uganda,
www.cithep.caltech.edu,131.215.126.124,34.15,-118.14,United States,
d.root-servers.net,199.7.91.13,38.987,-76.933,United States,
xserver.nrl.navy.gov,132.250.110.45,38.85,77.04,United States,http://www.nrl.navy.gov
www.hep.nd.edu,129.74.77.114,41.667,-86.233,United States,
fisica.udea.edu.co,200.24.17.41,6.17,-75.42,Colombia,
www.viva.com.bh,37.131.68.72,26.2397,50.5369,Bahrain,http://www.viva.com.bh/
speedtest.dc.utel.ua,213.186.113.5,50.43,30.52,Ukraine,http://speedtest.dc.utel.ua/speedtest/upload.php
ns.ceniai.net.cu,169.158.128.136,23.13,-82.36,Cuba,
140.109.103.240,140.109.103.240,0,0,,
www.muchs.ac.tz,197.149.179.67,-6.8079,39.2734,Tanzania,http://www.muchs.ac.t
www.kcn.unima.mw,198.252.65.84,-15.8027,35.0217,Malawi,http://www.kcn.unima.mw
www.cce.co.cu,190.6.72.194,23.1436,-83.3572,Cuba,http://www.cce.co.cu
www.maxis.com.my,121.123.149.207,3.35,101.25,Malaysia,http://www.maxis.com.my
avp.gov.al,109.69.2.189,41.3,19.8,Albania,http://www.avp.gov.al/
www-hep.phys.cmu.edu,128.2.115.21,40.44,-80.00,United States,
scipp.ucsc.edu,128.114.8.5,36.97,-122.03,United States,
rs2.mae-east.rsng.net,192.41.177.169,38.987,-76.933,United States,
cactus.phyast.pitt.edu,136.142.111.46,40.52,-79.88,United States,
www.unilag.edu.ng,196.45.48.50,6.453,3.3958,Nigeria,http://www.unilag.edu.ng
www.etsu.edu,151.141.9.181,36.3134,-82.3535,United States,http://www.etsu.edu/
miner.sdsc.edu,132.249.20.74,32.72,-117.16,United States,
lns62.lns.csunstats.cern.ch,,,,,
www.alihan.com.tr,37.230.106.93,41.0053,28.977,Turkey,
ns.mci.net,204.70.128.1,35.822,-78.817,United States,
www.nrf.ae,195.229.146.76,25.1033,55.1685,United Arab Emirates,http://www.nrf.ae/
140.109.196.1,140.109.196.1,NOT-SET,,NOT-SET,
jlab7.jlab.org,192.70.245.99,37,-76,United States,
scuch8.psc.sc.edu,129.252.78.8,34.00,-81.03,United States,
rs2.mae-west.rsng.net,198.32.136.2,34.033,-118.233,United States,
www.mcs.anl.gov,140.221.9.81,41.858,-88.017,United States,
www.nalis.gov.tt,209.94.192.196,10.6519,-61.5116,Trinidad and Tobago,http://www.nalis.gov.tt
cache.kr.apan.net,203.255.248.3,37.550,126.967,Korea, Rep,
amp-kiwi,192.107.171.130,-37,175,New Zealand,
cmsdsrv08.cern.ch,137.138.137.245,46.23,6.07,Switzerland,
sampc.hep.ph.ic.ac.uk,155.198.211.209,51.500,-0.167,United Kingdom,
speedtest.elnus.net.id,202.146.178.2,-2.59,104.45,Indonesia,http://speedtest.elnus.net.id/speedtest/upload.php
ns.krnic.net,202.30.50.50,37.550,126.967,Korea, Rep,
hep505.ci.stanford.edu,,,,,
140.109.105.1,140.109.105.1,NOT-SET,,NOT-SET,
netgate.net,205.214.169.4,37.34,-121.93,United States,
www.costech.or.tz,41.93.33.213,-6.7637,39.2453,Tanzania,http://www.costech.or.tz/
www.usmission.mg,80.15.245.5,-18.87,47.5,Madagascar,
www.ph.unimelb.edu.au,128.250.54.22,-37.83,145.00,Australia,
www.douane.gouv.ht,186.1.206.238,18.55,-72.5167,Haiti,http://www.douane.gouv.ht/
192.36.148.17,192.36.148.17,59.333,18.050,Sweden,
www.tsinghua.edu.cn,166.111.4.100,40.0047,116.3212,China,http://www.tsinghua.edu.cn
212.0.139.4,212.0.139.4,15.55,32.53,Sudan,
feynman.physics.ucla.edu,169.232.159.141,34.05,-118.24,United States,
www.univ-mosta.dz,193.194.86.100,35.54,-0.53,Algeria,
www.agestado.com.br,200.182.48.131,-15.783,-47.917,Brazil,
mix-serial4-0-4.washington.cw.net,204.189.152.193,35.822,-78.817,United States,
mix-serial3-0-2.newyork.cw.net,204.189.136.153,35.822,-78.817,United States,
drw-a-pm1aarnet.net.au,202.158.196.202,-12.4,130.9,Australia,http://www.aarnet.edu.au
www.uran.ru,195.19.137.95,56.85,60.6,Russia,
octopus.phy.bg.ac.yu,147.91.80.11,44.500,20.290,Serbia and Montenegro,
tuia.dmz.waikato.ac.nz,140.200.132.253,-37.80,175.10,New Zealand,
www.mu.ac.zm,41.63.16.6,-14.4472,28.4465,Zambia,http://www.mu.ac.zm/
www.orange.cm,193.251.155.10,4,9.7,Cameroon,http://www.orange.cm
kupns2.pn.scphys.kyoto-u.ac.jp,202.13.215.4,35.00,135.75,Japan,
radius3.singnet.com.sg,165.21.88.181,1.283,103.850,Singapore,
shaku8.hepnet.scphys.kyoto-u.ac.jp,202.13.215.200,35.03,135.75,Japan,NOT-SET
speedtest.dsl.li,82.117.12.66,47.22,9.53,Liechtenstein,http://speedtest.dsl.li/speedtest/upload.php
www.ucb.edu.bo,166.114.18.31,-17.75,-63.23,Bolivia,www.ucb.edu.bo
iperf1-gig.nslabs.ufl.edu,128.227.75.70,29.65,-82.33,United States,
sgiserv.rmki.kfk.30.42,10.0.0.0,47.43,19.25,Hungary,
www.tanta.edu.eg,193.227.17.5,30.79,30.99,Egypt,
yalph2.physics.yale.edu,130.132.48.12,42.35,-71.06,United States,
www.nu.edu.sa,212.26.74.5,17.4917,44.1323,Saudi Arabia,http://www.nu.edu.sa
ns2.sri.ucl.ac.be,130.104.1.2,50.833,4.350,Belgium,
yalph2.physics.,,,,,
www.zedmobile.co.zm,81.199.101.213,-12.8167,28.2,Zambia,http://www.zedmobile.co.zm
www.noc.gov.iq,188.124.18.91,35.4681,44.3953,Iraq,http://www.noc.gov.iq
speedtest.eglue.biz,212.18.63.105,46.63,15.39,Slovenia,http://speedtest.eglue.biz/speedtest/upload.php
icu-sxp.kr.apan.net,NOT-SET,NOT-SET,,NOT-SET,
www.sify.com,63.80.242.56,29.21,77.48,India,http://www.sify.com
195.22.199.84,,,,,
gw33.hep.ph.ic.ac.uk,155.198.216.144,51.500,-0.167,United Kingdom,
www.most.gov.mm,203.81.81.150,19.7891,96.1135,Myanmar,http://www.most.gov.mm
v-www.ihep.ac.cn,202.38.128.7,39.93,116.4,China,http://www.ihep.ac.cn/english/index.htm
www.ppu.gov.af,180.94.64.35,34.5285,69.1717,Afghanistan,http://www.ppu.gov.af/
www.uponic.edu.ni,69.89.31.123,12.137,-86.252,Nicaragua,http://www.uponic.edu.ni
ftp.physics.carl0,NOT-SET,NOT-SET,,NOT-SET,
icsun1.ic.ornl.gov,128.219.64.47,36.010,-84.250,United States,
www-05.nexus.ao,41.221.254.23,-8.84,13.23,Angola,
babar.fzk.de,192.108.45.10,53.65,12.8,Germany,
www.aportmall.kz,185.98.6.174,43.2505,76.8506,Kazakhstan,http://www.aportmall.kz
sun.riken.go.jp,,,,,
aim-e1.ph.net,165.220.1.29,14.600,120.983,Philippines,
www.qua.edu.pk,202.83.173.28,33.7,73.1,Pakistan,http://www.qua.edu.pk
drw-a-pm1.aarnet.net.au,202.158.196.202,-12.4440,130.833,Australia,http://www.aarnet.edu.au
www.gcas.ae,83.111.115.179,24.4249,54.4587,United Arab Emirates,http://www.gcas.ae
www.unisys.com.br,200.220.0.62,-15.783,-47.917,Brazil,
bovg.bnl.gov,,,,,
UCLV.EDU.CU,200.55.145.12,22.41,-79.97,Cuba,
ns.jp.apan.net,203.181.248.3,35.67,139.75,Japan,
server1.rmsi.com,210.210.78.137,28.51,77.33,India,http://www.rmsi.com
c.root-servers.net,192.33.4.12,38.970,-77.383,United States,
192.215.70.29,192.215.70.29,0,0,,
ping.slaanford.edu,,,,,
sci.am,193.232.229.65,40.267,44.583,Armenia,
172.22.92.254,,,,,
physuna.phs.uc.edu,129.137.4.3,39.10,-84.52,United States,
gw35.hep.ph.ic.ac.uk,155.198.216.146,51.500,-0.167,United Kingdom,
arl.dren.mm.advanced.org,192.12.65.65,41.023,-73.800,United States,
www.unam.mx,132.248.10.7,19.400,-99.150,Mexico,
srvlx03.ts.infn.it,140.105.6.250,45.65,13.78,Italy,
fin-mta.net,62.73.58.161,60.27,22.16,Finland,http://fin-mta.net/speedtest/upload.php
singaporetech.edu.sg,103.28.249.9,1.2901,103.8497,Singapore,http://singaporetech.edu.sg
89-92-183-245.hfc.dyn.abo.bbox.fr,89.92.183.245,48.79875,2.28236,France,http://www.ville-chatillon.fr/
atlas.cern.ch,137.138.129.113,46.23,6.06,Switzerland,
171.66.177.49,171.66.177.49,37.44,-122.14,United States,
150.163.100.90,150.163.100.90,NOT-SET,,Brazil,
www.utp.ac.pa,168.77.99.19,9.0238,-79.5315,Panama,http://www.utp.ac.pa/
www.president.kz,193.193.238.98,47.500,67.200,Kazakhstan,
access.sprace.org.br,200.136.80.18,-23.5242,-46.6653,Brazil,http://spruna.if.usp.br
t3-1.pax-ca-gw1.netcom.net,163.179.219.2,NOT-SET,,NOT-SET,
frcpn11.in2p3.fr,NOT-SET,48.867,2.333,France,
www.t2t.re,91.121.177.148,-20.87,55.47,Reunion-French Colony,http://www.t2t.re/
cnsuty.cns.s.u-tokyo.ac.jp,133.11.180.53,35.700,139.767,Japan,
csuca.edu.gt,200.49.167.233,14.63,-90.37,Guatemala,
www.ubd.edu.bn,202.160.1.64,4.9765,114.8950,Brunei,http://www.ubd.edu.bn
ippm.merit.edu,198.108.0.12,42.283,-83.750,United States,
www.dut.ac.za,196.2.164.249,-29.851,31.0114,South Africa,http://www.dut.ac.za
www.undana.ac.id,180.250.181.103,-10.1833,123.5833,Indonesia,http://www.undana.ac.id
borsu20.cenbg.in2p3.fr,134.158.119.10,48.68,1.1,France,
dns1.arm.gov,192.148.93.23,46.28,-119.28,United States,
li.lightning.net,NOT-SET,40.747,-73.633,United States,
netmon.desy.de,131.169.118.35,53.5748,9.8779,Germany,
www.inet.sy,212.11.196.172,33.5,36.3,Syria,http://www.inet.sy
www.vodafone.com.mt,80.85.96.146,35.89,14.51,Malta,http://www.vodafone.com.mt
coriolis.ba.infn.it,192.135.20.204,41.12,16.87,Italy,
www.marwan.ma,196.200.131.1,34.03,-6.85,Morocco,http://www.marwan.ma
198.49.208.253,198.49.208.253,41.85,-88.31,United States,
h-st2-7.aspn.net,63.25.143.3,34.053,-118.3,United States,
mbl-63-82-203.dsl.net.pk,203.82.63.254,33.67,73.13,Pakistan,http://www.dsl.net.pk
gluino.phys.unm.edu,198.59.169.74,35.08,-106.65,United States,
www.gjk.gov.al,80.91.112.10,41.33,19.82,Albania,http://www.gjk.gov.al
www.greenwichuniversity.com,,,,,
www.rwandaparliament.gov.rw,197.243.16.111,-2.00,30.00,Rwanda,http://www.rwandaparliament.gov.rw
www.myren.net.my,150.129.184.32,2.9251,101.6574,Malaysia,http://www.myren.net.my
www.redcrescent.az,149.255.152.44,40.40,49.87,Azerbaijan,http://www.redcrescent.a
dsna1.na.infn.it,192.84.134.50,40.80,14.20,Italy,
avaxfi.fi.infn.it,192.84.145.14,41.883,12.500,Italy,
gold.sao.nrc.ca,132.246.10.2,45.417,-75.700,Canada,
sap-tap.kr.apan.net,203.255.248.174,37.550,126.967,Korea, Rep,
www.bracuniversity.net,202.168.254.6,23.77,90.38,Bangladesh,http://www.bracuniversity.net
171.66.223.1,171.66.223.1,37.775,-122.417,United States,
speedtest.com.sg,202.150.221.170,1.17,103.51,Singapore,http://www.speedtest.com.sg/speedtest/upload.php
ewu-sap.kr.apan.net,203.255.248.225,37.56,127,Korea, Rep,
www.cti.edu.sa,212.24.237.41,24.6408,46.7728,Saudi Arabia,http://www.cti.edu.sa
lyoinfo.in2p3.fr,134.158.138.50,48.867,2.333,France,
ukans.edu,NOT-SET,NOT-SET,,United States,
193.111.11.8,193.111.11.8,38.56,68.7739,Tajikistan,
www.uerm.edu.ph,116.50.153.44,14.604,120.98,Philippines,http://www.uerm.edu.ph
www.inetvr.com.br,200.187.80.35,-23.12,-47.17,Brazil,http://www.inetvr.com.br/teste1/speedtest/upload.php
hep50e.uoregon.edu,,,,,
d-alpha.umd.edu,128.8.86.74,38.987,-76.933,United States,
surnet.cl,216.155.73.162,-39.38,-73.5,Chile,http://www2.surnet.cl/speedtest/upload.php
www.globalnet.cm,196.202.232.6,6,12,Cameroon,http://www.globalnet.cm
bovi.slac.stanford.edu,,,,,
www.bancatlan.hn,200.3.194.20,14.0783,-87.1837,Honduras,http://www.bancatlan.hn/
www.bancosol.co.ao,200.157.74.4,-8.917,13.167,Angola,http://www.bancosol.co.ao
cbinet.bi,196.2.12.32,-3.3762,29.3593,Burundi,http://www.cbinet.bi
gu.edu.pk,67.19.81.186,31.8,70.9,Pakistan,http://www.gu.edu.pk
www.univ-reunion.fr,194.199.72.18,-20.92,55.45,Reunion-French Colony,
cni.md,212.0.205.4,47.00,28.86,Moldova,
tap-kaist.kr.apan.net,203.255.248.234,37.550,126.967,Korea, Rep,
s-cross.tokai.jaeri.go.jp,133.53.249.2,35.700,139.767,Japan,
speedtest.isp.qa,82.148.96.85,25.3,51.52,Qatar,http://speedtest.isp.qa/speedtest/upload.php
bofur.rmki.kfki.hu,148.6.176.201,47.500,19.083,Hungary,http://www.rmki.kfki.hu
www.realbroadband.co.sz,196.28.7.21,-26.3167,31.1333,Swaziland,
speedtest.antik.sk,88.212.0.30,48.43,21.15,Slovak Republic,http://speedtest.antik.sk/speedtest/upload.php
www.iihe.ac.be,193.190.247.80,50.833,4.350,Belgium,
www.alfuratuniv.org,208.91.197.134,35.3333,40.1500,Syria,http://www.alfuratuniv.org/
llnl.gov,128.115.249.1,37.68,-121.77,United States,
wrw.ornl.gov,160.91.212.99,36.01,-84.27,United States,
hep505.cithep.caltech.ed4,NOT-SET,NOT-SET,,NOT-SET,
202.136.240.249,202.136.240.249,18,105,Laos,http://www.laopdr.com
www.fjwu.edu.pk,66.96.217.181,33.6,73.0,Pakistan,http://www.fjwu.edu.pk
wwwmics.er.ysics.colostate.edu,NOT-SET,40.580,-105.067,United States,
www.borneo.ac.id,180.250.193.177,3.3036,117.6243,Indonesia,http://www.borneo.ac.id
portal.ucb.edu.bo,190.129.73.16,-16.5,-68.15,Bolivia,
www.ic.uff.br,200.20.15.48,-22.90665,-43.133,Brazil,http://www.ic.uff.br
www.rikkyo.ac.jp,202.232.33.66,NOT-SET,,NOT-SET,
rarfsun.riken.go.jp,134.160.38.130,35.700,139.767,Japan,http://www.riken.jp
pingerjms.pern.edu.pk,121.52.154.11,25.4178,68.2627,Pakistan,http://pingerjms.pern.edu.pk/
hay-ca-pm6.netcom.net,163.179.191.13,NOT-SET,,NOT-SET,
canel5.iis.sinica.edu.tw,140.109.19.1,25.03,121.63,Taiwan,
btc.bw,168.167.168.34,-24.646,25.9119,Botswana,http://www.btc.bw
nameserv2.sys.hokudai.ac.jp,210.229.168.82,44.300,142.567,Japan,
neutrinos.uv.es,147.156.161.20,40.417,-3.717,Spain,
mms1.desy.de,131.169.80.56,53.53,9.98,Germany,http://www.desy.de
www.bfa.ao,195.8.23.168,-12.67,15.60,Angola,http://www.bfa.ao
www.kek.js.waikato.ac.nz,10.0.0.4,NOT-SET,,New Zealand,
asrv1.iihe.ac.be,193.190.246.90,50.833,4.350,Belgium,
wwwinfo.jinr.ru,159.93.39.20,55.750,37.583,Russia,http://wwwinfo.jinr.ru
latinalfuheis.edu.jo,81.28.112.1,32.63,35.82,Jordan,
bowlingzveza.si,212.44.99.145,46.5547,15.6467,Slovenia,http://www.bowlingzveza.si
aup.seecs.edu.pk,121.52.146.67,34.0207,71.4830,Pakistan,http://aup.seecs.edu.pk
www.bocodol.ac.bw,213.193.46.87,-24.647,25.9119,Botswana,http://www.bocodol.ac.bw
www.aiou.edu.pk,202.83.173.34,33.7,73.1,Pakistan,http://www.aiou.edu.pk
g3-0.khi77c1.pie.net.pk,202.125.128.163,33.7,73.1,Pakistan,
hep.uta.edu,129.107.14.77,32.44,97.07,United States,
www.fugu.ec.,200.124.230.196,-0.2295,-78.5243,Ecuador,http://www.fugu.ec.
speedtest.bigtelecom.ru,87.255.1.133,55.83,37.06,Russia,http://speedtest.bigtelecom.ru/speedtest/upload.php
ns1.ut131.225.9.8,NOT-SET,NOT-SET,,NOT-SET,
zebu.uoregon.edu,128.223.21.25,44.05,-123.09,United States,
www.unza.zm,196.46.223.3,-15.417,28.283,Zambia,http://www.unza.zm
81.199.21.194,81.199.21.194,0.32,32.58,Uganda,
vicky.stanford.edu,171.64.2.10,37.442,-122.150,United States,
pdsfgrid4.nersc.gov,128.55.24.29,37.87,-122.27,United States,
cagiva.pa.msu.edu,35.9.71.63,,,United States,
satsun.sci.kz,194.67.224.1,47.500,66.500,Kazakhstan,
ns.fq.edu.uy,164.73.160.194,-34.56,-56.11,Uruguay,
gt-medicionesuy.rau.edu.uy,164.73.128.145,-34.883,-56.183,Uruguay,http://gt-medicionesuy.rau.edu.uy
193.60.157.104,193.60.157.104,53.5,-2.21,United Kingdom,
www.minfin.gv.ao,66.110.114.72,-8.917,13.167,Angola,http://www.minfin.gv.ao
mail.comium.com.sl,84.54.21.79,8.5,-11.5,Sierra Leone,
www.kia.ps,176.9.131.110,31.9,35.2,Palestine,http://www.kia.ps/
bahria.edu.pk,72.36.167.106,33.7,73.2,Pakistan,http://www.bahria.edu.pk
www.ait.ac.th,203.159.12.4,13.969,100.62,Thailand,http://www.ait.ac.th
www.umn.edu,134.84.119.7,44.9733,-93.2323,United States,http://umn.edu
physuna.phssics.colostate.edu,,,,,
colorado.edu,128.138.238.18,40.04,-105.27,United States,
sirsyed.ssuet.edu.pk,111.68.108.179,24.91,67.1,Pakistan,http://sirsyed.ssuet.edu.pk
pingcea.fr,,,,,
nucc.cc.nagoya-u.ac.jp,133.6.90.1,35.13,136.88,Japan,
ns.bnl.gov,130.199.128.14,40.76,-72.90,United States,
complab.upt.al,193.254.2.4,41.270,19.650,Albania,
praslin.seychelles.net,217.161.116.35,35.76,-90.06,Seychelles,
www.hpu.edu,207.97.208.129,21.3091,-157.8610,United States,http://www.hpu.edu
argus.stanford.edd.edu,,,,,
brasisb.ntc.net.pk,202.83.160.35,33.7,73.1,Pakistan,
ns.ritualpc.com.sv,168.243.206.57,14,-89.52,El Salvador,
www.kenet.or.ke,41.204.161.3,-1.28,36.83,Kenya,http://www.kenet.or.ke
www.physics.fsu.edu,128.186.7.5,30.445,-84.267,United States,
www.region.am,195.250.83.82,40.18,44.5,Armenia,http://www.region.am
ns1.alfredstate.edu,136.224.66.11,42.2552,-77.7947,United States,http://www.alfredstate.edu
www.cnss.ga,217.77.68.133,0.3833,9.45,Gabon,http://www.cnss.ga
www.ag3l.ga,217.77.72.115,0.3833,9.45,Gabon,http://www.ag3l.ga
lises.asm.md,195.138.120.205,47.06,28.86,Moldova,
www.fapesp.br,143.108.10.6,-15.783,-47.917,Brazil,
lbl.gov,128.3.7.82,37.87,-122.27,United States,
dns.ornl.gov,128.219.153.31,36.01,-84.27,United States,
waib.gouv.bj,81.91.232.2,9.5,2.25,Benin,http://www.gouv.bj
www.uaemex.mx,148.215.1.22,NOT-SET,,Mexico,
www.csir.co.za,146.64.81.59,-25.43,28.11,South Africa,
emerge.com.my,210.48.155.230,3.1541,101.6032,Malaysia,http://emerge.com.my
linhost2.utic.net.ba,195.130.35.104,43.85,18.383,Bosnia Herzegovina,http://www.utic.net.ba
www.untan.ac.id,180.250.125.222,-0.0225,109.3303,Indonesia,http://www.untan.ac.id
ccc5-np.cit.cornell.edu,NOT-SET,41.48,-81.68,United States,
rknss1.riken.go.jp,134.160.33.4,35.700,139.767,Japan,
www.mogbiz.by,194.158.206.243,53.9139,30.3364,Belarus,http://www.mogbiz.by
lbl.csc.cuhk.edu.hk,137.189.27.61,22.283,114.15,China,http://lbl.csc.cuhk.edu.hk
cobra-f.gsfc.nasa.gov,128.183.245.16,37.323,-121.933,United States,
www.mmu.edu.my,45.64.168.84,2.9275,101.6410,Malaysia,http://www.mmu.edu.my
ns2.slac.85.13,NOT-SET,NOT-SET,,NOT-SET,
www.unisa.ac.za,163.200.147.172,-30.46,28.34,South Africa,
www.du.ac.bd,180.211.215.124,23.7342,90.3928,Bangladesh,http://www.du.ac.bd
www.umk.edu.my,43.252.215.208,6.1007,102.2849,Malaysia,http://www.umk.edu.my
www.muni.cz,147.251.5.231,49.1987,16.6051,Czech Republic,http://www.muni.cz
dns.cit.cornell.edu,192.35.82.50,42.442,-76.500,United States,
ftp.physics.carleton.ca,134.117.14.27,45.41,-75.70,Canada,
www.nuuz.uzsci.net,83.69.129.47,41.3,69.27,Uzbekistan,
www.eniram.fi,83.145.253.133,60.1528,24.8801,Finland,http://www.eniram.fi/
mail2.starcom.co.ug,41.190.153.21,0.32,32.58,Uganda,
www.cresp.sn,64.78.40.23,14.72,-17.26,Senegal,
hyu-sxp.kr.apan.net,203.255.248.217,NOT-SET,,NOT-SET,
www.sno.phy.queensu.ca,130.15.24.27,43.650,-79.333,Canada,
mail.africell.sl,41.223.133.25,8.5,-11.5,Sierra Leone,
cdfsg5.lbl.gov,128.3.2.42,37.873,-122.267,United States,
ns1.restena.lu,158.64.1.23,49.75,6.167,Luxembourg,
www.keralauniversity.edu,207.139.45.67,NOT-SET,,India,
www.grays.mu,193.227.249.236,-20.2444,57.554,Mauritius,http://www.grays.mu
g.root-servers.net,192.112.36.4,38.810,-77.183,United States,
www.cnn.com,207.25.71.26,33.763,-84.317,United States,
library.ucb.edu.bh,109.161.148.109,26.217,50.583,Bahrain,http://library.ucb.edu.bh
www.officedubacbenin.bj,81.91.236.77,6.35,2.433,Benin,http://www.officedubacbenin.bj
oceanus.slac.soceanus.slac.stanford.edu,,,,,
www.mzuni.ac.mw,193.220.46.3,-11.45,33.92,Malawi,http://www.mzuni.ac.mw
www.socatel.cf,196.32.200.11,7.00,21.00,Central African Republic,http://www.socatel.cf
ikf.physik.uni-frankfurt.de,NOT-SET,NOT-SET,,Germany,
speedtest.cablecolor.hn,190.92.1.5,14.08,-87.22,Honduras,http://speedtest.cablecolor.hn/speedtest/upload.php
max2-berkeley.winterlan.net,NOT-SET,37.873,-122.267,United States,
speedtest-roubaix.snsci.net,91.121.112.28,50.41,3.11,France,http://speedtest-roubaix.snsci.net/speedtest/upload.php
www.iitd..ac.in,202.141.68.9,,,India,
pinger.uettaxila.edu.pk,111.68.98.132,33.767897,72.825875,Pakistan,http://www.uettaxila.edu.pk
www.cu.ac.bd,180.211.172.163,24,90,Bangladesh,http://www.cu.ac.bd
ccpntc3.in2p3.cmu.edu,,,,,
www.jinr.dubna.su,159.93.39.7,55.750,37.583,Russia,
unix.savba.sk,147.213.1.3,NOT-SET,,Slovak Republic,
HYDERABAD.IN,67.15.35.126,17.37,78.43,India,
www.cethz.ch,,,,,
www.unmsm.edu.pe,200.62.146.10,-12.050,-77.050,Peru,
pinger.narss.sci.eg,195.43.3.135,30.1191,31.3103,Egypt,http://www.narss.sci.eg
ns.hip.fi,128.214.224.150,60.167,24.967,Finland,
ns2.slac.stanford.edu,134.79.16.10,37.41,-122.20,United States,
ya1.utexas.edu,,NOT-SET,,United States,
tpr-atm3-0-3.jp.apan.net,203.181.248.234,35.75,139.50,Japan,
www.gutierrez.com,206.105.100.5,0,0,United States,
ns2.radio-msu.net,194.67.223.143,55.750,37.583,Russia,
www.senacyt.gob.pa,200.46.157.8,9.0035,-79.5884,Panama,http://www.senacyt.gob.pa/
www.lu.t.ee,,,,,
pi.edu,NOT-SET,NOT-SET,,United States,
pnterprise.phys.vt.edu,,,,,
www.anadolu.edu.tr,212.175.41.18,39.77,30.5,Turkey,
www.research.uninet.cm,41.204.94.233,3.8574,11.5014,Cameroon,http://www.research.uninet.cm/
bovus.stanford.edu,NOT-SET,NOT-SET,,NOT-SET,
www.cg.auf.org,82.206.144.35,-4.25,15.28,Republic of the Congo,http://www.cg.auf.org
washington3.cw.net,NOT-SET,NOT-SET,,NOT-SET,
netmon.cnuce.cnr.it,192.65.131.36,41.883,12.500,Italy,
heplx1.phy.duke.edu,152.3.57.24,35.99,-78.90,United States,
www.geo.edu.al,46.252.32.74,41.3393,19.8029,Albania,http://www.geo.edu.al/
lnfnet.lnf.infn.it,193.206.84.12,41.60,12.60,Italy,
www.cbs.co.ls,196.202.240.21,-29.32,27.48,Lesotho,http://www.cbs.co.ls
www.uvm.edu,132.198.101.197,44.4421,-73.0825,United States,http://www.uvm.edu
ns.ecm.ub.es,161.116.81.151,41.28,2.07,Spain,http://www.ub.es
glastlnx06.slac.stanford.edu,134.79.86.186,37.41,-122.20,United States,http://glast.stanford.edu/
www.parlamento.tl,180.189.166.179,-8.5549,125.5799,Timor-Leste,http://www.parlamento.tl
photon.hepl.hiroshima-u.ac.jp,202.13.220.95,34.40,132.50,Japan,
www.erimoe.gov.er,196.200.97.1,15.33,38.97,Eritrea,
www.sustetch.edu,,,,,
love.nse.com.ng,195.166.232.4,6.45,3.47,Nigeria,http://www.nse.com.ng
rtd-sap.kr.apan.net,203.255.248.237,37.550,126.967,Korea, Rep,
speedtest.bbmax.co.uk,85.233.160.167,51.3,0.07,United Kingdom,http://www.speedtest.bbmax.co.uk/speedtest/upload.php
speedtest.net.pl,139.59.166.230,52.13,21,Poland,http://www.speedtest.net.pl/speedtest/upload.php
sherlock.transpac.org,192.203.116.4,47.6062,-122.3321,United States,
cpr-sjtu.sjtu.edu.cn,202.120.38.177,31.236,121.478,China,http://www.sjtu.edu.cn/
www.makumira.ac.tz,193.220.91.200,-3.36,36.63,Tanzania,
ns1..cs.wisc.edu,,,,,
ALJUBAYL.TWX.SA,66.178.68.5,27.01,49.40,Saudi Arabia,
hephp5.rl.ac.uk,130.246.44.7,51.75,-1.25,United Kingdom,
pp2.it.su.se,130.237.162.80,59.33,18.05,Sweden,http://www.su.se
www.natcom.com.ht,186.1.198.5,18.5333,-72.3333,Haiti,http://www.natcom.com.ht
www.assemblee-nationale.cg,80.248.219.102,-4.25,15.28,Republic of the Congo,http://www.assemblee-nationale.cg
www.usim.edu.my,103.18.93.98,2.8427,101.7813,Malaysia,http://www.usim.edu.my
192.215.71.29,192.215.71.29,NOT-SET,,NOT-SET,
netwatch.sinica.edu.tw,140.109.13.101,25.03,121.63,Taiwan,
tokyo.scphys.kyoto-u.ac.jp,130.54.54.159,35.700,139.767,Japan,
ewha-sxp.kr.apan.net,203.255.248.225,NOT-SET,,NOT-SET,
bangalore.cniedc.in,202.141.136.156,12.97,77.58,India,
pcpntc3.in2p3.fr,,,,,
www.acmad.ne,41.138.57.34,13.5167,2.1167,Niger,http://www.acmad.ne
www.multi.net.pk,202.141.224.36,33.4,73.1,Pakistan,http://www.multi.net.pk
argus.stanfornford.edu,,,,,
ns2.sztaki.hu,193.225.86.1,47.43,19.25,Hungary,
www.ku.ac.th,158.108.216.5,13.8475,100.5620,Thailand,http://www.ku.ac.th
lnssuna.phs.uc.edu,,,,,
thor.unipune.ernet.in,196.1.114.1,28.617,77.217,India,
pingum.mcs.anl.gov,,,,,
www.rmit.edu.vn,222.255.76.137,10.75,106.67,Vietnam,http://www.rmit.edu.vn
bet.ijs.si,,,,,
www.iop.org,193.131.119.37,51.48,-2.57,United Kingdom,
www.rmutsv.ac.th,203.158.177.166,14.0135,100.5305,Thailand,http://www.rmutsv.ac.th
lalinfo.in2p3.fr,134.158.91.3,48.867,2.333,France,
yalphuc.edu,NOT-SET,NOT-SET,,United States,
www.mfat.gov.mn,202.179.8.199,47.9167,106.9167,Mongolia,http://www.mfat.gov.mn
www.giki.edu.pk,119.159.235.52,34.0667,72.6167,Pakistan,http://www.giki.edu.pk
fn781a.fnal.gov,131.225.204.66,41.85,-88.31,United States,
www.agpe.ma,212.217.0.30,34.0253,-6.8361,Morocco,http://www.agpe.ma
www.ucd.ac.ma,196.200.172.55,33.2333,-8.5000,Morocco,http://www.ucd.ac.ma
khi.comsats.net.pk,210.56.4.10,NOT-SET,,Pakistan,
bigwheel.princeton.edu,128.112.84.42,40.35,-74.66,United States,
pktw03.phy.tu-dresdenarleton.ca,NOT-SET,NOT-SET,,Canada,
yalsuna.phs.uc.edu,NOT-SET,NOT-SET,,NOT-SET,
br6s5s6-ring-sp2.ascc.net,140.109.12.1,NOT-SET,,NOT-SET,
www.dvo.ru,94.198.16.4,43.15,131.9,Russia,
171.66.199.90,171.66.199.90,NOT-SET,,NOT-SET,
pinger.cdac.mumbai.in,209.85.51.151,18.93,72.85,India,
www.okstate.edu,139.78.99.6,36.11,-97.01,United States,http://www.okstate.edu
www.auth.gr,155.207.1.12,40.64,22.96,Greece,http://www.auth.gr
scipp.ucsumf.ca,,,,,
yalph2.p44.4,NOT-SET,NOT-SET,,NOT-SET,
www.suanet.ac.tz,41.73.194.141,-6.8221,37.6612,Tanzania,http://www.suanet.ac.tz/
arng.bnl.gov,,,,,
www.gamcel.gm,212.60.66.243,13.4531,-16.5775,Gambia,http://www.gamcel.gm
www.mfa.gov.al,80.91.114.250,41.33,19.82,Albania,http://www.mfa.gov.al/english/
icfamon.rl.ac.uk,130.246.135.152,51.5722,-1.3099,United Kingdom,http://www.scitech.ac.uk/About/Conts/Find/RAL/Introduction.aspx
www.unmul.ac.id,103.31.207.26,-0.5022,117.1538,Indonesia,http://www.unmul.ac.id
www.pa.msu.edu,35.9.68.172,42.735,-84.467,United States,
tquark.pha.jhu.edu,128.220.233.171,39.3302,-76.6205,United States,
www.aaaa.mn,202.170.69.24,47.9167,106.9167,Mongolia,http://www.aaaa.mn
gibnet.gi,195.166.192.7,36.133,-5.35,Gibralter,http://gibnet.gi/
ns.cybercentro.com.sv,168.243.196.98,13.67,-89.17,El Salvador,
www.thphys.may.ie,149.157.205.5,53.333,-6.250,Ireland,
www.intelig.net.br,200.224.137.73,-15.783,-47.917,Brazil,
hepfm000.uta.edu,129.107.50.100,32.44,97.07,United States,
dsc.edu,,,,,
gaia.phy.bris.ac.uk,137.222.58.11,51.500,-0.167,United Kingdom,
washington4.cw.net,NOT-SET,NOT-SET,,NOT-SET,
ku-sap.kr.apan.net,203.255.248.205,37.550,126.967,Korea, Rep,
pine.zk3-x.dec.com,206.152.163.31,37.00,-122.00,United States,
www.ml.refer.org,196.200.90.99,12.67,-7.98,Mali,http://www.ml.refer.org
br3s6p1-10bf-bc.ascc.net,140.109.64.1,25.03,121.63,Taiwan,
ns.nuri.net,210.116.105.164,35.700,139.767,Japan,
ezmp3.switch.ch,130.59.35.86,47.38,8.55,Switzerland,
mfdd.cims.nyu.edu,128.122.81.155,40.849,-73.867,United States,
134.158.80.3,134.158.80.3,NOT-SET,,,
otf1.er.doe.gov,192.73.213.17,38.90,-77.04,United States,
www.apdf.org.ml,217.64.109.155,12.65,-8,Mali,http://www.apdf.org.ml
www.upa.edu.lb,213.175.177.203,33.8719,35.5097,Lebanon,http://www.upa.edu.lb
dnsg.desy.de,NOT-SET,NOT-SET,,NOT-SET,
www.nren.net.np,202.52.0.2,27.7056,85.3303,Nepal,http://www.nren.net.np
www.upt.al,217.73.131.5,41.3574,19.8393,Albania,http://www.upt.al/
ucdavis.edu,169.237.104.199,38.55,-121.74,United States,
stmarycollege.edu.et,213.55.83.210,8,38,Ethiopia,http://stmarycollege.edu.et
www.academy.uz,83.69.129.8,41.3052,69.2844,Uzbekistan,http://www.academy.uz/
www.lonab.bf,206.82.130.77,12.3702,-1.5247,Burkina Faso,http://www.lonab.bf
weizmann.ac.il,NOT-SET,31.783,35.233,Israel,
pingersonar-utm.myren.net.my,203.80.20.244,1.5592,103.6414,Malaysia,http://www.myren.net.my
gye.impsat.net.ec,200.31.30.47,-0.25,-78.58,Ecuador,
www.unissa.edu.bn,202.93.220.165,4.9059,114.912,Brunei,http://www.unissa.edu.bn
36.66.193.9,36.66.193.9,NOT-SET,,NOT-SET,
www.itep.ru,194.85.69.252,55.75,37.61,Russia,www.itep.ru
bigvax.alfred.edu,149.84.1.2,42.258,-77.783,United States,
ipndec2.unil.ch,130.223.140.96,NOT-SET,,Switzerland,
gamma.carnet.hr,161.53.123.4,45.817,15.933,Croatia,
traceroute.hkt.net,202.84.255.15,22.18,114.23,China,
mars.sunyjcc.edu,143.67.10.9,42.650,-73.750,United States,
www.futminna.edu.ng,197.211.34.37,9.6538,6.5270,Nigeria,http://www.futminna.edu.ng
mich1.physics.lsa.umich.edu,141.211.101.32,42.28,-83.75,United States,
gjerrigknarken.no,77.40.236.248,60.39,5.32,Norway,http://gjerrigknarken.no/
mossulbay.twx.za,196.15.147.66,NOT-SET,,South Africa,
goodsmart.com.vn,173.193.223.221,21.03,105.85,Vietnam,http://goodsmart.com.vn
rarfaxp.riken.go.jp,134.160.38.129,35.78,139.62,Japan,
www.ikf.physik.uni-frankfurt.de,141.2.243.3,52.270,13.180,Germany,
www.unn.ru,85.143.0.20,56.33,44,Russia,
speedtest.airwire.ie,195.222.111.223,53.27,-9.04,Ireland,http://speedtest.airwire.ie/speedtest/upload.php
lattice.nsw.aarnet.net.au,203.15.123.130,-33.88,151.217,Australia,
gw32.hep.ph.ic.ac.uk,155.198.216.143,51.500,-0.167,United Kingdom,
ns.above.net,207.126.96.162,37.335,-121.867,United States,
pinger.vu.edu.pk,111.68.103.35,31.40080883,74.21349138,Pakistan,http://pinger.vu.edu.pk
www.iiu.edu.pk,87.106.63.41,33.7,73.1,Pakistan,http://www.iiu.edu.pk
www.aio.upjs.sk,158.197.16.71,48.7167,21.25,Slovak Republic,http://www.aio.upjs.sk
h-207-148-158-82.gen.cadvision.com,207.148.158.82,51.08,-114.08,Canada,
www.uohyd.ernet.in,,,,,
www.zeraa.gov.iq,78.109.237.44,33.3147,44.4254,Iraq,http://www.zeraa.gov.iq/
ccjalteon02.riken.go.jp,134.160.229.253,35.78,139.62,Japan,
www.aser.sn,41.208.153.76,14.75,-17.333,Senegal,
ngl2.internal.nextgen.net.mt,80.77.193.20,35.90,14.47,Malta,http://www.maltatoday.com.mt
router.cableco-op.com,NOT-SET,37.442,-122.150,United States,
www.tubane.bi,196.2.13.50,-3.3901,29.3602,Burundi,http://www.tubane.bi
riksun.riken.go.jp,134.160.38.1,35.700,139.767,Japan,
202.41.85.71,202.41.85.71,,,,
dns1.gla.ac.uk,130.209.4.16,55.90,-4.30,United Kingdom,
td-home-g-su.net,171.66.223.1,37.775,-122.417,United States,
www.courdescomptes.ne,41.138.59.19,3.5116,2.1254,Niger,http://www.courdescomptes.ne/
www.uol.com.br,200.147.67.142,-15.783,-47.917,Brazil,
dukhet.phy.duke.edu,152.3.57.20,35.99,-78.90,United States,
www.uci.cu,200.55.140.185,23.13,-82.36,Cuba,
pinger.theenglishyouneed.com,128.79.33.176,48.79875,2.28236,France,http://www.ville-chatillon.fr/
www.libtelco.com.lr,41.86.4.12,6.290839,-10.776024,Liberia,http://www.libtelco.com.lr
hba-a-pm1aarnet.net.au,202.128.196.196,-42.8,147.5,Australia,http://www.aarnet.edu.au
ping.bst.bls.com,205.152.56.147,33.00,-84.00,United States,
speedtest.meganets.ru,37.230.114.67,55.15,37.57,Russia,http://speedtest.meganets.ru/speedtest/upload.php
www.aerodept.edu.ly,62.240.36.40,32.8762,13.187,Libya Arab Jamahiriya,http://www.aerodept.edu.ly
fyllingenfotball.no,83.143.81.174,59.9167,10.75,Norway,http://www.fyllingenfotball.no/
www.nus.edu.sg,137.132.21.27,1.2941,103.7811,Singapore,http://www.nus.edu.sg
www.agetraf.cd,81.199.168.9,-4.25,15.28,Democratic Republic of Congo,http://www.agetraf.cd
parametresis.intel.com,134.134.214.85,45.31,-122.59,United States,
utexas.edu,NOT-SET,30.282,-97.733,United States,
ns1.slac.stanford.edu,134.79.16.9,37.42,-122.20,United States,
www.lightning.net,216.218.186.2,37.516,-121.896,United States,http://www.he.net
82.137.192.62,82.137.192.62,33.30,36.18,Syria,
cdcnet.uniandes.edu.co,157.253.1.13,4.6016,-74.0653,Colombia,http://www.uniandes.edu.co
icfamonlnf.infn.it,,,,,
www.cnaps.mg,41.188.38.233,-18.9149,47.5316,Madagascar,
www.het.brown.edu,128.148.26.157,41.817,-71.400,United States,
chiral.phys.titech.ac.jp,131.112.104.135,35.68,139.73,Japan,
www.uniandes.edu.co,157.253.50.8,4.617,-74.050,Colombia,
www.indosat.net.id,202.155.27.131,-6.13,106.75,Indonesia,http://www.indosat.net.id
www.thawraonline.sy,212.11.196.179,33.5193,36.3134,Syria,http://www.thawraonline.sy
web.africaonline.co.sz,212.85.220.18,-26.5,31.5,Swaziland,
www.fdbghana.gov.gh,41.204.35.139,5.55,-0.2167,Ghana,http://www.fdbghana.gov.gh
www.smu.edu.sg,192.230.65.80,1.2967,103.8506,Singapore,http://www.smu.edu.sg
xserver1.nrl.navy.mil,132.250.110.45,38.85,-77.04,United States,http://www.nrl.navy.mil
ifi-gw.unicamp.br,143.106.2.7,-22.90,-47.10,Brazil,
www.bcpng.org.pg,202.171.240.212,-9.4645,147.1591,Papua New Guinea,http://www.bcpng.org.pg
het.phast.umass.edu,128.119.50.14,42.38,-72.52,United States,
www.nic.mr,41.188.65.195,18.086,-15.975,Mauritania,http://www.nic.mr
www.parliament.mn,103.9.91.133,47.9206,106.9172,Mongolia,http://www.parliament.mn/
137.138.131.253,137.138.131.253,46.950,7.500,Switzerland,
www.univ-cocody.ci,196.201.79.163,5.3470,-3.9853,Ivory Coast,http://www.univ-cocody.ci
physu50.physics.colostate.edu,,,,,
www.uls.edu.lb,193.188.135.50,33.8669,35.5290,Lebanon,http://www.uls.edu.lb
mppmu.mpg.de,NOT-SET,52.270,13.180,Germany,
www.unimelb.edu.au,128.250.148.40,-37.83,145.00,Australia,
astra.acad.bg,194.141.0.2,42.750,23.333,Bulgaria,
dcc.bg,91.215.216.18,42.15,24.75,Bulgaria,http://www.dcc.bg/speedtest/upload.php
80.231.23.88,80.231.23.88,10,49,Somalia,
sgp.arm.gov,198.124.99.10,36.69,-97.55,United States,
davinci.ampath.net,198.32.252.62,25.77,-80.90,United States,http://www.fiu.edu
yalpeid.physics.utoronto.ca,,,,,
www.gbs.cd,217.171.88.141,-4.3,15.3,Democratic Republic of Congo,http://www.gb-solution.com
vxcern.cern.ch,137.138.28.126,46.23,6.06,Switzerland,
mich.physics.lsa.umich.edu,141.211.101.33,,,United States,
speed.pollub.pl,212.182.64.83,51.14,22.34,Poland,http://speed.pollub.pl/speedtest/upload.php
he-web.higher.edu.et,213.55.93.153,8,38,Ethiopia,http://www.higher.edu.et
ns.hana.ne.kr,220.90.238.66,37.550,126.967,Korea, Rep,
www.nic.ci,213.136.100.82,5.3411,-4.0281,Ivory Coast,http://www.nic.ci
pirv1.iihe.ac.be,,,,,
ns.s.u-tokyo.ac.jp,133.11.11.111,35.700,139.767,Japan,
www.tishreen.edu.sy,95.159.58.36,35.5210,35.8075,Syria,http://www.tishreen.edu.sy
minos.slac.stanford.edu,134.79.196.100,37.42,-122.20,United States,
mercury.ultralight.org,192.84.86.19,42.27,-83.72,United States,http://www.ultralight.org
enterprises.uc.edu,,,,,
gla.ac.uk,,,,,
lpshpd.lps.umontreal.ca,132.204.64.65,45.50,-73.60,Canada,
msmail.buffalo.edu,128.205.198.52,42.887,-78.867,United States,
lns62.lphy.tu-dresden.de,,,,,
www.togotelecom.tg,41.207.178.38,6.1378,1.2125,Togo,http://www.togotelecom.tg/
196.21.45.139,196.21.45.139,-33.92,18.41,South Africa,
lxusa-ge.cern.ch,NOT-SET,41.85,-87.65,United States,
www.ceiemat.es,,,,,
hpcdev01.jlab.org,NOT-SET,36.98,-76.43,United States,
128.174.118.51,128.174.118.51,NOT-SET,,NOT-SET,
www.singtel.com,203.126.100.199,1.37,103.8,Singapore,http://www.singtel.com
www.sadeem.com.ly,62.240.36.38,32.83175,13.02364,Libya Arab Jamahiriya,http://www.sadeem.com.ly
www.nwu.ac.za,143.160.39.4,-26.71,27.1,South Africa,http://www.nwu.ac.za
mailrelay1.cc.columbia.edu,128.59.35.143,40.849,-73.867,United States,
www.ygsmrb.org.ye,82.114.183.106,15.3520,44.2074,Yemen,http://www.ygsmrb.org.ye
tpr.kr.apan.net,203.255.248.1,37.550,126.967,Korea, Rep,
www.register.bs,65.75.64.73,25.0616,-77.3533,Bahamas,http://www.register.bs
140.109.32.1,140.109.32.1,25.02,121.45,Taiwan,
www.vnu.edu.vn,112.137.142.4,21.0003,105.8418,Vietnam,http://www.vnu.edu.vn
arm.gov,192.148.93.23,38.895,-77.0366,United States,
www.mnu.edu.mv,202.1.196.6,-0.6096,73.0934,Maldives,http://www.mnu.edu.mv/
h-st-220.aspn.net,206.168.233.220,NOT-SET,,NOT-SET,
www.mppmu.mpg.de,134.107.24.10,48.15,11.58,Germany,
mail192.er.doe.gov,192.73.213.47,38.90,-77.04,United States,
string.harvard.edu,128.103.101.36,42.365,-71.100,United States,
borcenbg1.in2p3.fr,134.158.119.10,48.68,1.1,France,
sgiserv.rmki.kf,10.0.0.0,47.43,19.25,Hungary,
www.yale.edu,104.16.140.133,41.3081,-72.9282,United States,http://yale.edu
www.alex.edu.eg,193.227.16.38,30.05,31.25,Egypt,http://www.alex.edu.eg
d-nysics.carleton.ca,NOT-SET,NOT-SET,,Canada,
www.indo.net.id,117.54.8.197,-6.13,106.75,Indonesia,
www.andi.dz,213.179.181.44,36.733333,3.133333,Algeria,http://www.andi.dz
www.sharif.ir,81.31.160.60,35.7027,51.3513,Iran,http://www.sharif.ir
frcu.eun.eg,193.227.1.1,30.050,31.250,Egypt,
www.gouvernement.tg,41.207.186.197,8,1.667,Togo,http://www.gouvernement.tg
www.atdiv.lanl.gov,128.165.32.108,35.73,-105.15,United States,
134.117.14.40,134.117.14.40,NOT-SET,,NOT-SET,
www.osmania.ac.in,,,,,
customer-side1.telecomalbania.atnet.com.al,217.24.240.6,41.33,19.82,Albania,
203.99.50.206,203.99.50.206,33.40,73.08,Pakistan,
www.ru.ac.za,146.231.128.43,-33.30,26.51,South Africa,
www.bahamas.gov.bs,216.137.8.237,25.5,-76.65,Bahamas,http://www.bahamas.gov.bs
www.laopdr.gov.la,203.110.66.105,17.9667,102.6,Laos,http://www.laopdr.gov.la
www.fys.uio.no,129.240.84.18,59.933,10.750,Norway,
www.up.ac.pa,200.46.61.186,8.9847,-79.5354,Panama,http://www.up.ac.pa/
cbr-a-ext1.aarnet.net.au,202.158.196.4,-35.252,149.1343,Australia,http://cbr-a-ext1.aarnet.net.au
sun01a.desy.de,131.169.200.2,53.53,9.98,Germany,
sj.cache.nlanr.net,192.135.183.100,32.713,-117.150,United States,
www.itb.ac.id,167.205.1.34,-6.9147,107.6098,Indonesia,http://www.itb.ac.id
www.hope.edu,209.140.194.21,42.7423,-86.0661,United States,http://www.hope.edu
pingerkhi.pern.edu.pk,111.68.108.11,24.8881778,67.065914,Pakistan,http://pingerkhi.pern.edu.pk/
www.egerton.ac.ke,74.63.45.6,0.34,35.94,Kenya,
www.aq.edu.ph,103.225.137.25,13.1387,123.7353,Philippines,http://www.aq.edu.ph
ns.iaea.or.at,193.81.60.201,48.217,16.367,Austria,
www.cinfo.cu,169.158.178.119,23.1359,-82.3583,Cuba,http://www.cinfo.cu
archive.arm.gov,134.167.16.7,36.01,-84.26,United States,
www.he208,NOT-SET,NOT-SET,,NOT-SET,
domain.itmnetdirect.com,190.166.100.171,18.3,-69.59,Dominican Republic,http://domain.itmnetdirect.com:81/speedtest/upload.php
www.mtssr.edu.bn,202.93.220.182,4.9471,114.9539,Brunei,http://www.mtssr.edu.bn
snoopy.riken.jp,134.160.4.17,35.700,139.767,Japan,http://www.riken.jp
johannesburg.twx.za,196.31.26.158,-34.10,22.04,South Africa,
www.unimal.ac.id,180.250.40.104,5.1881,97.1403,Indonesia,http://www.unimal.ac.id
nic.nordu.net,192.36.148.17,41.85,-87.65,United States,
128.100.78.18,128.100.78.18,43.4981,-79.6129,Canada,
140.109.24.1,140.109.24.1,0,0,,
pingerlhr.pern.edu.pk,111.68.105.106,31.510717,74.352967,Pakistan,http://pingerlhr.pern.edu.pk
ping.e.uoregon.edu,,,,,
web.ucd.ac.ma,196.200.172.3,33.2,8.5,Morocco,
sky.inp.nsk.su,193.124.167.84,55.06,83.08,Russia,
www.nelly.com.do,200.88.126.40,18.4667,-69.9,Dominican Republic,http://www.nelly.com.do
www.npu.ac.th,202.29.55.4,17.3986,104.7210,Thailand,http://www.npu.ac.th
dxcnaf.cna.ac.uk,,,,,
www.haramaya.edu.et,213.55.85.92,9.5977,41.8554,Ethiopia,http://www.haramaya.edu.et
unitel.net,64.202.189.170,33.612,-111.9,Japan,
www.drtvnet.cg,41.203.0.229,-4.2667,15.2833,Republic of the Congo,http://www.drtvnet.cg/
153.90.3.20,153.90.3.20,45.682,-111.033,United States,
www.president.kg,212.112.114.66,42.8731,74.6003,Kyrgyzstan,http://www.president.kg
mail.unza.zm,41.63.1.22,-15.417,28.2833,Zambia,http://www.unza.zm
uaf.seecs.edu.pk,121.52.152.22,31.433741,73.070476,Pakistan,http://www.uaf.edu.pk
www.unlam.ac.id,43.252.138.158,-3.3285,114.5892,Indonesia,http://www.unlam.ac.id
www.cea.fr,132.166.172.2,48.44,2.10,France,
gua.amnetdatos.net,200.30.144.3,14.38,-90.33,Guatemala,http://gua.amnetdatos.net/speedtest/upload.php
unixfe.rl.ac.uk,130.246.15.129,51.75,-1.25,United Kingdom,
ntrc5.ar.singaren.net.sg,NOT-SET,NOT-SET,,Singapore,
rtcdns1.rtc.riken.go.jp,134.160.68.4,35.700,139.767,Japan,
afinsa.com.ni,165.98.132.8,12.15,-86.26,Nicaragua,http://afinsa.com.ni
gps.cs.unc.edu,152.2.137.110,35.931,-79.000,United States,
www.credis.ro,195.95.166.211,44.45,26.17,Romania,http://www.credis.ro
dits-cn.com,72.55.153.22,22.9,114.13,China,http://dits-cn.com/speedtest/upload.php
www.keckist.edu.np,61.12.126.51,27.7,-85.32,Nepal,http://www.keckist.edu.np
phys.washington.edu,128.95.95.18,47.60,-122.32,United States,
acp1.acp.org,NOT-SET,38.987,-76.933,United States,
140.109.144.1,140.109.144.1,NOT-SET,,NOT-SET,
nm1.titech.jp.hep.net,202.13.204.7,35.67,139.75,Japan,
www.ub.es,161.116.100.2,41.42,2.17,Spain,http://www.ub.es
daiduk.kaist.ac.kr,143.248.1.177,37.550,126.967,Korea, Rep,
www.ph.unimelb.e71,NOT-SET,NOT-SET,,NOT-SET,
hepnrc.hep.net,131.225.110.18,41.84137,-88.2549,United States,http://www.fnal.gov/
hp01.ihep.uni-heidelberg.de,129.206.39.61,52.270,13.180,Germany,
dns1.e.117.14.40,NOT-SET,NOT-SET,,NOT-SET,
www.mju.ac.th,202.28.38.8,18.8983,99.0133,Thailand,http://www.mju.ac.th
mnhepw.hep.umn.edu,128.101.220.105,44.98,-93.25,United States,
www.pontocom.com.br,200.225.26.155,-15.783,-47.917,Brazil,
www.drexel.edu,144.118.66.83,39.9597,-75.1968,United States,http://www.drexel.edu
phastf.phys.uvic.ca,142.104.61.6,48.42,-123.37,Canada,
ford.cefet-rj.br,200.9.149.201,-22.9118,-43.2241,Brazil,http://www.cefet-rj.br/
hpsss0.riken.go.jp,134.160.229.100,35.78,139.62,Japan,
rs2.paix.rsng.net,198.32.176.252,NOT-SET,,NOT-SET,
194.67.220.73,194.67.220.73,43.32,76.92,Kazakhstan,
mail.csuca.edu.gt,200.49.167.235,14.63,-90.37,Guatemala,
cache01.ansp.br,143.108.31.3,-22,-46,Brazil,
sudan5.sudan.umn.edu,131.212.67.135,44.983,-93.250,United States,
iepm.desy.de,131.169.5.64,52.3667,13.6167,Germany,
www.geocom.do,200.26.174.210,19.45,-70.7,Dominican Republic,http://www.geocom.do
www.allianzeunicollege.edu.my,110.4.41.15,5.5156,100.4393,Malaysia,http://www.allianzeunicollege.edu.my
www.lumhs.edu.pk,66.96.238.213,26.95,76.42,Pakistan,http://www.lumhs.edu.pk
ippm.net.cmu.edu,128.2.3.101,40.44,-80.00,United States,
aip.org,192.58.150.10,40.715,-73.583,United States,
feynman.lps.umontreal.ca,132.204.64.28,45.50,-73.60,Canada,http://www.umontreal.ca
polaris.kbsi.re.kr,203.253.240.41,37.550,126.967,Korea, Rep,
202.12.103.71,202.12.103.71,28.5441,77.3332,India,http://www.amity.edu
lanl.gov,204.121.3.13,35.73,-105.15,United States,
www.cs.ui.ac.id,152.118.148.64,-6.250,106.850,Indonesia,
www.fisica.edu.uy,164.73.83.126,-34.917,-56.167,Uruguay,http://www.fisica.edu.uy
www.netcom.com,,,,,
gm00.hep.ph.ic.ac.uk,155.198.216.16,51.5,-0.12,United Kingdom,
209.88.92.14,209.88.92.14,-17.83,31.05,Zimbabwe,
130.225.212.55,NOT-SET,NOT-SET,,NOT-SET,
130.209.4.16,130.209.4.16,51.500,-0.167,United Kingdom,
pinger.sesame.org.jo,80.90.171.80,32.1146,35.7144,Jordan,http://www.sesame.org.jo
www.abp.info.bi,196.2.12.32,-3.412839,29.39254,Burundi,http://www.abp.info.bi
www.unyp.cz,94.23.168.120,50.0762,14.4305,Czech Republic,http://www.unyp.cz/
www.aaru.edu.jo,212.118.13.58,31.95,35.95,Jordan,http://www.aaru.edu.jo
axts03.ts.infn.it,140.105.6.153,45.60,13.80,Italy,
netserver.net.cmu.edu,128.2.35.50,40.44,-79.99,United States,
mail.gnet.tn,193.95.75.236,36.84,10.22,Tunisia,
hephy.uibk.ac.at,138.232.68.8,NOT-SET,,Austria,
www.refer.mg,41.204.102.162,-18.87,47.5,Madagascar,
www.nahaltrading.com.eg,41.222.168.137,30.0474,31.2420,Egypt,http://www.nahaltrading.com.eg
dag230.nchc.org.tw,140.110.20.230,24.805,120.971,Taiwan,http://www.nchc.org.tw
221.120.239.21,221.120.239.21,34.0670,71.9907,Pakistan,http://www.cae.nust.edu.pk/
cepheid.physics.utoronto.ca,128.100.78.18,43.4981,-76.6129,Canada,
pheezer.uits.iupui.edu,134.68.142.33,39.77,-86.16,United States,
www.lce.ac.ls,197.155.194.66,-29.3723,27.5458,Lesotho,http://www.lce.ac.ls
www.campucss.edu.pe,206.214.217.238,-11.8499,-76.4461,Peru,
lattice.sa.aarnet.net.au,203.21.37.25,-34.93,138.6,Australia,
pinger.nchc.org.tw,140.110.20.230,24.805,120.971,Taiwan,http://www.nchc.org.tw
www.embratel.net.br,200.255.125.206,-15.783,-47.917,Brazil,
www.cbu.edu.zm,41.63.3.8,-15.417,28.283,Zambia,http://www.cbu.edu.zm
www.hktawts.edu.hk,202.181.132.161,22.3194,114.2177,Hong Kong,http://www.hktawts.edu.hk
193.62.23.237,193.62.23.237,NOT-SET,,United Kingdom,
ns5.fpf.br,200.222.2.242,-3.06,-60.00,Brazil,http://www.fpf.br
www.alliant.edu,146.20.26.146,32.9299,-96.8353,United States,http://www.alliant.edu
evalu0.ific.uv.es,147.156.20.15,40.417,-3.717,Spain,
sitka.triumf.ca,142.90.106.59,49.2475,-123.2308,Canada,http://www.triumf.ca/
www.polytechnic.edu.na,196.216.167.70,-22.5663,17.0781,Namibia,http://www.polytechnic.edu.na
194.67.220.193,194.67.220.193,41.72,44.8,Georgia,
www.poly.ac.mw,41.77.12.142,-15.8032,35.0271,Malawi,http://www.poly.ac.mw/
max1-berkeley.winterlan.net,NOT-SET,37.873,-122.267,United States,
ping1.scl.ameslab.gov,147.155.137.2,42.032,-93.617,United States,
uae6.k,NOT-SET,NOT-SET,,NOT-SET,
mail.lttnet.net,41.208.70.33,32.8762,13.1875,Libya Arab Jamahiriya,http://mail.lttnet.net
www.schule.at,78.104.67.113,48.2968,14.3172,Austria,http://www.schule.at
moe.rice.edu,128.42.204.44,29.834,-95.000,United States,
munnari.oz.au,202.29.151.3,-35.250,149.133,Australia,
ns2.jp.apan.net,203.181.248.30,37.550,126.967,Korea, Rep,
www.btm.com.br,200.218.6.3,-15.783,-47.917,Brazil,
probe6.mot.com,129.188.154.101,33.488,-111.917,United States,
www.ucr.ac.cr,163.178.88.2,9.983,-84.067,Costa Rica,
ns1.waikato.ac.nz,140.200.128.13,-37.80,175.10,New Zealand,
204.131.62.126,204.131.62.126,NOT-SET,,NOT-SET,
www.tourism.gov.iq,78.109.235.46,33.3250,44.4220,Iraq,http://www.tourism.gov.iq
lnss150.physics.colostate.edu,,,,,
www.cbj.gov.jo,212.118.0.74,31.95,35.63,Jordan,http://www.cbj.gov.jo
wsgs00.lngs.infn.it,192.84.135.4,41.883,12.500,Italy,
d0br1.lafex.cbpf.br,152.84.100.122,-22.88,-43.28,Brazil,
www.nersc.gov,128.55.6.34,37.873,-122.267,United States,
dagobert.lucas.lu.se,130.235.92.107,59.333,18.050,Sweden,
www.physics.wayne.edu,141.217.35.12,42.33,-83.05,United States,
ppitcairn.mcs.anl.gov,,,,,
www.muet.edu.pk,70.84.251.138,26.95,76.42,Pakistan,http://www.muet.edu.pk
www.multilink.ht,200.80.96.15,18.5393,-72.3364,Haiti,http://www.multilink.ht
physuna.piuc.edu,,,,,
www.ucu.edu.ar,190.228.68.197,-32.4816,-58.2301,Argentina,http://www.ucu.edu.ar
www.itb.edu.bn,202.93.220.18,4.9775,114.9003,Brunei,http://www.itb.edu.bn
yalph2.phhysics.utoronto.ca,,,,,
rftpexp.rhic.bnl.gov,130.199.59.23,40.78,-72.92,United States,
nlcta10.slac.stanford.edu,134.79.56.171,37.4166,-122.2014,United States,http://www.slac.stanford.edu
www.codesoft.cl,190.54.99.171,-30,-71.3333,Chile,http://www.codesoft.cl
www.ocesb.com.my,202.73.10.4,3.54,101.89,Malaysia,http://www.ocesb.com.my/speedtest/upload.php
www.phys.umontreal.ca,132.204.57.22,45.50,-73.60,Canada,
www.out.ac.tz,196.216.247.18,-6.7640,39.2707,Tanzania,http://www.out.ac.tz
ns.bora.net,164.124.101.2,37.550,126.967,Korea, Rep,
www.port.venice.it,,,,,
www.ebario.com,70.40.206.104,3.667,115.467,Malaysia,http://www.ebario.com
www.arundel.ac.zw,196.201.17.235,-17.86,31.03,Zimbabwe,http://www.arundel.ac.zw
www.bau.edu.bd,103.72.109.11,24.7302,90.4240,Bangladesh,http://www.bau.edu.bd/
fi.uib.no,NOT-SET,59.933,10.750,Norway,
www.ycdc.gov.mm,203.81.67.170,16.7808,96.1497,Myanmar,http://www.ycdc.gov.mm/
ps-lt.aura.ampath.net,190.103.184.151,-32.248,-110.95,Chile,http://www.lsst.org/
web-a.lvdats.lv,77.38.159.74,57.61,24.83,Latvia,http://web-a.lvdats.lv/speedtest/upload.php
www.telvgg.coop,200.3.168.77,-33.0239,-60.6259,Argentina,http://www.telvgg.coop
iaeand.iaea.or.at,195.212.98.83,48.217,16.367,Austria,
t2-monitor.ultralight.org,192.84.86.114,34.1383,-118.1244,United States,http://www.cacr.caltech.edu/projects/tier2-support/
speedtest.internetwire.de,89.250.134.84,48.08,11.34,Germany,http://speedtest.internetwire.de/speedtest/upload.php
www.golistelecom.com,92.60.119.118,11.2833,49.1667,Somalia,
www.kwangwoon.ac.kr,128.134.70.3,37.5,127,Korea, Rep,
hon-adsl-166-044.telekom.net.sb,202.1.166.44,-9.431,159.956,Solomon Islands,http://www.rurallink.com.sb
www.datasys.bf,212.52.144.101,12.3702,-1.5427,Burkina Faso,http://www.datasys.bf
196.31.26.158,196.31.26.158,,,,
pingerlhr-gcu.pern.edu.pk,111.68.102.210,31.5747,74.3076,Pakistan,http://pingerlhr-gcu.pern.edu.pk/
www.bu.edu,128.197.26.35,42.36,-71.06,United States,http://www.bu.edu
www.ul.ac.za,196.21.218.26,-33.9833,18.4,South Africa,http://www.ul.ac.za
ucdhep.ucdavis.edu,169.237.42.76,38.54,-121.73,United States,
nereus.slac.stanford.edu,NOT-SET,NOT-SET,,United States,
pinger.usindh.edu.pk,121.52.154.50,25.418178,68.262133,Pakistan,http://www.usindh.edu.pk/
pizero.colora,NOT-SET,NOT-SET,,NOT-SET,
w01chi-ge-1.caltech.datatag.org,192.91.236.1,NOT-SET,,United States,
ns.demon.co.uk,158.152.1.193,51.500,-0.167,United Kingdom,
www.utar.edu.my,58.27.19.137,3.1167,101.6363,Malaysia,http://www.utar.edu.my
www.uac.bj.refer.org,196.192.16.5,6.4,2.52,Benin,http://www.uac.bj.refer.org
mvxpd5.pd.infn.it,192.84.143.100,45.40,11.90,Italy,
mercury.uvic.ca,142.104.193.196,48.43,-123.35,Canada,http://www.uvic.ca
www.noor.net,41.187.101.77,30.0403,31.2160,Egypt,http://www.noor.net
www.aun.edu.eg,193.227.61.28,27.02,31,Egypt,
www.umg.edu.gt,168.234.74.5,14.63,-90.37,Guatemala,
www.uki.ac.id,101.255.87.230,-6.2115,106.8452,Indonesia,http://www.uki.ac.id
boromir.nask.waw.pl,195.187.245.136,52.250,21.000,Poland,
www.ub.edu.ph,122.3.238.54,14.4631,121.0547,Philippines,http://www.ub.edu.ph
www.adencomplex.com.ye,195.94.0.128,12.8000,45.0333,Yemen,http://www.adencomplex.com.ye
www.freenet.am,212.165.126.49,40.18,44.5,Armenia,
yumj.kek.jp,130.87.34.37,36.08,140.25,Japan,
www.online.tm,217.174.229.211,37.95,58.38,Turkmenistan,http://www.online.tm
stpatrick.dalyclan.net,63.197.228.220,37.450,121.850,United States,
www-hep.llnl.gov,198.128.253.1,37.68,-121.77,United States,
mail.td.refer.org,193.219.212.3,11.6833,18.65,Chad,http://www.td.refer.org
npm.neduet.edu.pk,111.68.110.8,24.8934,67.0281,Pakistan,http://www.neduet.edu.pk
www.imprentanacional.go.cr,190.241.192.53,9.9500,-84.1000,Costa Rica,http://www.imprentanacional.go.cr
www.bidvestnamibia.com.na,154.0.162.107,-22.7,17.083,Namibia,
www.uma.rnu.tn,193.95.32.184,36,10,Tunisia,
www.nic.gov.jo,,,,,
snap.lanl.gov,204.121.253.243,35,-106,United States,
www.telone.co.zw,194.133.122.42,-17.8275,31.0507,Zimbabwe,http://www.telone.co.zw
ping.lafex.cbpf.br,152.84.100.122,-22.88,-43.28,Brazil,
hba-a-pm1.aarnet.net.au,202.158.196.194,-42.905,147.325,Australia,http://www.aarnet.edu.au
lnf.ijs.si,NOT-SET,46.07,14.5,Slovenia,
ns.msu.ru,193.232.112.2,55.750,37.583,Russia,
megspo.megsinet.net,216.93.66.186,41.883,-87.617,United States,
www.uinjkt.ac.id,103.229.202.18,-6.2115,106.8452,Indonesia,http://www.uinjkt.ac.id
hep505.cithgon.edu,,,,,
ns.digex.net,164.109.1.3,39.005,-76.867,United States,
vrvs2.fnal.gov,131.225.110.22,41.85,-88.31,United States,
chapar.ipm.ac.ir,194.225.70.90,35.500,50.9100,Iran,
sau.seecs.edu.pk,121.52.155.69,25.4333,68.5573,Pakistan,http://sau.seecs.edu.pk
www.barilga.gov.mn,124.158.88.65,7.9286,106.9366,Mongolia,http://www.barilga.gov.mn
www.squh.edu.om,62.231.244.235,23.5878,58.1706,Oman,http://www.squh.edu.om
www.na.gov.la,115.84.105.16,17.9667,102.6,Laos,http://www.na.gov.la
keeshond-g.nikhef.nl,NOT-SET,52.35,4.92,Netherlands,
web.bdren.net.bd,103.28.121.12,23.7800,90.3738,Bangladesh,http://web.bdren.net.bd
www.cvut.cz,147.32.3.39,50.0878,14.4205,Czech Republic,http://www.cvut.cz
www.sierratel.sl,41.205.231.217,8.4841,-13.2287,Sierra Leone,http://www.sierratel.sl
www.iranlng.ir,79.175.162.79,35.6961,51.4231,Iran,http://www.iranlng.ir
lobelia.phys.dmz.waikato.ac.nz,NOT-SET,-41.283,174.783,New Zealand,
ns1.retina.ar,200.10.202.3,-34.38,-58.28,Argentina,
pc-isdn.desy.de,131.169.118.33,53.53,9.98,Germany,
www.microcom.cd,66.36.196.131,-4.28,15.5,Democratic Republic of Congo,http://www.microcom.cd
www.nic.ni,165.98.1.3,12.1,-86.3,Nicaragua,
ccpntc3.fr,,,,,
doesburg.hef.kun.nl,131.174.192.21,51.83,5.87,Netherlands,
boeheim-pbdsl.stanford.edu,171.66.177.49,37.44,-122.14,United States,
www.dte.edu.bn,202.93.217.225,4.5791,114.2052,Brunei,http://www.dte.edu.bn
pinger.nca.edu.pk,111.68.102.68,31.567439,74.306972,Pakistan,http://pinger.nca.edu.pk/
border7-serial3-0-2.pompanobeach.cw.net,204.70.231.77,38.969,-77.341,United States,
dns1.vn,203.162.3.235,21.03,105.85,Vietnam,
k.root-servers.net,193.0.14.129,51.500,-0.167,United Kingdom,
www.uchicago.edu,104.130.110.202,41.85,-87.65,United States,http://www.uchicago.edu
b.root-servers.net,192.228.79.201,34.05,-118.24,United States,
cebaf.gov,,,,,
www.belnet.net,193.190.130.15,50.833,4.333,Belgium,
mail.kipt.kharkov.ua,193.239.180.1,50,36.25,Ukraine,
www.cwu.edu.bd,182.16.156.10,23.7202,90.4199,Bangladesh,http://www.cwu.edu.bd/
pinger.arn.dz,193.194.90.5,36.7631,3.0506,Algeria,http://www.arn.dz
www.usu.ac.id,202.0.107.101,3.6056,98.6693,Indonesia,http://www.usu.ac.id
www.uaa.alaska.edu,137.229.141.83,61.1908,-149.828,United States,http://www.uaa.alaska.edu
bigmac-www.physics.utoronto.ca,128.100.190.60,43.67,-79.42,Canada,
sukhoi.doe.gov,146.138.1.215,38.90,-77.04,United States,
www.acrossafricatours.co.zw.,217.15.120.13,-17.818,31.045,Zimbabwe,http://www.acrossafricatours.co.zw.
isgate.isnic.is,193.4.58.29,64.15,-21.97,Iceland,
www.alard.ps,188.225.189.73,32.2250,35.2610,Palestine,http://www.alard.ps
www.acsd.co.sz,69.63.64.21,-26.3167,31.133,Swaziland,http://www.acsd.co.sz
cnu-sxp.kr.apan.net,NOT-SET,NOT-SET,,NOT-SET,
proxy.sc.intel.com,143.183.152.10,37.345,-121.933,United States,
www.utpl.edu.ec,200.32.69.132,-0.91,-75.22,Ecuador,
kek.jp,130.87.104.99,36.17,140.17,Japan,
www.bsc.edu.ph,112.198.63.211,14.6042,120.9822,Philippines,http://bsc.edu.ph
mix-serial3-0-3.washington.cw.net,204.189.152.157,35.822,-78.817,United States,
www.minepat.gov.cm,195.24.199.65,3.8637,11.5139,Cameroon,http://www.minepat.gov.cm
www.umich.edu,141.211.144.182,42.3010,-83.7033,United States,http://www.umich.edu
sleuth.transpac.org,206.220.241.251,41,-87,United States,
mel-a-ext1.aarnet.net.au,202.158.195.132,-37.8374,144.9851,Australia,http://www.aarnet.edu.au
193.194.64.71,193.194.64.71,36.18,5.4,Algeria,
dns1af.cnaf.infn.it,,,,,
nsa.arm.gov,192.148.94.70,71.28,-156.78,United States,
www.andalous.ma,81.192.184.85,34.0528,-4.9828,Morocco,http://www.andalous.ma
kadri.ut.ee,193.40.5.94,58.29,26.30,Estonia,
www1.slac.stanford.edu,134.79.19.226,37.41,-122.20,United States,
www.abo.fi,130.232.213.156,60.45,22.2833,Finland,http://www.abo.fi/
ftp.evoda.ro,89.33.252.61,44.25,26.06,Romania,http://ftp.evoda.ro/mirrors/www.speedtest.net/speedtest/upload.php
www.customs.gov.mv,202.21.178.82,4.1766,73.5049,Maldives,http://www.customs.gov.mv
hn.ly,174.37.215.98,32.8896,13.1706,Libya Arab Jamahiriya,http://hn.ly
grpmail1.mail.vanderbilt.edu,129.59.1.112,36.161,-86.750,United States,
200.37.45.39,200.37.45.39,-12.050,-77.050,Peru,
www.supercomp.org,63.118.7.16,40.652,-73.955,United States,
www.cst.edu.ve,200.6.155.210,10.2,-64.7,Venezuela,http://www.cst.edu.ve
ccpntc3.i51,NOT-SET,NOT-SET,,NOT-SET,
www.manahj.edu.iq,78.109.237.225,33.3277,44.4193,Iraq,http://www.manahj.edu.iq/
www.amschools.ma,67.15.234.5,35.833,-5.8167,Morocco,http://www.amschools.ma
www.cuc.edu.ve,200.11.193.252,10.5,-66.92,Venezuela,http://www.cuc.edu.ve
lattice.qld.aarnet.net.au,203.22.86.123,-27.5,153.017,Australia,
www.ternet.or.tz,196.43.84.242,-6.8,39.2833,Tanzania,http://www.ternet.or.tz
ef.nl,,,,,
br4s3p1-10bf-earth.ascc.net,140.109.80.1,25.03,121.63,Taiwan,
www.cbu.uz,91.212.89.168,41.2667,69.2167,Uzbekistan,
yale.edu,128.36.0.1,42.36,-71.06,United States,
www.gamtel.gm,212.60.66.243,13.4531,-16.5775,Gambia,http://www.gamtel.gm
ftp.physicsfki.hu,NOT-SET,NOT-SET,,NOT-SET,
www.laotrade.org.la,202.62.103.120,17.9667,102.6,Laos,http://www.laotrade.org.la
www.unsri.ac.id,103.241.4.11,-2.9909,104.7566,Indonesia,http://www.unsri.ac.id
www.gijima.com.na,196.44.128.214,-22.57,17.08,Namibia,
www.uem.mz,196.3.96.21,-25.94,32.56,Mozambique,
washington1.cw.net,NOT-SET,NOT-SET,,NOT-SET,
neformatas.com,69.64.155.121,54.4,24.55,Lithuania,http://www.neformatas.com/speedtest/upload.php
pmdwinportal.pmd.mr,82.151.72.243,18.19,-15.98,Mauritania,
hunnas.learn.ac.lk,192.248.1.165,6.9354,79.8470,Sri Lanka,https://hunnas.learn.ac.lk/
ucr.edu,138.23.226.101,33.980,-117.350,United States,
202.141.136.156,202.141.136.156,12.97,77.58,India,
ns1.uta.edu,129.107.1.9,30.27,-97.74,United States,http://www.uta.edu
test.sp.sara.nl,145.100.20.35,52.35,4.92,Netherlands,
maggie1.seecs.edu.pk,111.68.101.45,33.642886,72.990525,Pakistan,http://www.seecs.edu.pk
mit.edu,23.39.86.173,42.38,-71.11,United States,
sfsmds2.vsnl.net,59.165.131.15,18.98,72.83,India,http://www.vsnl.net.in
clavin.interaccess.com,207.70.126.132,42.37,-71.24,United States,
www.up.ac.th,49.231.18.100,19.0293,99.8953,Thailand,http://www.up.ac.th
cepad.org.ni,63.245.25.2,12.15,-86.26,Nicaragua,http://www.cepad.org.ni
speedtest.trancefm.co.uk,83.170.92.25,51.73,-1.12,United Kingdom,http://speedtest.trancefm.co.uk/speedtest/upload.aspx
br1s8p0-10bt-cc-dec.ascc.net,140.109.4.1,25.03,121.63,Taiwan,
gw00.hep.ph.ic.ac.uk,155.198.216.111,51.50,-0.08,United Kingdom,
cmu.edu,128.2.10.162,40.44,-80.00,United States,
www.cuet.ac.bd,115.127.51.5,24,90,Bangladesh,http://www.cuet.ac.bd
www.buu.ac.th,202.28.77.163,13.754,100.5014,Thailand,http://www.buu.ac.th
www.post.gl,194.177.224.40,64.833,-51.75,Greenland,http://www.post.gl
210.0.139.4,210.0.139.4,,,,
www.rc2,NOT-SET,NOT-SET,,NOT-SET,
nikhefh.uiuc.edu,,,,,
www.unp.edu.pe,161.132.135.2,-12.050,-77.050,Peru,
metro.gatech.edu,130.207.244.30,33.793,-84.4432,United States,http://www.gatech.edu
www.cs.pub.ro,141.85.37.56,44.4357,26.0561,Romania,http://www.cs.pub.ro
purdue.edu,128.210.7.199,40.45,-86.91,United States,
harvard.csg.mm.advanced.org,128.103.160.162,41.12,-73.71,United States,
fenix.ifisicacu.unam.mx,132.248.7.40,19.400,-99.150,Mexico,
www.phys.uconn.edu,137.99.19.64,41.80,-72.25,United States,
noc.noc.ilan.net.il,,,,,
yalph2.physics.ya68,NOT-SET,NOT-SET,,NOT-SET,
www.pppcfgos.co.cu,200.55.146.178,22.1460,80.4530,Cuba,http://www.pppcfgos.co.cu
www.s.u-tokyo.ac.jp,,,,,
serial2-0-5.hsa1.sjo1.level3.net,209.245.144.5,39.500,105.200,United States,
www.energy.gov.mn,218.100.84.164,47.9239,106.9136,Mongolia,http://www.energy.gov.mn
jobe-pbdsl.stanford.edu,171.66.182.145,37.442,-122.150,United States,
pinger.isra.edu.pk,121.52.154.228,25.43475,68.380333,Pakistan,http://pinger.isra.edu.pk/
www.upmin.edu.ph,58.71.26.82,7.0865,125.4830,Philippines,http://www.upmin.edu.ph
www.dmi.ly,62.240.36.24,32.00,13.1,Libya Arab Jamahiriya,
pinger3.cs..es,,,,,
ns.kiev.ua,193.29.220.3,50.500,30.467,Ukraine,
phonegw.cern.ch,192.65.185.24,46.23,6.06,Switzerland,
web.hepgrid.uerj.br,152.92.103.206,-22.9799,-43.2035,Brazil,http://www.uerj.br/modulos/kernel/home.php
ducati.pa.msu.edu,35.9.71.62,,,United States,
pdp15.hep.princeton.edu,128.112.84.235,40.35,-74.66,United States,
www.netpress.bi,81.199.8.5,-3.37,29.32,Burundi,http://www.netpress.bi
www.cayirova.ber.tr,82.222.57.141,40.8533,29.8815,Turkey,
sydspeed.intervolve.com.au,122.100.6.2,-33.7,151.2,Australia,http://sydspeed.intervolve.com.au/speedtest/upload.asp
www.hep.brown.edu,128.148.63.160,41.817,-71.400,United States,
x4u2.desy.de,131.169.30.42,53.53,9.98,Germany,
wwwmics.er.doe.gov,192.73.213.17,38.90,-77.04,United States,
www.utm.my,161.139.21.51,1.5584,103.6384,Malaysia,http://www.utm.my
www.ph.rhbnc.ac.uk,134.219.76.98,51.500,-0.167,United Kingdom,
www.iu.edu.sa,212.26.58.91,24.4816,39.5563,Saudi Arabia,http://www.iu.edu.sa
if.usp.br,143.107.128.16,-23.55,-46.63,Brazil,
grid-test.rhic.bnl.gov,130.199.5.28,40.76,-72.90,United States,
clmnge.ge.infn.it,131.154.128.10,44.40,8.80,Italy,
az-ix.net,94.20.20.131,40.4,49.88,Azerbaijan,http://az-ix.net/speedtest/speedtest/upload.php
aovine.uoregon.edu,,,,,
netdb3.es.net,198.128.2.28,38,-122,United States,
163.220.230.3,163.220.230.3,NOT-SET,,NOT-SET,
www.adsl.com.na,196.1.28.12,-22.57,17.08,Namibia,http://www.adsl.com.na
daimon.uniandes.edu.co,157.253.50.25,4.617,-74.050,Colombia,
moore.ecemoore.ece.rice.edu,,,,,
ftpheid.physics.utoronto.ca,,,,,
www.druknet.bt,202.144.128.221,27.5,90.38,Bhutan,http://www.druknet.bt
alp4ct.ct.infn.it,192.84.150.104,41.883,12.500,Italy,
www.lp.ac.ls,217.15.127.26,-29.32,27.48,Lesotho,
rs1.paix.rsng.net,198.32.176.251,34.033,-118.233,United States,
ns.fpf.br,201.90.251.243,-3.06,-60.00,Brazil,http://www.fpf.br
rep.grid.arn.dz,193.194.64.254,36.9,2.9,Algeria,http://www.arn.dz
www.sc.doe.gov,205.254.144.200,38.892,-77.017,United States,
ping.cern.ch,137.138.28.176,46.23,6.07,Switzerland,
speedtest.kis.lt,193.0.251.8,54.14,23.16,Lithuania,http://speedtest.kis.lt/speedtest/upload.php
166.49.29.17,166.49.29.17,NOT-SET,,United States,
perfsonar.myren.net.my,203.80.20.66,2.923629,101.656189,Malaysia,http://www.myren.net.my/
surveyor.colorado.edu,128.138.137.57,40.02,-105.27,United States,
pinger.numl.edu.pk,111.68.97.109,33.667246,73.050663,Pakistan,http://www.numl.edu.pk/
bnlku7.phy.bnl.gov,130.199.36.7,40.76,-72.90,United States,
www.dmsgp.edu.hk,203.198.184.236,22.3366,114.1402,Hong Kong,http://www.dmsgp.edu.hk
speedtest.eso-es.net,212.174.217.120,39.47,30.31,Turkey,http://speedtest.eso-es.net/speedtest/upload.php
www-ipn.unil.ch,130.223.163.99,46.950,7.500,Switzerland,
www.ijs.si,193.2.4.6,46.033,14.467,Slovenia,
ultra.edu.uy,164.73.128.70,-34.917,-56.167,Uruguay,
buphy.bu.edu,128.197.41.42,42.362,-71.050,United States,
www.ubb.ac.id,203.217.172.104,-2.1293,106.1096,Indonesia,http://www.ubb.ac.id
desy.de,,,,,
geo.mff.cuni.cz,195.113.28.130,50.0866,14.4106,Czech Republic,http://http://www.cuni.cz/UKENG-1.html
194.67.220.65,194.67.220.65,40.37,49.88,Azerbaijan,
stanford.edu,,,,,
www.eti.net.gn,41.79.237.18,9.517,13.717,Guinea,http://www.eti.net.gn
www.camnet.com.kh,203.223.32.17,11.55,104.917,Cambodia,
www.undip.ac.id,182.255.5.120,-6.9667,110.4167,Indonesia,http://www.undip.ac.id
www.imconstantias.org.cy,213.169.128.87,35.1149,33.9192,Cyprus,http://www.imconstantias.org.cy
jnu.ac.in,202.41.10.146,28.62,77.22,India,
www.hydrocopper.cl,190.82.83.229,-33.4691,-70.6420,Chile,http://www.hydrocopper.cl/
ippm.advanced.org,207.24.7.126,41.023,-73.800,United States,
www.inp.org.sy,195.60.236.132,33.5,36.3,Syria,http://www.inp.org.sy
enterprise5.212.55,NOT-SET,NOT-SET,,NOT-SET,
www.impa.br,147.65.1.71,-22.9641,-43.2253,Brazil,http://www.imo2017.org.br/
www.komidi.re,41.213.136.167,-20.8803,55.4514,Reunion-French Colony,http://www.komidi.re
corecps.ansp.br,143.106.99.9,-15.783,-47.917,Brazil,
www.icta.lk,204.202.236.175,6.92,79.87,Sri Lanka,
www.upesh.edu.pk,121.52.147.5,34.01,71.48,Pakistan,http://www.upesh.edu.pk
198.10.49.62,198.10.49.62,39.00,-76.87,United States,
isbm.pl,212.122.200.4,53.09,18,Poland,http://www.isbm.pl/speedtest/upload.php
nic.bme.hu,152.66.115.1,47.43,19.25,Hungary,
br3s5p1-10bf-iaa.ascc.net,140.109.176.1,25.03,121.63,Taiwan,
www.cnp.me,213.149.103.134,42.4420,19.2615,Serbia and Montenegro,http://www.cnp.me
znsun1.ifh.is,,,,,
br3s4p0-10bf-izas.ascc.net,140.109.48.1,25.03,121.63,Taiwan,
www.laksamanacollege.edu.bn,202.160.18.183,4.93,114.97,Brunei,
speed.fulltecno.net,201.238.222.3,-33.27,-70.4,Chile,http://speed.fulltecno.net/speedtest/upload.php
ping.bnl.goord.edu,,,,,
cobra.unza.zm,41.63.1.10,-15.3915,28.329,Zambia,
www.dems.net.mm,203.81.81.133,16.783,96.1667,Myanmar,http://www.dems.net.mm
mednet.stanford.edu,171.65.65.5,37.44,-122.15,United States,
mailhub.scl.ameslab.gov,147.155.137.19,42.032,-93.617,United States,
www.assemblee.ne,41.138.60.249,13.5113,2.1153,Niger,http://www.assemblee.ne
www.kabulauniversity.ac.mw,196.45.188.25,-15.78,35,Malawi,http://www.kabulauniversity.ac.mw
www.psmchs.edu.sa,87.101.156.4,26.2769,50.1472,Saudi Arabia,http://www.psmchs.edu.sa
www.pgia.ac.lk,192.248.43.131,7.26,80.60,Sri Lanka,http://www.pgia.ac.lk/
pinger.cemb.edu.pk,111.68.103.83,31.477983,74.262919,Pakistan,http://www.cemb.edu.pk/
enysuna.phs.uc.edu,,,,,
ippm.gwu.edu,128.164.220.250,38.892,-77.017,United States,
www.anrh.dz,193.194.64.71,36.7361,3.0564,Algeria,http://www.anrh.dz
www.mu.edu.et,213.55.94.36,13.33,39.30,Ethiopia,http://www.mu.edu.et
ping.cecalc.ula.ve,150.185.138.129,8.58,-71.2,Venezuela,
194.67.220.97,194.67.220.97,40.13,44.46,Armenia,
isnet.is,,,,,
speedtest.primehome.com,217.27.50.125,35.16,33.36,Cyprus,http://monitor.scarlet.an/speedtest/speedtest/upload.php
vspg02.pg.infn.it,141.250.2.2,41.883,12.500,Italy,
www.algossteel.com.ye,65.162.184.60,15.4,47.7667,Yemen,http://www.algossteel.com.ye
www.cmi.edu.jm,65.183.4.198,17.9461,-76.7708,Jamaica,http://www.cmi.edu.jm
www.minia.edu.eg,193.227.47.55,28.0905,30.7551,Egypt,http://www.minia.edu.eg
e14-tenet.cisco.ab-f-3-40.uct.ac.za,137.158.200.6,-33.59,24.47,South Africa,
www.unila.ac.id,103.3.46.1,-5.4500,105.2667,Indonesia,http://www.unila.ac.id
kad6.ciemat.es,,,,,
neutron.ing.ucv.ve,150.185.86.9,10.54,-66.93,Venezuela,
nhys150.physics.colostate.edu,,,,,
pingermtn.pern.edu.pk,121.52.158.210,30.269726,71.506455,Pakistan,http://pingermtn.pern.edu.pk/
www.tpn.bg,195.138.148.2,42.683,23.317,Bulgaria,
www.carnet.hr,161.53.160.25,45.817,15.933,Croatia,
nic.uniandes.edu.co,157.253.50.16,4.00,-72.00,Colombia,
www.edtc.ac.pg,119.47.114.163,-9.4723,147.20,Papua New Guinea,http://www.edtc.ac.pg
www.mssf.mn,202.131.0.44,47.92,106.92,Mongolia,
www.iraqinationality.gov.iq,185.23.154.17,33.3334,44.4291,Iraq,http://www.iraqinationality.gov.iq
www.ijedu.uy,,,,,
www.ru.ac.bd,180.211.185.196,24.36,88.60,Bangladesh,
mail.fshn.edu.al,217.24.240.124,41.33,19.82,Albania,
pktw03.phyc.il,,,,,
www.egrem.com.cu,200.55.168.173,23.1256,-82.3267,Cuba,http://www.egrem.com.cu
www.hep.uiuc,NOT-SET,NOT-SET,,NOT-SET,
riken.go.jp,NOT-SET,35.700,139.767,Japan,
mull.eauburkina.bf,212.52.135.242,13,-2,Burkina Faso,http://mull.eauburkina.bf
www.mes.gob.cu,200.14.55.204,23.0541,-82.3452,Cuba,http://www.mes.gob.cu
iepm-resp.slac.stanford.edu,134.79.104.81,37.41,-122.20,United States,
pinger.bnl.org,192.203.218.43,40.78,-72.91,United States,
www.seua.am,212.34.239.162,40.1811,44.5136,Armenia,http://www.seua.am
iepmbw.bnl.gov,130.199.80.100,40.76,72.90,United States,
www.activesector.kg,176.126.164.16,42.8700,74.5879,Kyrgyzstan,http://www.activesector.kg
cy.adslcyprus.com,212.108.130.51,35.1,33.22,Cyprus,http://cy.adslcyprus.com/upload.php
LC-HOME-G-SU.NET,171.66.185.249,NOT-SET,,United States,
kadriu.lv,NOT-SET,NOT-SET,,NOT-SET,
www.ect.unitn.it,193.206.21.2,41.883,12.500,Italy,
www.iitd.ac.in,202.141.68.11,28.67,77.23,India,http://www.iitd.ac.in
seciu.uy,164.73.128.5,-34.917,-56.167,Uruguay,
pinger.pern.edu.pk,111.68.106.254,33.673317,73.054431,Pakistan,http://www.pern.edu.pk
mail.icta.mu,202.123.2.125,-20.283,57.55,Mauritius,
charm.physics.ucsb.edu,128.111.19.35,34.422,-119.683,United States,
pdsfsu00.nersc.gov,128.55.24.20,37.87,-122.27,United States,
phenux0.hepl.hiroshima-u.ac.jp,202.13.220.85,34.38,132.45,Japan,www.hiroshima-u.ac.jp
cepheid.ph.edu,,,,,
omnigate.clarkson.edu,128.153.4.2,44.670,-74.983,United States,
gbps.no,5.100.188.13,59.56,10.45,Norway,http://www.gbps.no/speedtest/upload.php
www.ku.ac.ke.,213.147.64.13,-1.182,36.9279,Kenya,http://www.ku.ac.ke
www.intercafe.bi,196.2.8.201,-3.3762,29.3593,Burundi,http://www.intercafe.bi
speedtest-bezons.snsci.net,88.191.12.88,48.87,2.33,France,http://speedtest-bezons.snsci.net/speedtest/upload.php
www.ump.edu.my,103.53.33.92,3.8077,103.326,Malaysia,http://www.ump.edu.my
27.2,NOT-SET,NOT-SET,,NOT-SET,
www.citycon.fi,82.116.255.85,60.8167,23.6333,Finland,http://www.citycon.fi
www.lasalle.edu.co,201.234.64.14,4.5945,-74.0703,Colombia,http://www.lasalle.edu.co
www.miu.edu.my,54.230.143.59,3.0954,101.5927,Malaysia,http://www.miu.edu.my
140.109.79.1,140.109.79.1,NOT-SET,,NOT-SET,
www.taibahu.edu.sa,212.138.90.37,24.4810,39.5455,Saudi Arabia,http://www.taibahu.edu.sa
lse.seecs.edu.pk,111.68.102.40,31.509683,74.347606,Pakistan,http://www.lahoreschoolofeconomics.edu.pk/
www.presidence.ne,41.138.59.27,13.5167,2.1167,Niger,http://www.presidence.ne/
www.agriportail.tn,193.95.21.131,36.818,10.1660,Tunisia,
www.hr,161.53.19.201,45.817,15.933,Croatia,
www.upng.ac.pg,202.1.54.1,-9.46,147.13,Papua New Guinea,
ns.sinp.msu.ru,213.131.0.1,55.750,37.583,Russia,
r13-mater.kaist.ac.kr,143.248.254.13,37.550,126.967,Korea, Rep,
www.camnet.cm,195.24.192.36,3.85,11.52,Cameroon,
server2.infn.it,131.154.1.3,41.883,12.500,Italy,
www.corpozulia.gov.ve,200.109.92.213,10.6585,-71.60653,Venezuela,http://www.corpozulia.gov.ve
www.vnuhcm.edu.vn,203.162.44.79,10.7827,106.6954,Vietnam,http://www.vnuhcm.edu.vn
sadc-fanr.org.zw,193.220.40.13,-17.83,31.05,Zimbabwe,
ftp.stsci.edu,130.167.128.16,39.288,-76.617,United States,
inpe-gw-sp.cptec.inpe.br,150.163.157.1,-15.783,-47.917,Brazil,
www.iasbs.ac.ir,213.176.122.100,36.66,48.48,Iran,
ktsun.tanashi.kek.jp,202.13.203.11,35.700,139.767,Japan,
www.aup.edu.pk,66.96.217.181,34.0,71.5,Pakistan,http://www.aup.edu.pk
212.165.83.10,212.165.83.10,24.64,46.77,Saudi Arabia,
171.66.185.249,171.66.185.249,37.41,-122.20,United States,
200.222.2.242,200.222.2.242,-3.06,-60.00,Brazil,http://www.fpf.br
pinger.cdac.in,196.1.113.251,18.5204,73.8567,India,http://pinger.cdac.in
socrates.cacr.caltech.edu,131.215.144.227,34.147,-118.133,United States,
ohio-state.edu,128.146.214.28,39.962,-83.000,United States,
www.ahome.tg,80.248.64.2,6.2,1.2,Togo,http://www.ahome.tg
carmen.to.infn.it,192.84.137.1,41.883,12.500,Italy,
lubango.uan.ao,193.236.0.3,8.5,13.20,Angola,
62.41.48.197,62.41.48.197,NOT-SET,,Saudi Arabia,
www.canal2temuco.cl,37.252.102.136,-29.9534,-71.3436,Chile,http://www.canal2temuco.cl
www.webster.ac.th,66.226.64.43,13.75,100.5167,Thailand,http://www.webster.ac.th
squid-cache-1.sun.ac.za,146.232.65.6,-33.93,18.46,South Africa,
nsi.ampath.net,190.103.186.98,25.7581,-80.3762,United States,http://www.fiu.edu
www-iepm.slac.stanford.edu,134.79.18.163,37.41,-122.20,United States,
cernsp.cern.ch,NOT-SET,46.950,7.500,Switzerland,
ccb2sn04.in2p3.fr,134.158.104.74,45.75,4.85,France,
iepm-bw.slac.stanford.edu,134.79.104.80,37.41,-122.20,United States,
ns.nal.go.jp,202.26.95.67,35.700,139.767,Japan,
gull.cs.wisc.edu,128.105.146.12,43.073,-89.401,United States,
140.109.18.50,140.109.18.50,25.000,121.400,Taiwan,
ns.osaka-u.ac.jp,133.1.192.4,34.67,135.5,Japan,
fed.ornl.gov,134.167.108.3,36.010,-84.250,United States,
192.83.196.111,192.83.196.111,25.000,121.400,Taiwan,
squark.phys.washington.edu,128.95.99.10,47.60,-122.32,United States,
noc.ilannoc.ilan.net.il,,,,,
vslnl6.lnl.infn.it,NOT-SET,41.883,12.500,Italy,
www.cab.cnea.edu.ar,168.96.72.2,-34.617,-58.400,Argentina,
es2.frc.utexas.edu,198.129.72.2,30.282,-97.733,United States,
ns.itep.ru,193.124.224.35,55.750,37.583,Russia,
www.cba.edu.kw,139.141.236.130,29.3697,47.9783,Kuwait,http://www.cba.edu.kw
ippm-surveyor.nts.umn.edu,160.94.54.248,44.98,-93.25,United States,
julius.ktl.mii.lt,193.219.50.3,54.567,25.317,Lithuania,
www.hep.brandeis.edu,129.64.37.62,42.37,-71.24,United States,
www.minjust.kz,89.218.85.38,51.1667,71.4190,Kazakhstan,http://www.minjust.kz
www.seanet.org.nz,131.203.86.114,-41.2925,174.7732,New Zealand,http://www.seanet.org.nz
leonis.nus.edu.sg,137.132.1.18,1.283,103.850,Singapore,
www.indianembassy.am,217.113.0.245,40.1832,44.4973,Armenia,http://www.indianembassy.am/
www.ipb.ac.id,202.124.205.244,-6.6000,106.8000,Indonesia,http://www.ipb.ac.id
duhs.seecs.edu.pk,111.68.111.77,24.8574,67.01106,Pakistan,http://duhs.seecs.edu.pk
pawn.qbed.nren.nasa.gov,10.0.0.1,38.95,-77.03,United States,
institutokilpatrick.edu.pa,173.254.61.188,9.016,-79.55,Panama,http://www.institutokilpatrick.edu.pa
asrv1.i.no,,,,,
srvix03.ts.infn.it,140.105.6.250,45.65,13.78,Italy,
cern.ch,NOT-SET,46.23,6.07,Switzerland,
impala.unza.zm,196.46.223.4,-15.417,28.2833,Zambia,http://www.unza.zm
speedtest2.giganet.hu,193.138.125.61,47.95,21.72,Hungary,http://speedtest2.giganet.hu/speedtest/upload.php
adelie.nysernet.net,,,,,
ns.nasda.go.jp,133.56.11.12,35.700,139.767,Japan,
mctest.itep.ru,194.85.69.140,55.750,37.583,Russia,http://www.itep.ru
pinger.hep.caltech.edu,131.215.116.42,34.15,-118.14,United States,
ping.isnet.is,193.4.58.29,64.150,-21.950,Iceland,
megalan.bg,95.111.55.251,42.42,23.2,Bulgaria,http://www.megalan.bg/speedtest/upload.php
www.kph.uni-mainz.de,134.93.178.19,52.270,13.180,Germany,
oceana.s56,NOT-SET,NOT-SET,,NOT-SET,
www.kcm.co.zm,41.72.96.25,-12.9683,28.6337,Zambia,http://www.kcm.co.zm
www.lesotho.gov.ls,41.203.191.3,-29.3167,27.483,Lesotho,http://www.lesotho.gov.ls
www.novagest.co.ao,195.22.18.4,-8.84,13.23,Angola,
www..carnet.hr,,,,,
ns.kotis.net,203.233.202.33,37.550,126.967,Korea, Rep,
www..jp,NOT-SET,NOT-SET,,Japan,
49.50.236.98,49.50.236.98,1.4650,110.4200,Malaysia,http://www.unimas.my
www.ccis.org.tn,196.203.61.131,34.7452,10.7613,Tunisia,
n.go.jp,,,,,
www.paynet.co.zw,196.44.186.219,-18.35,29.9167,Zimbabwe,http://www.paynet.co.zw
www.planwel.edu,216.122.49.102,24.9,67.1,Pakistan,http://www.planwel.edu
d0svr2.physics.indiana.edu,129.79.157.130,,,United States,
www.kyunghee.ac.kr,163.180.96.52,37.550,126.967,Korea, Rep,
dns.edu.cn,202.112.0.35,39.917,116.417,China,
www.speed.com.eg,196.218.216.230,31.2135,29.9443,Egypt,http://www.speed.com.eg
amp-korea,150.183.95.135,36.23,127.22,Korea, Rep,
128.42.199.241,128.42.199.241,29.834,-95.000,United States,
cdhf2.gsfc.nasa.gov,192.67.83.6,39.0,-76.88,United States,
www.tse.com.er,196.200.102.6,15.3336,38.9351,Eritrea,http://www.tse.com.er/
catv003001.usr.hananet.net,210.94.3.1,37.550,126.967,Korea, Rep,
www.kfu.edu.sa,85.194.124.16,25.3454,49.5935,Saudi Arabia,http://www.kfu.edu.sa
admision.unsch.edu.pe,200.121.72.187,-12.05,-77.05,Peru,http://admision.unsch.edu.pe
amp.cpe.ku.ac.th,158.108.34.38,13.73,100.5,Thailand,http://www.thaigrid.or.th
name-server.toyonaka.odins.osaka-u.ac.jp,133.1.181.1,32.321,135.7,Japan,
enterprise.physu,,,,,
caia.swin.edu.au,136.186.4.93,-37.83,145.00,Australia,
www.manila.gov.ph,202.90.154.104,14.5861,120.9825,Philippines,
physics.unipune.ernet.in,196.1.114.2,28.617,77.217,India,
63.193.232.81,63.193.232.81,NOT-SET,,United States,
proxy.fm.intel.com,132.233.247.5,37.345,-121.933,United States,
www.ku.ac.ke,197.248.5.11,-1.182,36.9279,Kenya,http://www.ku.ac.ke
ns1.alfred.edu,149.84.147.232,42.2534,-77.788,United States,http://www.alfred.edu
161.139.146.158,161.139.146.158,1.5584,103.6384,Malaysia,http://www.utm.my
www.uto.edu.bo,200.87.0.76,-17.98,-67.13,Bolivia,www.uto.edu.bo
uae6.cie,,,,,
80.231.23.62,80.231.23.62,10,49,Somalia,
amp-aarn,192.231.212.4,-35.17,149.08,Australia,
171.66.202.97,171.66.202.97,NOT-SET,,NOT-SET,
perfsonar.innova-red.net,200.10.202.30,-34.613,-58.47,Argentina,http://perfsonar.innova-red.net
slac.iugaza.edu,85.114.105.35,31.51,34.44,Palestine,http://www.iugaza.edu.ps/eng/
ames-surveyor.arc.nasa.gov,128.102.18.32,37.323,-121.933,United States,
ns.psi.net,38.8.48.2,38.970,-77.383,United States,
140.109.14.1,140.109.14.1,NOT-SET,,NOT-SET,
www.gik.edu.pk,203.135.39.214,32.20,69.32,Pakistan,http://www.gik.edu.pk
www.ps.uci.edu,128.200.48.62,33.67,-117.75,United States,
ns1.nic.bi,217.194.130.205,-3.16,29.18,Burundi,http://www.nic.bi
donald.cs.wisc.edu,198.133.224.147,43.07,-89.40,United States,
kt-sxp.kr.apan.net,203.255.248.237,NOT-SET,,NOT-SET,
www.surcollege.edu.om,85.154.240.82,22.5667,59.5289,Oman,http://www.surcollege.edu.om
192.215.117.29,192.215.117.29,0,0,,
www.harvard.edu,173.203.129.90,42.38,-71.06,United States,http://www.harvard.edu
ps.lcg.ustc.edu.cn,202.38.140.115,39.9,116.413,China,http://ps.lcg.ustc.edu.cn
dnsstat.polyn.kiae.su,144.206.192.54,55.7522,37.6156,Russia,
nscp01.physics.upenn.edu,130.91.49.72,39.95,-75.15,United States,
www.ucsd.edu,132.239.180.101,32.72,-117.16,United States,http://www.ucsd.edu
www.fpf.br,201.90.252.245,-3.06,-60.00,Brazil,
cdfserv.mps.ohio-state.edu,128.146.37.88,39.96,-82.99,United States,
www.runnet.ru,85.142.29.7,59.92,30.42,Russia,
keeshond.nikhef.nl,192.16.185.84,52.350,4.900,Netherlands,
physics.ucla.edu,,,,,
juarez-med.core.cudi.edu.mx,200.23.60.114,31.6,-106.4,Mexico,http://www.cudi.edu.mx
glbb.jp,61.12.235.172,26.2,127.48,Japan,http://www.glbb.jp/speedtest2/speedtest/upload.php
surveyor.fnal.gov,131.225.255.81,41.85,-88.31,United States,
nsinbow.inp.nsk.su,,,,,
ucla.edu,NOT-SET,34.058,-118.250,United States,
internet.fo,212.55.32.93,62,-6.47,Faroe Islands,http://www.internet.fo/speedtest/speedtest/upload.php
192.215.119.29,192.215.119.29,NOT-SET,,NOT-SET,
netserver.net.cmu.ed2,NOT-SET,NOT-SET,,NOT-SET,
f.root-servers.net,192.5.5.241,37.428,-122.250,United States,
www.phys.ttu.edu,129.118.41.81,33.583,-101.833,United States,
www.csdoman.co.om,185.64.24.116,23.6100,58.5400,Oman,http://www.csdoman.co.om/
testbed007.cern.ch,137.138.181.252,46.23,6.06,Switzerland,
br2s4p0-10bf-botany.ascc.net,140.109.56.254,25.03,121.63,Taiwan,
name-server.suita.odins.osaka-u.ac.jp,133.1.119.1,32.321,135.7,Japan,
ba.sanet.i,,,,,
br3s6p0-10bf-lifelibrary.ascc.net,140.109.195.1,25.03,121.63,Taiwan,
dpa2.auger.org.ar,168.96.148.212,-32.8,-68.87,Argentina,
www.semepsetif.edu.dz,193.194.64.71,36.18,5.4,Algeria,
www.cisco.com,198.133.219.25,37.335,-121.867,United States,
59.165.131.11.man-static.vsnl.net.in,59.165.131.15,18.98,72.83,India,http://www.vsnl.net.in
www.ac.lk,192.248.1.164,7,81,Sri Lanka,http://www.ac.lk
ns.hitel.net,203.245.15.2,37.550,126.967,Korea, Rep,
www.unesa.ac.id,103.27.207.160,-7.2642,112.7456,Indonesia,http://www.unesa.ac.id
cavssy.ca.infn.it,192.84.132.1,41.883,12.500,Italy,
www.chula.ac.th,161.200.192.27,13.73,100.5,Thailand,
etri-tap.kr.apan.net,203.255.248.197,37.550,126.967,Korea, Rep,
www.gi.alaska.edu,137.229.21.85,64.8390,-147.7847,United States,http://www.gi.alaska.edu
www.ucad.sn,196.1.95.4,14.72,-17.26,Senegal,
www.phys.s.u-tokyo.ac.jp,210.152.148.107,35.700,139.767,Japan,
www.iniger.ne,83.229.66.21,14.5667,8.4333,Niger,http://www.iniger.ne
axppv0.pv.infn.it,192.84.142.23,41.883,12.500,Italy,
www.ansp.br,143.108.30.2,-15.783,-47.917,Brazil,
ns3.pieas.edu.pk,111.68.99.196,33.6559,73.2657,Pakistan,http://ns3.pieas.edu.pk
www.grin.by,87.252.253.254,53.6814,23.8146,Belarus,http://www.grin.by
www.botany.uwc.ac.za,196.21.45.139,-33.92,18.41,South Africa,
lurch.cns.syr.edu,128.230.12.5,43.052,-76.150,United States,
uni-mainz.de,134.93.130.77,52.270,13.180,Germany,
www.civis.re,94.124.157.29,-20.8864,55.4499,Reunion-French Colony,http://www.civis.re
www.cas.ac.cn,159.226.2.10,39.917,116.417,China,
www.ruh.ac.lk,192.248.48.3,5.9478,80.5434,Sri Lanka,http://www.ruh.ac.lk
yalph2.physics.y,NOT-SET,NOT-SET,,NOT-SET,
br3s5p0-10bf-nhri.ascc.net,140.109.204.1,25.03,121.63,Taiwan,
www.uia.mx,192.203.177.1,19.42,-99.17,Mexico,
www.uproar.com.ve,193.122.98.250,10.500,-66.933,Venezuela,
166.49.29.197,166.49.29.197,NOT-SET,,United States,
c1.sgp.arm.gov,198.124.99.70,38.895,-77.0366,United States,
www.univ-oujda.ac.ma,194.204.231.4,34.68,-1.83,Morocco,
www.nust.ac.zw,209.88.91.209,-17.50,31.30,Zimbabwe,http://www.nust.ac.zw
pgdu.pipolfastaem.go.sb,202.1.160.254,-9.47,159.95,Solomon Islands,
agrinamibia.com.na,196.44.136.21,-22.57,17.08,Namibia,http://www.agrinamibia.com.na
www.voe.at,62.218.39.47,48.2,16.367,Austria,
www.upnm.edu.my,1.9.21.6,3.05247,101.7236,Malaysia,http://www.upnm.edu.my
rice.edu,128.42.5.4,29.834,-95.000,United States,
194.67.220.129,194.67.220.129,38.63,68.85,Tajikistan,
www.polikant.ac.id,49.128.177.74,-5.6409,132.7475,Indonesia,http://www.polikant.ac.id
www.mfa.gov.bn,202.160.15.163,4.87,115,Brunei,http://www.mfa.gov.bn/
wboson.phys,NOT-SET,NOT-SET,,NOT-SET,
www.usb.ve,159.90.210.22,10.4084,-66.8756,Venezuela,http://www.usb.ve
intrans.baku.az,208.220.225.2,40.37,49.89,Azerbaijan,
www.cbbank.com.mm,122.248.120.190,16.7833,96.1667,Myanmar,http://www.cbbank.com.mm
pinger.comsats.edu.pk,203.124.40.43,33.6518,73.1566,Pakistan,http://www.ciit.edu.pk
ping.cs.wisc.edu,128.105.252.4,43.070,-89.383,United States,
datautama.net.id,112.109.21.253,-6.9667,110.4167,Indonesia,http://www.datautama.net.id/speedtest/upload.php
pinger.unma.za,196.46.223.9,-15.3915,28.329,Zambia,http://www.unza.zm
www.kmbs.edu.kw,62.215.130.227,29.3697,47.9783,Kuwait,http://www.kmbs.edu.kw
vidconf.triumf.ca,142.90.114.155,49.2478,-123.2306,Canada,
patabwa.stanford.edu,171.64.24.163,37.442,-122.150,United States,
pinger.acmesecurity.org,200.145.216.40,-20.784,-49.360,Brazil,http://www.acmesecurity.org
popeye.ctd.anl.gov,146.137.66.17,41.858,-88.017,United States,
pingersonar-um.myren.net.my,203.80.20.221,3.122521,101.65366,Malaysia,http://www.myren.net.my
if.ufrj.br,146.164.36.15,-22.88,-43.28,Brazil,
www.hellenic.ac.zw,196.29.35.76,-17.86,31.03,Zimbabwe,http://www.hellenic.ac.zw
lxcmsa.cern.ch,137.138.65.252,46.23,6.07,Switzerland,
www.ncl.ac.uk,128.240.233.197,54.9803,-1.6157,United Kingdom,http://www.ncl.ac.uk
www.newinti.edu.my,124.150.142.118,3.0743,101.5911,Malaysia,http://www.newinti.edu.my
csu-gw-3.ucc.colostate.edu,NOT-SET,40.580,-105.067,United States,
dla1.dl.ac.uk,148.79.160.81,53,-2,United Kingdom,
www.unhas.ac.id,103.195.142.3,-5.1309,119.4165,Indonesia,http://www.unhas.ac.id
physrprise.phys.vt.edu,,,,,
www.hallym.ac.kr,210.115.225.12,37.76,128.90,Korea, Rep,
plop.lanl.gov,204.121.19.2,35,-106,United States,
www.ait.asia,203.159.12.4,13.754,100.5014,Thailand,http://www.ait.asia
cepheid.physics,NOT-SET,NOT-SET,,NOT-SET,
216.102.92.254,NOT-SET,NOT-SET,,NOT-SET,
fnalri.fnal.gov,198.151.133.12,41.85,-88.31,United States,
www.mmu.ac.tz,41.220.128.13,-3.3667,36.6833,Tanzania,http://www.mmu.ac.tz/
www.benuestate.gov.ng,216.97.238.72,7.7306,8.5361,Nigeria,
www.upenn.edu,184.25.56.196,45.7833,-108.5007,United States,http://www.upenn.edu
www.indiana.edu,129.79.78.192,39.17,-86.53,United States,http://www.indiana.edu
www.alquds.edu,195.114.29.145,31.77,35.23,Palestine,http://www.alquds.edu/
www.moedu.gov.iq,37.98.225.42,35.4688,44.3910,Iraq,http://www.moedu.gov.iq
www.corpam.ec,201.219.15.18,-0.2918,-78.5246,Ecuador,http://www.corpam.ec
hpl3sn03.cern.ch,NOT-SET,46.23,6.06,Switzerland,
perfsonar-unimas.myren.net.my,203.80.20.254,1.469641,110.428081,Malaysia,http://www.myren.net.my/
lobelia.physics.wisc.edu,128.104.28.5,43.07,-89.40,United States,
pinger.sprace.org.br,200.136.80.16,-23.5242,-46.6653,Brazil,http://spruna.if.usp.br
171.66.199.89,171.66.199.89,NOT-SET,,NOT-SET,
hyperion.ucs.indiana.edu,129.79.78.1,39.17,-86.53,United States,http://www.indiana.edu
53.193.232.86,53.193.232.86,NOT-SET,,NOT-SET,
marte.uto.edu.bo,200.87.0.76,-17.58,-67.6,Bolivia,
www.acgrc.am,212.34.226.101,40.1949,44.4789,Armenia,http://www.acgrc.am
rsplus.cern.ch,137.138.246.91,46.23,6.07,Switzerland,
www.saidzambia.gov.zm,66.36.215.20,-12.967,28.633,Zambia,http://wwww.saidzambia/gov.zm
www.iaau.edu.kg,178.217.168.123,42.8559,74.6809,Kyrgyzstan,http://www.iaau.edu.kg/
pop3.inil.com,216.93.66.153,41.887,-88.300,United States,
172.23.52.7,172.23.52.7,37.418,-122.204,United States,http://www.slac.stanford.edu
www.u-douala.cm,195.24.223.171,4.07,9.72,Cameroon,http://www.u-douala.cm
www.tamweel.ae,76.12.125.221,25.2644,55.3117,United Arab Emirates,http://www.tamweel.ae
border2-e04-core.cas.ansp.br,143.106.99.74,-15.783,-47.917,Brazil,
st.netbynet.ru,212.1.244.194,55.15,37.57,Russia,http://st.netbynet.ru/speedtest/upload.php
banpro.com.ni,200.30.130.3,12.15,-86.26,Nicaragua,http://banpro.com.ni
www.sjtu.edu.cn,202.120.2.102,31.0178,121.4325,China,http://www.sjtu.edu.cn
115-186-135-82.nayatel.pk,115.186.135.82,33.7168,73.0720,Pakistan,http://www.nayatel.pk/
www.usm.my,161.142.10.13,3.150,101.683,Malaysia,
www.arsc.edu,199.165.84.118,64.8588,-147.8239,United States,http://www.arsc.edu
ns.hepgrid.uerj.br,200.143.197.194,-22.9112,-43.2354,Brazil,
www.mcbs.edu.om,212.72.11.27,23.61,58.59,Oman,http://www.mcbs.edu.om
www.rmutt.ac.th,202.44.131.174,13.9796,100.6138,Thailand,http://www.rmutt.ac.th
155.198.211.79,155.198.211.79,51.50,-0.08,United Kingdom,
www.gsis.gov.ph,210.5.70.65,14.6091,121.0223,Philippines,
sgiserv.rmki.kfki.hu25.212.55,30.25.212.55,47.43,19.25,Hungary,
www.pgis.lk,203.115.24.35,7.26,80.60,Sri Lanka,
monet.astro.uiuc.edu,128.174.51.155,40.11,-88.21,United States,
ns.nownuri.net,203.238.128.24,37.550,126.967,Korea, Rep,
pinger.unesp.br,200.145.255.41,-23.55,-46.63,Brazil,http://www.usp.br/internacional/home.php?idioma=en
www.niit.edu.pk,203.99.50.204,33.6,73.13,Pakistan,
pcgiga.cern.ch,192.91.245.29,46.23,6.06,Switzerland,
enterprise.uspnet.usp.br,143.107.151.2,-15.783,-47.917,Brazil,
pinger2.if.ufrj.br,146.164.36.25,-22.8598,-43.2310,Brazil,http://pinger2.if.ufrj.br/
ntp.dnai.com,207.181.192.12,37.87,-122.27,United States,
alfalfa.pas.rochester.edu,128.151.144.230,43.15,-77.60,United States,
www.caen.edu.pe,200.37.34.80,-12.1614,-77.0192,Peru,http://www.caen.edu.pe
ns.wide.ad.jp,203.178.136.63,35.700,139.767,Japan,
ns.rikkyo.ac.jp,150.93.16.250,35.68,139.73,Japan,
abc.cv,195.8.3.187,-23.51,14.91,Cape Verde,http://www.abc.cv
hon-prepaid-173-173.telekom.net.sb,202.1.173.173,-9.4304,159.9483,Solomon Islands,http://www.solomon.com.sb
uchicago.csg.mm.advanced.org,128.135.247.250,41.023,-73.800,United States,
www.uern.br,200.164.64.132,-5.5740,-36.9089,Brazil,http://www.uern.br
www.inp.nsk.su,193.124.167.17,55.0,82.9,Russia,www.inp.nsk.su
bovine.uoregon.edu,128.223.21.104,44.05,-123.09,United States,
www.mahsa.edu.my,103.6.198.83,3.1547,101.6651,Malaysia,http://www.mahsa.edu.my
www.al.sp.gov.br,200.144.27.132,-15.783,-47.917,Brazil,
www.mt.net.mk,195.26.152.130,42.0038,21.4522,Macedonia,http://www.mt.net.mk
www.suza.ac.tz,41.204.150.67,-6.1657,39.1917,Tanzania,http://www.suza.ac.tz
www.btu.upm.edu.my,110.74.179.24,3.2061,113.0930,Malaysia,http://www.btu.upm.edu.my
hpssd1.riken.go.jp,134.160.229.102,35.78,139.62,Japan,
etppc39.etp.physik.uni-muenchen.de,129.187.180.228,,,Germany,
cptsu10.univ-mrs.fr,139.124.7.110,,,France,
andrew.triumf.ca,142.90.106.59,49.2475,-123.2308,Canada,http://www.triumf.ca/
www.pau.edu.kz,88.204.202.46,43.25,76.95,Kazakhstan,http://www.pau.edu.kz
www.fde.ec,200.110.94.62,-2.2038,-79.897,Ecuador,http://www.fde.ec
ccwp7.in2p3.fr,134.158.80.3,46,6,France,
www.lunet.edu,192.135.141.50,35.47,-97.51,United States,http://www.lunet.edu
multivac.sdsc.uk,,,,,
heplx1.phsx.ukans.edu,129.237.98.70,,,United States,
www.ucomgh.com,41.220.52.58,8,-2,Ghana,http://www.ucomgh.com/
ns2.ucc.edu.gh,195.166.234.139,5.05,-1.15,Ghana,http://www.ucc.edu.gh
mason.cnri.reston.va.us,132.151.1.14,38.95,-77.34,United States,
www.aims.org.af,83.138.163.176,34.5,69.17,Afghanistan,
www.kpl.net.la,114.129.27.157,17.9648,102.6069,Laos,http://www.kpl.net.la
vle.iiu.edu.pk,111.68.97.162,33.660139,73.027247,Pakistan,http://www.iiu.edu.pk
www-hep.colorado.edu,128.138.133.110,40.01,-105.27,United States,
www.fulbright.org.cy,194.154.128.22,35.15,33.35,Cyprus,http://www.fulbright.org.cy
glast.pg.infn.it,193.205.222.139,43.12,12.38,Italy,
inuit.phys.ualberta.ca,129.128.7.75,53.550,-113.467,Canada,
www2.unp.ac.id,180.250.51.219,-0.9500,100.3531,Indonesia,http://www2.unp.ac.id
192.107.195.62,,,,,
www.auis.edu.iq,69.195.92.96,35.4688,44.3910,Iraq,http://www.auis.edu.iq
www.adach.ae,86.96.196.32,24.4193,54.4468,United Arab Emirates,http://www.adach.ae
www.aims.ac.za,138.201.84.219,-34.1072,18.4705,South Africa,
phys150.physics.colostate.edu,129.82.140.150,40.58,-105.08,United States,
hep505.cithep.64,NOT-SET,NOT-SET,,NOT-SET,
buitms.seecs.edu.pk,121.52.157.190,30.214317,66.993094,Pakistan,http://buitms.seecs.edu.pk
www.nhrdc.sc,74.54.57.25,-4.6167,55.45,Seychelles,http://www.nhrdc.sc
pb.cache.nlanr.net,64.90.188.50,40.44,-80.00,United States,
ping.bnl.thep.caltech.edu,,,,,
bo.cache.nlanr.net,12.160.37.20,40.02,-105.27,United States,
wwwproxy.ace,,,,,
www.rna.ao,41.221.254.23,-8.84,13.23,Angola,http://www.rna.ao
pingerkhi-cpsp.pern.edu.pk,111.68.107.246,24.8376048,67.0588744,Pakistan,http://pingerkhi-cpsp.pern.edu.pk/
ns.elim.net,203.239.130.1,-33.400,-70.667,Chile,
www.eritel.com.er,196.200.104.161,15.3324,38.9262,Eritrea,http://www.eritel.com.er/
pgsa.rice.edu,128.42.70.19,29.834,-95.000,United States,
www.agrinamibia.com.na,196.44.136.21,-22.5589,17.0825,Namibia,http://www.agrinamibia.com.na
200.55.145.12,,,,,
beamdump.phys.unm.edu,198.59.169.212,35.08,-106.65,United States,
www.nqa.gov.ae,185.48.64.2,24.4618,54.3928,United Arab Emirates,http://www.nqa.gov.ae/
195.114.28.10,195.114.28.10,31.77,35.23,Palestine,http://www.alquds.edu/
rainbow.inp.nsk.du.au,,,,,
www.nren.nasa.gov,198.10.138.131,37.4125,-122.062,United States,
www.nca.edu.pk,216.180.249.193,31.5,74.3,Pakistan,http://www.nca.edu.pk
www.ncu.edu.jm,216.10.221.136,18.0157,-77.4996,Jamaica,http://www.ncu.edu.jm
128.250.54.22,128.250.54.22,-35.250,149.133,Australia,
www.univ-emir.dz,193.194.64.71,36.75,3,Algeria,
www.unicen.ac.id,103.247.10.177,-2.5330,140.7170,Indonesia,http://www.unicen.ac.id
uchicago.edu,128.135.12.84,41.88,-87.61,United States,
www.egov.go.tz,197.149.176.2,-6.8139,39.2927,Tanzania,http://www.egov.go.tz/
enterna.phs.uc.edu,NOT-SET,NOT-SET,,NOT-SET,
www.tribunais.tl,180.189.168.244,-8.5598,125.5770,Timor-Leste,http://www.tribunais.tl
fish6.ngi-supernet.org,65.17.208.214,38.90,-77.04,United States,
firebird.ccs.ornl.gov,NOT-SET,36.01,-84.27,United States,
0.xe-5-1-0.gw3.equinix-sj.sonic.net,208.106.27.121,37.3394,-121.8950,United States,http://www.sonic.net
sanmateo01-max1.pop.internex.net,205.158.3.36,37.345,-121.933,United States,
sbkwu.seecs.edu.pk,121.52.157.21,30.1915882,66.961221,Pakistan,http://sbkwu.seecs.edu.pk
www.unja.ac.id,103.26.102.23,-1.5967,103.6158,Indonesia,http://www.unja.ac.id
lu.se,NOT-SET,59.333,18.050,Sweden,
wwwae.ciemat.es,130.206.11.42,,,Spain,
www.cas.ac.ma,67.15.234.27,32.00,-5.00,Morocco,
e.root-servers.net,192.203.230.10,37.323,-121.933,United States,
ipwt.direcpc.com,206.71.99.14,38.977,-76.483,United States,
br5s8s9-fddi-ihp.ascc.net,140.109.15.5,NOT-SET,,NOT-SET,
lattice.tas.aarnet.net.au,131.217.1.7,-42.92,147.33,Australia,
uae6.ciemat.efn.it,,,,,
www.its.ac.id,202.46.129.20,-7.2642,112.7456,Indonesia,http://www.its.ac.id
www.abc.cv,195.8.3.187,-23.51,14.91,Cape Verde,http://www.abc.cv
perf3-fe.jp.apan.net,203.181.248.7,35.68,139.75,Japan,
ping.desy.dec.be,,,,,
pktw03.phy.tu-dhu,NOT-SET,NOT-SET,,NOT-SET,
hepcan.onet.on.ca,130.185.89.20,43.650,-79.333,Canada,
speedtest.tmnet.se,84.243.62.5,55.35,13.52,Sweden,http://speedtest.tmnet.se/speedtest/upload.php
www.mod.gov.af,103.23.247.13,34.5167,69.1833,Afghanistan,http://www.mod.gov.af
www.csr.org.mw,196.45.188.5,-15.23,35.19,Malawi,http://www.csr.org.mw
130.217.248.30,130.217.248.30,-37.7471,175.4200,New Zealand,http://www.waikato.ac.nz/
karthur.nevis.columbia.edu,192.12.82.86,,,United States,
hep1.c.u-tokyo.ac.jp,157.82.60.173,35.700,139.767,Japan,
www.ucv.cl,158.251.4.48,-33.08,-71.67,Chile,www.ucv.cl
www.unair.ac.id,210.57.208.14,-7.2892,112.7344,Indonesia,http://www.unair.ac.id
lepton.pa.msu.edu,35.9.71.65,42.73,-84.43,United States,
www.cbt.tm,217.174.226.81,37.95,58.3833,Turkmenistan,http://www.cbt.tm
pixelitaivas.com,194.204.33.124,59.43,24.73,Estonia,http://www.pixelitaivas.com/testfiles/speedtest/upload.php
d-name-2.cern.ch,128.141.200.6,46.23,6.06,Switzerland,
www.aviainfo.gov.mv,202.1.207.53,4.1888,73.5286,Maldives,http://www.aviainfo.gov.mv
snoopy.riken.go.jp,134.160.4.17,35.67,139.75,Japan,
www.uaeu.ac.ae,194.69.1.84,24.47,54.37,United Arab Emirates,http://www.zu.ac.ae/
mukluk.cc.monash.edu.au,130.194.2.37,-37.8777,145.0450,Australia,
nav6.usm.my,202.170.57.120,5.3548,100.3011,Malaysia,http://www.usm.my
cchpssd0.in2p3.fr,134.158.110.1,45.75,4.85,France,
cc3.ucsf.edu,128.218.158.52,37.775,-122.417,United States,
netvideo.bnl.gov,130.199.5.34,40.810,-73.167,United States,
enacol.cv,195.8.3.90,-23.51,14.91,Cape Verde,http://www.enacol.cv
www.mof.gov.sd,196.29.187.157,15.5881,32.5342,Sudan,http://www.mof.gov.sd
washington2.cw.net,NOT-SET,NOT-SET,,NOT-SET,
chopin.cs.wisc.edu,128.105.121.21,43.073,-89.401,United States,
speedtest.starnet.md,77.67.73.222,47.01,28.87,Moldova,http://speedtest.starnet.md/speedtest/upload.php
www.brunei.gov.bn,202.93.223.29,4.93,114.97,Brunei,
cisco.ufscar.br,200.9.84.100,-15.783,-47.917,Brazil,
teras.sara.nl,145.100.20.11,52.35,4.92,Netherlands,
plato.cacr.caltech.edu,131.215.144.226,34.15,-118.14,United States,http://www.cacr.caltech.edu
www.africaonline.co.zw,216.104.192.18,-17.83,31.05,Zimbabwe,
ns3.fcien.edu.uy,164.73.80.4,-34.56,-56.11,Uruguay,
ns1.tcd.ie,134.226.1.114,53.333,-6.250,Ireland,
www.creolink.cm,41.223.30.44,3.8667,11.5167,Cameroon,http://www.creolink.cm/
syr.edu,128.230.18.35,43.052,-76.150,United States,
chez.mana.pf,202.3.227.244,-17.5333,-149.5667,French Polynesia,
sunysb.edu,129.49.2.176,40.9150,-73.1199,United States,
main.kyungwon.ac.kr,203.249.126.5,37.5,127,Korea, Rep,
143.108.31.3,143.108.31.3,-23.55,-46.63,Brazil,
www.nacfa.com.er,196.200.97.4,16.6663,38.4758,Eritrea,http://www.nacfa.com.er/
ns.imnet.ad.jp,202.241.1.132,35.700,139.767,Japan,
inp.nsk.su,,,,,
www.uda.ad,194.158.78.228,42.5,1.517,Andorra,http://www.uda.ad
www.um.ac.id,202.52.137.1,-7.9819,112.6265,Indonesia,http://www.um.ac.id
pa.cache.nlanr.net,192.172.226.121,32.88,-117.24,United States,
tribhuvan-university.edu.np,104.152.168.29,27.6794,85.2865,Nepal,http://tribhuvan-university.edu.np
vaxfe.fe.infn.it,192.84.144.1,41.883,12.500,Italy,
www.criba.edu.ar,190.124.192.37,-34.588,-58.67,Argentina,http://www.criba.edu.ar
www.cudi.edu.mx,148.202.106.61,19.23,-103.72,Mexico,
hpl3cmu1.cern.ch,137.138.208.98,46.232496,6.045914,Switzerland,
www.channeli.net,210.112.192.30,37.57,127,Korea, Rep,
wwwwswest2.sun.com,192.9.24.116,37.388,-122.067,United States,
www.carisp.sm,194.183.84.46,43.9333,12.4667,San Marino,http://www.carisp.sm
ocesb.com.my,202.73.10.4,3.54,101.89,Malaysia,http://www.ocesb.com.my/speedtest/upload.php
csflinux.rl.ac.uk,130.246.183.136,51.500,-0.167,United Kingdom,
phys1prise.phys.vt.edu,,,,,
pinger.ascr.doe.gov,192.73.213.124,39.17,-77.25,United States,http://www.er.doe.gov/ascr/
ctpa02.mit.edu,18.77.2.75,42.365,-71.100,United States,
www.nbi.dk,130.225.212.5,55.6868,12.5719,Denmark,
pollinbg.in2p3.fr,134.158.128.120,48.44,2.10,France,
www.bau.edu.lb,193.188.135.16,33.87,35.51,Lebanon,http://www.bau.edu.lb
76-191-222-1.dsl.sonic.net,76.181.222.1,37.4471,-122.1755,United States,http://www.sonic.net
ultralog.ampath.net,198.32.252.3,25.77,-80.90,United States,http://www.fiu.edu
perl-pbdsl.stanford.edu,171.66.185.233,37.80,-122.27,United States,
nmsapps.bigair.net.au,10.30.6.90,-33.7,151.2,Australia,http://nmsapps.bigair.net.au/speedtest/upload.php
physgi01f.phy.bnl.gov,130.199.24.29,40.76,-72.90,United States,
phy.duke.edu,152.3.182.1,35.99,-78.90,United States,
www2.usp.br,143.107.253.151,-23.55,-46.63,Brazil,
transexpress.com.ni,107.180.54.170,12.15,-86.26,Nicaragua,http://transexpress.com.ni
telecom.sinica.edu.tw,140.109.13.101,25.03,121.63,Taiwan,
ns2.jinr.dubna.su,159.93.17.13,55.750,37.583,Russia,
www.ictp.tv,140.105.28.116,45.70749,13.716527,Italy,http://www.ictp.tv
www.costaatt.edu.tt,190.6.224.36,10.6618,-61.5141,Trinidad and Tobago,http://www.costaatt.edu.tt
gw39.hep.ph.ic.ac.uk,155.198.216.150,51.500,-0.167,United Kingdom,
speedtest.sistemnet.com.tr,212.175.16.4,38.1,43.25,Turkey,http://speedtest.sistemnet.com.tr/speedtest/upload.php
pdsfgrid2.nersc.gov,128.55.24.27,37.87,-122.27,United States,
www.ons.dz,196.20.66.99,36.7491,3.0764,Algeria,http://www.ons.dz/
www.abci.com.jo,194.165.153.218,31.9494,35.9329,Jordan,http://www.abci.com.jo
noc4.sysadm.suny.edu,141.254.1.11,42.650,-73.750,United States,
acheraarchitects.co.ke,80.240.192.166,1,38,Kenya,http://www.acheraarchitects.co.ke
pinger.fsktm.um.edu.my,103.18.2.152,3.1247,101.6534,Malaysia,http://www.um.edu.my
dnsba.ba.infn.it,192.135.10.12,41.883,12.500,Italy,
www.upesh.edu,216.250.229.22,34.0,71.5,Pakistan,http://www.upesh.edu
ping.cs.wisc.c.edu,,,,,
www.afrinet.cd,41.222.216.214,-4.3208,15.298,Democratic Republic of Congo,http://www.afrinet.cd
pnec.seecs.edu.pk,111.68.107.35,24.8898,67.0888,Pakistan,http://pnec.seecs.edu.pk
www.sadc-fanr.org.zw,193.220.40.13,-17.83,31.05,Zimbabwe,
ns2.retina.ar,200.10.202.4,-34.38,-58.28,Argentina,
www.alfamicro.pt,130.185.84.10,38.6990,-9.4395,Portugal,http://www.alfamicro.pt
www.irk.ru,195.206.58.122,52.3,104.25,Russia,
www.sonabel.bf,212.52.147.202,12.3702,-1.5249,Burkina Faso,http://www.sonabel.bf
www.mimos.my,202.45.136.31,3.0629,101.6912,Malaysia,http://www.mimos.my
silas-2.cc.monash.edu.au,130.194.1.7,-35.250,149.133,Australia,
axtov1.roma2.infn.it,141.108.16.80,41.88,12.5,Italy,
www.umrah.ac.id,103.28.23.166,0.9179,104.4465,Indonesia,http://umrah.ac.id
snu-sxp.kr.apan.net,203.255.248.229,NOT-SET,,NOT-SET,
www.ppesa.gov.et,213.55.96.153,8,38,Ethiopia,http://www.ppesa.gov.et/
kitka.marnet.net.mk,194.149.131.2,42,21.433,Macedonia,
www.cab.cnea.gov.ar,168.96.72.3,-34.617,-58.400,Argentina,
www.unpatti.ac.id,103.56.70.3,-3.6542,128.1936,Indonesia,http://www.unpatti.ac.id
www.muanetu.cd,66.36.196.221,-6.2,23.6,Congo, Dem Rep,http://www.muanetu.cd/
nyc.lightning.net,NOT-SET,40.747,-73.633,United States,
info.desy.de,131.169.30.42,53.53,9.98,Germany,
iepm-bw.cesnet.cz,195.113.187.2,50.1,14.43,Czech Republic,
www.minzdrav.uz,195.158.29.67,41.2667,69.2167,Uzbekistan,
sg4.tsukuba.jp.hep.net,202.13.200.2,35.700,139.767,Japan,
glast-mrb01.slac.stanford.edu,134.79.205.144,38.85,77.04,United States,http://glast.stanford.edu/
www.cbn.net.id,202.158.92.218,-6.13,106.75,Indonesia,
foundation.bw,168.167.21.79,-24.71,25.9,Botswana,http://www.foundation.bw
www.cck.rnu.tn,196.203.79.201,36.80,10.18,Tunisia,
l.root-servers.net,198.32.64.12,34.033,-118.233,United States,
www.omaninfo.om,82.178.28.54,23.6029,58.4684,Oman,http://www.omaninfo.om/
www.albany.edu,169.226.1.110,42.6929,-73.838,United States,http://www.albany.edu
www.avaza.gov.tm,217.174.229.211,40.0251,52.9576,Turkmenistan,http://www.avaza.gov.tm
oppie.physics.umd.edu,129.2.42.5,38.99,-76.93,United States,
pinger-new.slac.stanford.edu,134.79.240.29,37.41,-122.20,United States,http://www.slac.stanford.edu
www.physics.purdue.edu,128.210.68.229,40.45,-86.92,United States,
www.inima.al,84.20.66.141,41.33,19.82,Albania,http://www.inima.al
192.215.120.29,192.215.120.29,0,0,,
140.109.120.1,140.109.120.1,NOT-SET,,NOT-SET,
140.109.246.1,140.109.246.1,25.02,121.45,Taiwan,
speedtest.1host.co.il,213.8.196.24,31.55,34.33,Israel,http://speedtest.1host.co.il/speedtest/upload.php
islamabad-server2.comsats.net.pk,210.56.8.8,24.700,67.00,Pakistan,
www.kist.ac.rw,154.68.126.6,-1.93,30.07,Rwanda,http://www.kist.ac.rw
pinger-itc.pu.edu.pk,111.68.103.29,31.4956,74.2942,Pakistan,http://www.pu.edu.pk/
pizero.colorado.edu,128.138.133.2,40.02,-105.27,United States,
pinger.nwfpuet.edu.pk,121.52.147.71,34.0017,71.4855,Pakistan,http://www.nwfpuet.edu.pk
www.met.gov.kw,168.187.251.136,29.2401,47.9713,Kuwait,http://www.met.gov.kw/
pin62.lns.cornell.edu,,,,,
www.uoa.gr,195.134.71.229,38.000,23.733,Greece,
netops.cdac.in,203.199.132.64,18.57,73.97,India,http://www.cdac.in/
ftp.jach.hawaii.edu,128.171.90.222,21.313,-157.850,United States,
www.iastate.edu,129.186.23.166,42.036,-93.4652,United States,http://www.iastate.edu
www.hep.by,80.94.173.232,53.9176,27.5944,Belarus,http://www.hep.by
bow.intnet.dj,193.251.143.162,11.5,43,Djibouti,
oud.kaist.kr.apan.net,,,,,
pizero.olorado.edu,,,,,
enterprise.phys.vt.e,NOT-SET,NOT-SET,,NOT-SET,
www.oag.org.bw,168.167.134.74,-24.6919,25.8785,Botswana,http://www.oag.org.bw
www.upm.edu.my,119.40.117.143,2.99953,101.70809,Malaysia,http://www.upm.edu.my
ns-ext.vix.com,204.152.184.64,37.428,-122.250,United States,
www.libyana.ly,62.240.36.58,32.8762,13.1875,Libya Arab Jamahiriya,http://www.libyana.ly
na.infn.it,192.84.149.100,40.83,14.25,Italy,
bgcict.acad.bg,194.141.0.2,42.750,23.333,Bulgaria,
pingerkhi-uok.pern.edu.pk,111.68.107.242,24.9400231,67.12093,Pakistan,http://pingerkhi-uok.pern.edu.pk/
dnai.com,,,,,
www.arn.dz,193.194.64.87,36.7631,3.0506,Algeria,http://www.arn.dz
www.fnal.gov,131.225.105.230,41.85,-88.31,United States,
calvin.niams.nih.gov,165.112.114.25,38.985,-77.083,United States,
www.brahman.iway.na,196.44.136.32,-22.57,17.08,Namibia,
bifur.rmki.kfki.hu,148.6.176.200,47.500,19.083,Hungary,
indix.cdacmumbai.in,202.141.151.109,18.93,72.85,India,
www.agriculture.gouv.ci,41.66.62.20,5.3364,-4.026,Ivory Coast,http://www.agriculture.gouv.ci
ftp.physphysics.colostate.edu,,,,,
yumj2.kek.jp,130.87.34.37,36.08,140.25,Japan,
www.wb.sdnpk.org,58.65.204.149,30.2,67.0,Pakistan,http://www.wb.sdnpk.org
pinger.uum.edu.my,103.5.183.4,6.4612,100.5043,Malaysia,http://www.uum.edu.my/
www.unsyiah.ac.id,202.4.186.54,5.5500,95.3167,Indonesia,http://www.unsyiah.ac.id
speedtest.ecubecenter.it,82.112.193.39,45.04,7.4,Italy,http://speedtest.ecubecenter.it/speedtest/upload.asp
eschilo.mib.infn.it,147.122.21.11,45.65,13.78,Italy,
www.utm.ac.mu,202.123.21.123,-20.1619,57.499,Mauritius,http://www.utm.ac.mu
62.56.216.178,62.56.216.178,-12.82,28.2,Zambia,
www.nic.mm,203.81.81.253,16.8616,96.1474,Myanmar,http://www.nic.mm
ns1.sv.saitama-u.ac.jp,133.38.200.21,35.700,139.767,Japan,
www.majeediyya.edu.mv,202.1.207.51,4.1775,73.5142,Maldives,http://www.majeediyya.edu.mv
mathrisc1.lunet.edu,192.135.141.11,35.95,-97.26,United States,
ip-tele.fnal.gov,131.225.255.65,41.85,-88.31,United States,
www.quest.edu.pk,202.5.128.115,26.2,68.4,Pakistan,http://www.quest.edu.pk
www.refer.ga,217.77.72.76,0.3833,9.45,Gabon,http://www.refer.ga
ico.tju.cn,,,,,
www.phy.bris.ac.uk,137.222.8.86,51.4591,-2.6021,United Kingdom,
www.iisc.ernet.in,144.16.79.155,12.97,77.58,India,
pinger-raspberry.slac.stanford.edu,134.79.104.81,37.4176,-122.2038,United States,http://www.slac.stanford.edu
meba.zcp.bf,213.251.186.14,12.33,-2.33,Burkina Faso,http://meba.zcp.bf
www.parlament.gv.at,161.110.13.26,48.2081,16.3586,Austria,http://www.parlament.gv.at
dns1.ethz4,NOT-SET,NOT-SET,,NOT-SET,
mvxrm1.roma1.infn.it,141.108.5.3,41.88,12.50,Italy,
sv.cache.nlanr.net,192.203.230.19,32.713,-117.150,United States,
amp-cnic,159.226.10.239,39.92,116.43,China,
pinger.unma.zm,196.46.223.9,-15.3915,28.329,Zambia,http://www.unza.zm
ns.pipex.net,158.43.128.26,52.350,4.900,Netherlands,
dstsa0.ts.infn.it,NOT-SET,41.883,12.500,Italy,
www.unisim.edu.sg,203.117.65.203,1.3288,103.7758,Singapore,http://www.unisim.edu.sg
www.bis.k12.tr,212.58.28.139,41.0053,28.977,Turkey,
www.undp.tj,94.199.19.7,38.5367,68.7800,Tajikistan,
dns1.on.dl.ac.uk,,,,,
www.immigration.gov.ph,124.6.144.116,14.5908,120.9750,Philippines,
www.cern.ch,188.184.9.235,46.232496,6.045914,Switzerland,
deemzmon0.deemz.net,,,,,
8.220,8.0.0.220,NOT-SET,,NOT-SET,
gw38.hep.ph.ic.ac.uk,155.198.216.149,51.500,-0.167,United Kingdom,
tpr-atm3-0-6.jp.apan.net,203.181.248.254,37.550,126.967,Korea, Rep,
www.entangledstates.com,194.154.164.82,34.42,-119.70,United States,
arizona.edu,128.196.128.233,32.217,-110.967,United States,
ns.eu.net,192.16.202.11,52.350,4.900,Netherlands,
www.mme.gov.na,209.88.21.60,-22.5993,17.0831,Namibia,http://www.mme.gov.na
www.tresor.ga,217.77.72.249,0.3901,9.4544,Gabon,http://www.tresor.ga
aol1.albaniaonline.net,217.24.240.66,41.19,20.18,Albania,http://www.primo.al/
www.lau.edu.lb,67.205.37.153,33.87,35.51,Lebanon,http://www.lau.edu.lb
www.rub.edu.bt,202.144.158.150,27.31,89.45,Bhutan,http://www.rub.edu.bt
ping.slac.stanfodu,,,,,
loggy.stanford.edu,171.64.2.15,37.44,-122.14,United States,
140.109.80.1,140.109.80.1,0,0,,
www.aun.edu.ng,41.223.136.5,9.2035,12.4954,Nigeria,
www.hilcoe.edu.et,213.55.84.53,8,38,Ethiopia,http://www.hilcoe.edu.et
ippm.cac.washington.edu,140.142.16.227,47.60,-122.32,United States,
www.mineduc.gov.cm,80.95.2.125,3.85,11.52,Cameroon,
br3s8s9-fddi-ibms.ascc.net,140.109.15.3,25.03,121.63,Taiwan,
perfSONAR-UNIMAS.myren.net.my,203.80.20.254,1.469641,110.428081,Malaysia,http://www.myren.net.my/
rs1.mae-west.rsng.net,198.32.136.1,34.033,-118.233,United States,
ludens.elte.hu,157.181.2.1,47.43,19.25,Hungary,
www.cmsfq.edu.ec,200.125.133.7,-0.23,-78.5,Ecuador,http://www.cmsfq.edu.ec
cc.if.ufrj.br,146.164.36.25,-22.8598,-43.2310,Brazil,http://cc.if.ufrj.br/
www.bte.com.tn,41.225.8.55,36.818,10.1660,Tunisia,
gppnm.gridpp.rl.ac.uk,130.246.187.2,51.75,-1.25,United Kingdom,
cepheid.physics.utoroia.physics.wisc.edu,NOT-SET,43.070,-89.383,United States,
www.csir.org.gh,192.185.123.110,5.55,-0.22,Ghana,http://www.csir.org.gh
www.emploi.nat.tn,41.225.1.58,36.818,10.1660,Tunisia,
mail.comium.com.lr,66.178.57.17,6.311,-10.804,Liberia,
www.mtec.by,91.149.189.220,53.9,27.5667,Belarus,http://www.mtec.by
209.147.175.249,209.147.175.249,33.43,-111.93,United States,http://www.asu.edu
www.kie.ac.rw,197.243.6.20,-1.93,30.07,Rwanda,http://www.kie.ac.rw
www.absrsm.sm,194.183.95.35,43.767,12.417,San Marino,
192.122.183.203,192.122.183.203,42.27,-83.72,United States,
bootp-99-21.bootp.virginia.edu,128.143.99.21,38.038,-78.500,United States,
www.fmci.ens.tn,196.203.16.112,36.8028,10.1797,Tunisia,http://www.fmci.ens.tn
proxy.ch.intel.com,143.182.246.27,37.345,-121.933,United States,
speedtest.wxnz.net,58.28.13.209,-36.87,174.77,New Zealand,http://speedtest.wxnz.net/speedtest/upload.php
pktw03.phy.tu-dresden,,,,,
199.77.194.26,199.77.194.26,33.75,-84.39,United States,
cc.iut.ac.ir,217.219.19.35,32.68,52.68,Iran,
ns2.indiana.edu,129.79.5.100,39.165,-86.517,United States,
d-name-1.cern.ch,128.141.200.5,46.23,6.07,Switzerland,
uniweb.uni-lj.si,193.2.64.62,46.04,14.33,Slovenia,http://www.uni-lj.si
ftp.aao.gov.au,192.231.167.22,-35.250,149.133,Australia,
198.10.49.61,,,,,
www.ku.edu.tr,193.140.62.240,41.03,28.95,Turkey,
pingerisl-qau.pern.edu.pk,111.68.106.246,33.746176,73.135705,Pakistan,http://pingerisl-qau.pern.edu.pk/
www.voctech.org.bn,202.93.208.90,4.87,115,Brunei,http://www.voctech.org.bn/
spruna.if.usp.br,200.136.80.6,-23.33,-46.41,Brazil,http://spruna.if.usp.br
www.cerist.dz,193.194.64.71,36.75,3,Algeria,http://www.cerist.dz
probe36.motorola.com,136.182.1.101,33.488,-111.917,United States,
hpsst1.riken.go.jp,134.160.229.104,35.78,139.62,Japan,
dns1.ethpheid.physics.utoronto.ca,NOT-SET,43.650,-79.333,Canada,
ftp.phyerprise.phys.vt.edu,NOT-SET,NOT-SET,,NOT-SET,
www.montclair.edu,130.68.2.66,40.83,-74.21,United States,
wash-dc.nasa.gov,198.10.49.61,38.90,-77.04,United States,
phys150.physics.vt.edu,,,,,
h2.ph.man.ac.uk,194.36.3.12,51.500,-0.167,United Kingdom,
airuniversity.seecs.edu.pk,111.68.96.101,33.713275,73.023525,Pakistan,http://airuniversity.seecs.edu.pk/
ftp.noao.edu,140.252.100.6,32.217,-110.967,United States,
thunderbird.internet2.edu,207.75.164.95,42.27,-83.73,United States,
www.des.pf,202.3.245.94,-17.57654,-149.6099,French Polynesia,http://www.des.pf
www.it.lut.fi,157.24.24.50,61.0667,28.1833,Finland,http://www.it.lut.fi
ns1.unikin.cd,185.27.248.40,-4.4194,15.3097,Democratic Republic of Congo,http://www.unikin.cd
ran.ro,86.104.244.8,46.35,26.55,Romania,http://www.ran.ro/speedtest/upload.php
195.24.192.47,195.24.192.47,3.9,11.5,Cameroon,http://www.camtel.cm
lattice.wa.aarnet.net.au,203.19.110.115,-31.93,115.83,Australia,
speedtest.techconcepts.co.za,66.8.85.147,-26.08,27.54,South Africa,http://speedtest.techconcepts.co.za/speedtest/upload.php
www.pnl.ac.id,118.82.11.34,5.1881,97.1403,Indonesia,http://www.pnl.ac.id
ns1.pieas.edu.pk,111.68.99.194,33.6559,73.2657,Pakistan,http://ns1.pieas.edu.pk
www.bct.ly,41.208.105.194,32.7734,13.0118,Libya Arab Jamahiriya,http://www.bct.ly
torah.sdsc.edu,132.249.20.194,32.72,-117.16,United States,
www.anis.sm,185.21.117.37,43.9424,12.4578,San Marino,http://www.anis.sm
www.tahitiphilatelie.pf,202.3.238.85,-17.5350,-149.5693,French Polynesia,http://www.tahitiphilatelie.pf
auriga.rose.brandeis.edu,129.64.32.34,42.377,-71.233,United States,
168.167.83.176,168.167.83.176,-24.71,25.9,Botswana,www.globalconsult.co.bw
www.atmajaya.ac.id,110.35.83.27,-6.2115,106.8452,Indonesia,http://www.atmajaya.ac.id
58.26.240.61,58.26.240.61,1.5372,110.3494,Malaysia,http://www.tm.com.my
wwwhep.phys.uvic.ca,142.104.61.89,48.43,-123.35,Canada,
cogwheel.princeton.edu,128.112.85.212,40.35,-74.66,United States,
www.layne.com.ml,196.200.91.178,12.65,-8,Mali,http://www.layne.com.ml
111.at-4-0--0.gw3.200p-sf.sonic.net,208.106.28.125,37.4480,-122.1745,United States,http://www.sonic.net
www.bu.ac.th,203.148.231.30,13.733,100.500,Thailand,
www.uni-mb.si,164.8.42.80,46.36,15.40,Slovenia,http://www.uni-mb.si
ns.gutierrez.com,206.105.100.5,18.36,-66.11,Puerto Rico,
www.6telecoms.co.tz,41.77.226.4,-6.8133,39.2893,Tanzania,http://www.6telecoms.co.tz
ns1.swiftkenya.com,80.240.192.7,-0.0996,34.7508,Kenya,http://www.swiftglobal.co.ke
nlshare.nl,81.171.35.30,52.36,4.9,Netherlands,http://www.nlshare.nl/speedtest/speedtest/upload.php
bong.slac.stanford.edu,,,,,
thef-nym.sci.kun.nl,131.174.22.16,52.350,4.900,Netherlands,
moon.cnea.gov.ar,,,,,
198.31.85.1,198.31.85.1,NOT-SET,,NOT-SET,
kviexp.kvi.nl,129.125.15.1,52.350,4.900,Netherlands,
mail.hep.by,74.125.53.121,53.8932,24.5473,Belarus,
main.tirana.al,209.239.74.158,41.33,19.82,Albania,
www.acrossafricatours.co.zw,217.15.120.13,-17.818,31.045,Zimbabwe,http://www.acrossafricatours.co.zw
customer-side1-telecomalbania.atnet.com.al,217.24.240.6,41.33,19.82,Albania,
www.helwan.edu.eg,193.227.34.41,29.8661,31.3189,Egypt,http://www.helwan.edu.eg
www.scarlet.cw,190.2.128.117,12.1077,-68.9103,Netherlands Antilles,http://www.scarlet.cw/
www.innova-red.net,200.10.202.8,-34.5875,-58.6725,Argentina,http://www.innova-red.net
www.acf.ci,213.136.96.12,5.3363,-4.0278,Ivory Coast,http://www.acf.ci
ns.rcub.bg.ac.rs,147.91.1.5,44.8040,20.4798,Serbia and Montenegro,http://www.rcub.bg.ac.rs/
dxcnaf.cn55,NOT-SET,NOT-SET,,NOT-SET,
www.ug.edu.gh,197.255.127.3,5.6547,-0.1903,Ghana,http://www.ug.edu.gh
166.49.29.193,166.49.29.193,NOT-SET,,United States,
er.sdsc.edu,,,,,
ens62.lns.cornell.edu,10.0.0.3,NOT-SET,,United States,
140.109.152.1,140.109.152.1,NOT-SET,,NOT-SET,
www.pol34.pl,212.191.2.29,52.250,21.000,Poland,
pinger-host.fnal.gov,131.225.110.18,41.8380,-88.2628,United States,http://www.fnal.gov
ms01.linea.gov.br,186.232.60.129,-22.9035,-43.2096,Brazil,http://www.linea.gov.br
205.189.33.70,205.189.33.70,0,0,,
ashanti.gh.com,193.194.185.25,5.55,-0.25,Ghana,http://www.isodec.org.gh
amp-unin,202.28.18.8,13.9,100.6,Thailand,
30-156-254-84.skylogicnet.it,84.254.156.30,-14.0,126.06,Malawi,http://www.farmersunion.mw/
yalph2.puiuc.edu,,,,,
140.109.248.240,140.109.248.240,NOT-SET,,NOT-SET,
www.hu.edu.pk,203.175.75.39,34.42,73.25,Pakistan,http://www.hu.edu.pk
orgwyf1.ctd.ornl.gov,192.31.96.65,36.010,-84.250,United States,
hu.seecs.edu.pk,121.52.150.71,34.422494,73.245544,Pakistan,http://hu.seecs.edu.pk/
maggie2.seecs.edu.pk,111.68.101.46,33.642886,72.990525,Pakistan,http://www.seecs.edu.pk
dnssec2.singnet.com.sg,195.13.10.226,1.283,103.850,Singapore,
202.249.47.82,202.249.47.82,NOT-SET,,NOT-SET,
hep.tsinghua.edu.cn,166.111.32.43,40.0,116.32,China,http://hep.tsinghua.edu.cn/
chi-gev122-startap.es.net,,,,,
orgwy.ctd.ornl.gov,198.124.42.1,36.010,-84.250,United States,
121.52.144.65,121.52.144.65,34.0670,71.9907,Pakistan,http://www.cae.nust.edu.pk/
speedtest.orangemali.net,196.200.80.4,12.39,-8,Mali,http://speedtest.orangemali.net/speedtest/upload.php
speedtest.ontelecoms.gr,91.132.5.198,37.98,23.73,Greece,http://speedtest.ontelecoms.gr/speedtest/upload.php
iepmbw.twaren.net,211.79.63.77,24.7812,120.993,Taiwan,http://www.twaren.net
aus.matrixau.com,203.88.120.103,-35.18,149.08,Australia,http://aus.matrixau.com/speedtestnet/upload.php
www.ahlia.edu.bh,77.69.139.151,26.2358,50.5930,Bahrain,http://www.ahlia.edu.bh
www.ird.mg,62.173.234.150,-18.87,47.5,Madagascar,http://www.ird.mg/
eng.kstu.kz,212.154.194.122,50.72,53.12,Kazakhstan,http://eng.kstu.kz
morticia.utdallas.edu,129.110.62.18,32.95,-96.73,United States,
www.mib.edu.my,124.217.242.2,1.4667,103.75,Malaysia,http://www.mib.edu.my
www.univ-batna.dz,193.194.69.34,35.5,6.2,Algeria,
amp-cnic-hk,159.226.254.225,22.33,114.183,China,
jlabs2.cebaf.gov,129.57.35.235,36.977,-76.417,United States,
h.root-servers.net,128.63.2.53,37.428,-122.250,United States,
www.hraparak.am,104.28.28.98,40,45,Armenia,http://www.hraparak.am
pinger.daffodilvarsity.edu.bd,203.190.11.4,23.7531,90.3773,Bangladesh,http://www.daffodilvarsity.edu.bd/
www.nbn.ac.za,41.203.18.46,-29,24,South Africa,http://www.nbn.ac.za
atech3-gw.customer.alter.net,137.39.130.162,39.03,-77.5,United States,http://www.alter.net
gntmon.oucs.ox.ac.uk,163.1.13.20,51.75,-1.25,United Kingdom,
br5s6p0-10bf-th-1.ascc.net,140.109.184.1,25.03,121.63,Taiwan,
speedtest.telenet.be,195.130.144.16,51.31,4.28,Belgium,http://speedtest.telenet.be/speedtest/upload.php
www.untad.ac.id,103.245.72.54,-0.8986,119.8506,Indonesia,http://www.untad.ac.id
www.cbs.sc,41.79.60.122,-4.6191,55.4513,Seychelles,http://www.cbs.sc/
comsatsswl.seecs.edu.pk,111.68.104.98,30.6428,73.1484,Pakistan,http://www.ciitsahiwal.edu.pk
www.afcp.kz,195.210.46.113,43.2525,76.9365,Kazakhstan,http://www.afcp.kz
calatrava.apo.nmsu.edu,192.41.211.1,32.312,-106.767,United States,
www.ivic.ve,150.186.1.30,NOT-SET,,Venezuela,
www.doctors.ly,41.208.71.3,32.8711,13.1935,Libya Arab Jamahiriya,http://www.doctors.ly
gw1-atm-1005.nc.singaren.net.sg,202.8.94.17,1.283,103.850,Singapore,
www.ucj.edu.sa,86.51.174.235,27.0757,49.5910,Saudi Arabia,http://www.ucj.edu.sa/
purdd.physics.purdue.edu,128.210.68.2,40.45,-86.91,United States,
140.109.1.1,140.109.1.1,25.02,121.45,Taiwan,
linux115c.fzu.cz,147.231.27.115,,,Czech Republic,
ns.kreonet.re.kr,134.75.30.1,37.550,126.967,Korea, Rep,
www.moe.edu.kw,185.48.188.151,29.3697,47.9783,Kuwait,http://www.moe.edu.kw
dxmon.cern.ch,192.65.185.10,46.23,6.07,Switzerland,
usuhs.mil,131.158.7.14,38.98,-77.10,United States,
www.polmed.ac.id,36.66.35.162,3.5929,98.6640,Indonesia,http://www.polmed.ac.id
ccpntc3.in2p3.ccjsun.riken.go.jp,,,,,
ust.edu.sd,95.131.65.81,15.5881,32.5342,Sudan,http://www.ust.edu.sd
jlabh1.jlab.org,129.57.35.248,36.977,-76.417,United States,
www.see.gob.do,190.167.196.166,18.4961,-69.9193,Dominican Republic,http://www.see.gob.do
pinger.cdacmumbai.in,202.141.151.30,18.93,72.85,India,http://www.cdacmumbai.in
www.ird.ne,41.138.57.1,13.53,2.08,Niger,
indya.hep.brandeis.edu,129.64.37.46,42.377,-71.233,United States,
nscp.umd.edu,,,,,
www.nust.edu.pk,63.223.66.78,33.6,73.1,Pakistan,http://www.nust.edu.pk
scggum.mcs.anl.gov,,,,,
www.princeton.edu,140.180.223.42,40.3446,-74.6547,United States,http://www.princeton.edu
www.gut149,NOT-SET,NOT-SET,,NOT-SET,
134.160.224.254,134.160.224.254,35.78,139.62,Japan,
24-7online.co.za,78.31.108.162,-33.92,18.42,South Africa,http://www.24-7online.co.za/speedtest/upload.php
video.triumf.ca,142.90.114.158,49.25,-123.133,Canada,
www.sdsc.edu,132.249.21.111,32.72,-117.16,United States,
ping.lucas.lu.se,130.235.92.107,59.333,18.050,Sweden,
ncp.edu.pk,202.83.167.116,33.6525,73.1579,Pakistan,http://www.ncp.edu.pk
www.aui.ma,196.12.203.30,33.5333,-5.1167,Morocco,http://www.aui.ma
www.leo.co.ls,64.57.112.1,-29.3167,27.483,Lesotho,http://www.leo.co.ls
vnnic.net.vn,203.119.8.101,21.02,105.87,Vietnam,http://www.vnnic.net.vn
www.bruneipress.com.bn,202.93.208.54,4.87,115,Brunei,http://www.bruneipress.com.bn/
hstafw.sta.go.jp,202.241.4.6,35.700,139.767,Japan,
www.sharjah.gov.ae,213.42.195.250,5.3254,55.5043,United Arab Emirates,http://www.sharjah.gov.ae
thorin.physik.uni-mainz.de,134.93.129.216,52.270,13.180,Germany,
ccjsun.riken.go.jp,134.160.229.1,35.700,139.767,Japan,
www.fsa.uac.bj,81.91.227.29,9.5,2.25,Benin,http://www.fsa.uac.bj
www.nmmu.ac.za,192.96.15.244,-33.9667,25.58,South Africa,http://www.nmmu.ac.za
phys150.pumf.ca,,,,,
uae6.ciemat.es,130.206.11.21,40.30,-3.40,Spain,
ren.eecis.udel.edu,128.4.40.17,39.68,-75.75,United States,
entsuna.phs.uc.edu,,,,,
194.67.220.105,194.67.220.105,37.94,58.39,Turkmenistan,
iepmbw.cern.ch,192.91.245.10,46.23,6.06,Switzerland,http://www.cern.ch
www.sud.fo,217.172.81.67,62.2274,-6.5756,Faroe Islands,http://www.sud.fo
pinger3.cs.waikato.ac.nz,130.217.248.30,-41.283,174.783,New Zealand,
telion.radio-msu.net,193.124.134.2,55.750,37.583,Russia,
oceanus.slac.oceanus.slac.stanford.edu,,,,,
prague.nejhost.cz,62.109.141.146,50.05,14.25,Czech Republic,http://prague.nejhost.cz/speedtest/upload.php
br1s3s4-fddi-cc.ascc.net,140.109.15.1,25.03,121.63,Taiwan,
ns1.jlab.org,192.70.245.98,37,-76,United States,
mix-serial4-0-7.washington.cw.net,204.189.152.205,35.822,-78.817,United States,
pingersonar-usm.myren.net.my,203.80.20.228,5.3569,100.3014,Malaysia,http://www.myren.net.my
www.ecc.edu.jm,72.252.249.34,17.9955,-76.7692,Jamaica,http://www.ecc.edu.jm/
pinger.fsksm.utm.my,161.139.68.188,1.5584,103.6384,Malaysia,http://www.utm.my
gate.itep.ru,193.124.225.199,55,37,Russia,
www.idc.gov.iq,164.138.239.21,33.3171,44.4146,Iraq,http://www.idc.gov.iq
www.myantel.net.mm,203.81.71.119,22,98,Myanmar,http://www.myantel.net.mm
63.203.91.14,,37.41,-122.20,,
www.most.gov.np,202.45.144.21,27.72,85.32,Nepal,http://www.most.gov.np
203.255.248.1,203.255.248.1,NOT-SET,,Korea, Rep,
www.su.edu.et,176.74.178.30,6.4161,38.2513,Ethiopia,http://www.su.edu.et
www.msec.ly,62.240.36.40,32.8762,13.1875,Libya Arab Jamahiriya,http://www.msec.ly
argus.suoregon.edu,,,,,
nevis.nevis.columbia.edu,192.12.82.3,40.849,-73.867,United States,
www.gabontelecom.ga,41.158.0.46,0.3901,9.4544,Gabon,http://www.gabontelecom.ga
www.aku.edu,66.216.97.30,24.8,67.0,Pakistan,http://www.aku.edu
lnsuni1.lns.infn.it,192.84.151.3,41.883,12.500,Italy,
www.nauss.edu.sa,212.138.117.56,24.7890,46.8624,Saudi Arabia,http://www.nauss.edu.sa/
hoodoo.lunet.edu,192.135.141.14,35.95,-97.25,United States,
br2s5p0-10bf-chem-old.ascc.net,140.109.89.1,25.03,121.63,Taiwan,
ping.slac.stanford.edu,134.79.18.21,37.41,-122.20,United States,
www.ku.edu.pk,62.200.198.6,24.85,67.03,Pakistan,
hpsst0.riken.go.jp,134.160.229.103,35.78,139.62,Japan,
www.ijsihe.ac.be,,,,,
max3.hywr01.pbi.net,209.233.207.4,37.77,-122.41,United States,
pinwheel.princeton.edu,128.112.85.251,40.35,-74.66,United States,
www.unkhair.ac.id,64.187.229.251,0.7958,127.3614,Indonesia,http://www.unkhair.ac.id
linxpc.kek.jp,130.87.57.42,36.17,140.17,Japan,
br1s8p1-10bt-cc-wr2.ascc.net,140.109.13.1,25.03,121.63,Taiwan,
speedtest.synergyworks.co.uk,193.219.118.219,51.74,1.14,United Kingdom,http://speedtest.synergyworks.co.uk
wnncp193.ncp.edu.pk,192.168.10.193,33.6525,73.1579,Pakistan,http://www.ncp.edu.pk
n2.ucc.edu.gh,80.255.50.68,5.10,-1.25,Ghana,http://www.ucc.edu.gh
rs2.pb.rsng.net,198.32.128.131,34.033,-118.233,United States,
www.univ-koudougou.bf,212.52.152.35,12.2428,-2.3969,Burkina Faso,http://www.univ-koudougou.bf
pinger2.niit.edu.pk,203.99.50.202,33.40,73.08,Pakistan,http://www.niit.edu.pk
pinger.lhr.nu.edu.pk,111.68.102.125,31.481042,74.303356,Pakistan,http://pinger.lhr.nu.edu.pk
br4s4p0-10bt-iis.ascc.net,140.109.20.1,25.03,121.63,Taiwan,
d0.fzk.de,192.108.45.11,49.09,8.39,Germany,
www.hhl.gl,194.177.224.14,65.4167,-52.9000,Greenland,http://www.hhl.gl/
scipp.ucsc140.150,NOT-SET,NOT-SET,,NOT-SET,
bovinslac.stanford.edu,,,,,
sunshine.kek.jp,130.87.105.120,36.2,140.1,Japan,
www.globalone.com.br,189.126.103.227,-15.783,-47.917,Brazil,
adsl-63-204-8-81.dsl.snfc21.pacbell.net,63.204.8.81,37.45,-122.18,United States,
sci.wfbr.edu,192.190.14.2,42.297,-71.700,United States,
svr1dx.fisica.uniud.it,158.110.40.19,46.07,13.23,Italy,
rpi.edu,,,,,
www.univ-sba.dz,193.194.79.135,35.204872,-0.621063,Algeria,http://www.univ-sba.d
www.ugm.ac.id,175.111.88.11,-7.7972,110.3688,Indonesia,http://www.ugm.ac.id
hec.gov.pk,70.84.244.199,33.7,73.2,Pakistan,
lo-0-gw.dsl.net.pk,203.82.63.254,33.67,73.13,Pakistan,
cit-gps-s.brown.edu,128.148.128.16,41.817,-71.400,United States,
lattice.act.aarnet.net.au,203.22.212.132,-35.28,149.217,Australia,
ssf1.surf.com,206.14.139.6,37.873,-122.267,United States,
miner.sminer.sdsc.edu,,,,,
www.maurifemme.mr,193.220.169.67,18.1,-15.95,Mauritania,http://www.maurifemme.mr/
ns.concentric.net,207.155.183.72,37.323,-122.017,United States,
pax-ca-pm8.netcom.net,NOT-SET,NOT-SET,,NOT-SET,
www.inpe.br,150.163.12.2,-23.18,-45.88,Brazil,
ippm.utah.edu,155.99.55.11,40.542,-111.883,United States,
www.brh.ht,186.1.195.12,18.5484,-72.3456,Haiti,http://www.brh.ht/index.html
www.facest.sld.cu,201.220.222.136,21.43,-77.67,Cuba,http://www.facest.sld.cu
www.gibmuseum.gi,85.115.130.75,36.1390,-5.3544,Gibralter,http://www.gibmuseum.gi/
dev04.hepgrid.clrc.ac.uk,130.246.200.1,51.5,-0.12,United Kingdom,
dns.vn,,,,,
www.uib.no,129.177.30.14,59.933,10.750,Norway,
www.phy.bg.ac.yu,147.91.80.3,44.500,20.290,Serbia and Montenegro,
4.15,4.0.0.15,NOT-SET,,NOT-SET,
www.sissa.it,147.122.11.14,41.883,12.500,Italy,
www.hanq.net,210.116.252.1,37.550,126.967,Korea, Rep,
argus.stanford.edu,171.64.7.115,37.428607,-122.169344,United States,
vaxmi.mi.infn.it,192.84.138.1,41.883,12.500,Italy,
ns.prl.res.in,202.160.174.2,23.00,72.65,India,
www.solomon.com.sb,202.1.169.5,-9.431,159.9483,Solomon Islands,http://www.solomon.com.sb
mail.qanet.gm,196.46.232.3,13.467,-16.567,Gambia,
vaxpia.pi.infn.it,192.135.9.64,41.883,12.500,Italy,
www.uoi.gr,195.130.120.109,39.42,20.47,Greece,http://www.uoi.gr/oldsite/main.html
www.centroin.com.br,200.225.63.214,-15.783,-47.917,Brazil,
www.cea.frde,,,,,
localhost.localsite.arpa,127.0.0.1,0,0,United States,http://www-iepm.slac.stanford.edu/pinger/
www.rl.ac.uk,130.246.135.175,51.75,-1.25,United Kingdom,
d0mino.fnal.gov,131.225.224.45,41.85,-88.31,United States,
www.fsc.gi,85.115.130.130,6.1435,-5.3583,Gibralter,http://www.fsc.gi
www.pnae.mg,41.188.38.187,-18.87,47.5,Madagascar,http://www.pnae.mg/
www.akme.kg,176.126.165.33,42.8731,74.6003,Kyrgyzstan,http://www.akme.kg
fisica.edu.uy,164.73.83.1,-34.917,-56.167,Uruguay,
ns.kornet.ne.kr,211.216.50.150,37.550,126.967,Korea, Rep,
ns1.utexassics.yale.edu,10.0.0.2,NOT-SET,,United States,
www.maxlab.lu.se,130.235.68.64,59.333,18.050,Sweden,
win17.b2web.com.ve,200.74.197.244,10.4910,-66.9021,Venezuela,
tnp.saha.ernet.in,202.41.94.71,28.617,77.217,India,
www.jtc.edu.sa,204.187.100.34,21.52,39.22,Saudi Arabia,http://www.jtc.edu.sa
hs5-1-1.ral-bar2.ja.net,193.62.23.237,51.24,1.19,England,
amp-capetown,137.158.128.205,-33.92,18.37,South Africa,
www.cyfronet.krakow.pl,149.156.2.252,50.05,19.92,Poland,
www.dgs.pt,80.172.233.33,38.7365,-9.1349,Portugal,http://www.dgs.pt/
speedtest.net.bh,193.188.112.43,25.71,50.43,Bahrain,http://speedtest.net.bh/speedtest/upload.php
ba.sanet.sk,192.108.138.12,48.200,16.550,Slovak Republic,
speedtest.munro.cc,220.157.211.156,35.26,139.38,Japan,http://speedtest.munro.cc/speedtest/upload.php
www.lndc.org.ls,41.203.190.131,-29.3632,27.5144,Lesotho,http://www.lndc.org.ls
www.utp.edu.my,203.135.191.100,4.3857,100.9793,Malaysia,http://www.utp.edu.my
hep.physics.mcgill.ca,132.206.6.88,45.5052,-73.5782,Canada,
www.tele.gl,194.177.230.16,64.1833,-51.75,Greenland,http://www.tele.gl
per-a-ext1.aarnet.net.au,202.158.195.4,-31.9559,115.8595,Australia,http://per-a-ext1.aarnet.net.au
sopee.net,104.28.22.85,51.07,17.02,Poland,http://test.sopee.net/preauth.php?x=Login
www.qou.edu,194.187.80.9,32,35.25,Palestine,http://www.qou.edu
cmuhep2.phys.cmu.edu,128.2.24.139,40.437,-80.000,United States,
ping.slac.stanford,NOT-SET,NOT-SET,,NOT-SET,
www.fid.mg,41.188.9.131,-18.9149,47.5316,Madagascar,
ns.riken.go.jp,134.160.4.5,35.700,139.767,Japan,
www.puc.cl,146.155.99.60,-33.400,-70.667,Chile,
www.adu.mr,82.151.72.2,18.087,-15.976,Mauritania,http://www.adu.mr
www.ijet.sk,,,,,
www.hut.edu.vn,202.191.57.195,21.01,105.52,Vietnam,http://www.hut.edu.vn
fys.uio.no,NOT-SET,59.933,10.750,Norway,
www.orange.cf,41.223.184.50,7,21,Central African Republic,http://www.orange.cf
speedtest.xtec.cat,213.176.161.59,41.39,2.17,Spain,http://speedtest.xtec.cat/speedtest/upload.php
m.root-servers.net,202.12.27.33,35.700,139.767,Japan,
amp-taiwan,211.79.59.248,25.04,121.09,Taiwan,
dmzmon0.deemz.net,198.49.208.10,41.85,-88.31,United States,
www.lsx.com.la,202.62.101.207,17.9667,102.6,Laos,http://www.lsx.com.la/
hephp1.ucsd.edu,132.239.69.52,32.71,-117.15,United States,
www.uab.es,158.109.0.9,40.417,-3.717,Spain,
www.mcss.sc,41.86.46.5,-4.6167,55.45,Seychelles,http://www.mcss.sc
www.ic.edu.lb,162.222.98.168,33.8333,35.8333,Lebanon,http://www.ic.edu.lb
www.alma.cl,200.2.1.13,-33.4005,-70.5998,Chile,http://www.alma.cl
www.ugb.sn,196.1.99.3,16.02,-16.51,Senegal,http://www.ugb.sn
www.weizmann.ac.il,132.77.150.57,31.783,35.233,Israel,
eltca1.epfl.ch,128.178.128.21,46.5207,6.5682,Switzerland,
ping.desy.dtu-dresden.de,,,,,
ausgamers.com,203.220.0.231,-33.7,151.2,Australia,http://www.ausgamers.com/speedtest/upload.php
www.nip.upd.edu.ph,202.92.128.1,14.62,121.00,Philippines,
www.cnic.edu.cu,200.55.153.68,21.48,-77.67,Cuba,http://www.cnic.edu.cu
www.unix-oujda.ac.ma,,,,,
weizman.ed.cr,200.91.125.71,9.86,-83.91,Costa Rica,http://www.weizman.ed.cr/Inicio.aspx
mcs.anl.gov,140.221.9.6,41.858,-88.017,United States,
nuclear.physics.sunysb.edu,129.49.30.2,40.9150,-73.1199,United States,
www.physik.rwth-aachen.de,137.226.107.63,52.270,13.180,Germany,
www.rta.mg,196.192.46.8,-18.8792,47.5079,Madagascar,http://www.rta.mg/
152.3.57.20,152.3.57.20,35.997,-78.883,United States,
ai3-sfc.jp.apan.net,203.181.248.241,37.550,126.967,Korea, Rep,
www.yuc.edu.sa,46.240.66.25,24.0165,38.2075,Saudi Arabia,http://www.yuc.edu.sa
cloud.kaist.kr.apan.net,192.249.24.20,37.550,126.967,Korea, Rep,
netops-10.stanford.edu,171.64.24.138,37,-122,United States,
gin.ebi.ac.uk,193.62.196.129,51.500,-0.167,United Kingdom,
www.knu.ac.kr,155.230.11.1,35.87,128.59,Korea, Rep,
infnge.ge.infn.it,193.206.144.14,44.40,8.80,Italy,
www.uog.ac.pg,202.1.54.1,-9.46,147.13,Papua New Guinea,
cit-gps-s.brown.edippm.cac.washington.edu,,,,,
cornell.edu,128.253.161.179,41.48,-81.68,United States,
costaricaservers.com,200.122.128.189,9.93,-84.08,Costa Rica,http://www.costaricaservers.com/speedtest/speedtest/upload.php
www.trip.com.br,200.221.8.44,-15.783,-47.917,Brazil,
db.nea.fr,193.51.64.1,48.867,2.333,France,
148.63.87.35,148.63.87.35,NOT-SET,,NOT-SET,
d1.ph.gla.ac.uk,194.36.1.167,55.90,-4.30,United Kingdom,
alfven.ap.columbia.edu,128.59.51.146,40.849,-73.867,United States,
www.africau.edu,205.209.96.96,-18.97,32.65,Zimbabwe,http://www.africau.edu
ift.unesp.br,200.145.46.100,-23.55,-46.63,Brazil,
hep03.phys.iit.edu,216.47.138.169,41.883,-87.617,United States,
www.kall.fo,80.77.128.9,62.017,-6.767,Faroe Islands,
gplhost.co.il,182.54.236.222,32.99,34.79,Israel,http://www.gplhost.co.il/speedtest/upload.php
uniandes.edu.co,,,,,,
movie.zing.vn,120.138.69.99,19.75,105.3166,Vietnam,http://movie.zing.vn
snu-sap.kr.apan.net,203.255.248.229,37.56,127,Korea, Rep,
orpheus.sc.intel.com,143.183.2.11,37.345,-121.933,United States,
www.oapburundi.bi,196.2.13.50,-3.3849,29.3774,Burundi,http://www.oapburundi.bi
uhheph.phys.hawaii.edu,128.171.11.7,21,-157,United States,
lnfnet.lnf..173.176.54,NOT-SET,NOT-SET,,NOT-SET,
www.montclairu,,,,,
www.nask.pl,193.59.201.62,52.250,21.000,Poland,
vam.dppc.gov.et,213.55.93.98,8,38,Ethiopia,http://vam.dppc.gov.et
apan-fe-tpr2.inoc.imnet.ad.jp,,,,,
ns.bensoft.com,66.39.200.92,45.45,21.13,Romania,http://speedtest.bensoft.ro/speedtest/upload.php
www.portdepapeete.pf,202.3.227.244,-17.5333,-149.5667,French Polynesia,http://www.portdepapeete.pf
www.netvalley.net,216.187.103.168,37.57,127,Korea, Rep,
www.ndu.edu.lb,66.135.34.144,34.42,35.6,Lebanon,http://www.ndu.edu.lb
triviaal.nikhef.nl,192.16.199.59,,,Netherlands,
www.adpolice.gov.ae,194.170.200.102,24.4385,54.4233,United Arab Emirates,http://www.adpolice.gov.ae
www.sdnp.org.mw,216.252.252.5,-15.9,35.16,Malawi,
www.unsoed.ac.id,103.9.22.112,-7.4314,109.2478,Indonesia,http://www.unsoed.ac.id
ift.ioffe.rssi.ru,194.85.227.212,55.750,37.583,Russia,
203.255.248.205,203.255.248.205,37.550,126.967,Korea, Rep,
morrar.sfsq.georgetown.edu,86.36.103.11,25.3178,51.4438,Qatar,http://qatar.sfs.georgetown.edu/
202.41.85.4,,,,,
www.univ-tlemcen.dz,193.194.92.53,35.54,0.53,Algeria,
www.hastingsdc.govt.nz,120.138.18.198,-39.6499,176.8350,New Zealand,http://www.welcom.net.nz
ipm03.pd.infn.it,193.206.210.5,45.40,11.90,Italy,
www.udsm.ac.tz,196.44.161.106,-6.7640,39.2707,Tanzania,http://www.udsm.ac.tz
www.brunet.bn,61.6.254.1,4.8903,114.9422,Brunei,http://www.brunet.bn
196.15.147.66,,,,,
pinger.ntc.net.pk,202.83.160.42,33.40,73.10,Pakistan,http://pinger.ntc.net.pk/cgi-bin
speedtest.hns.net.in,120.88.46.30,18.96,72.82,India,http://speedtest.hns.net.in/speedtest/upload.php
www.refer.sn,213.154.65.67,14.750,-17.3333,Senegal,
datakl.com,210.48.148.222,3.0884,101.6841,Malaysia,http://datakl.com
www.eastafricauniversity.net,79.170.44.128,11.2833,49.1667,Somalia,http://www.eastafricauniversity.net
www.iucc.ac.il,128.139.202.17,32.82,34.98,Israel,
maggie.niit.edu.pk,115.186.131.73,33.40,73.08,Pakistan,http://www.niit.edu.pk
axpia.pi.infn.it,212.189.155.16,41.883,12.500,Italy,
www.aii.edu.kh,203.217.168.41,11.5442,104.9119,Cambodia,http://www.aii.edu.kh/
www.unl.pt,193.137.110.30,38.72,-9.1396,Portugal,http://www.unl.pt
203.255.248.174,203.255.248.174,NOT-SET,,Korea, Rep,
missinglink.transpac.org,206.220.240.234,41,-87,United States,
www.columbia.edu,128.59.105.24,40.8006,-73.9653,United States,http://www.columbia.edu/
surveyor.itss.auckland.ac.nz,130.216.1.240,NOT-SET,,New Zealand,
snv1.ultralight.org,137.164.37.5,42.27,-83.72,United States,http://www.ultralight.org
ns.hanarotel.net,210.180.98.85,37.57,127,Korea, Rep,
www.eptri.com,209.197.224.36,17.37,78.43,India,
www.sajhe.org.za,163.200.147.39,-33.933,18.8663,South Africa,
nt-drwn-am1.aarnet.net.au,182.255.123.250,12.6089,130.91361,Australia,http://www.aarnet.edu.au
schuur.nikhef.nl,192.16.186.247,,,Netherlands,
fusion.naka.jaeri.go.jp,157.111.169.12,35.700,139.767,Japan,
www.vu.lt,193.219.80.2,54.683,25.317,Lithuania,
nfe-ext-ether.nrl.navy.mil,132.250.100.145,38.89,-77.04,United States,
dla1.cdf.dl.ac.uk,192.168.31.81,53,-2,United Kingdom,
www.chanco.unima.mw,193.220.46.195,-15.38,35.33,Malawi,http://www.chanco.unima.mw
cnu-tap.kr.apan.net,203.255.248.209,37.550,126.967,Korea, Rep,
nic.fb4.noaa.gov,140.90.50.22,38.848,-76.917,United States,
ns.kuins.kyoto-u.ac.jp,130.54.240.26,35.00,135.75,Japan,
kaist-sxp.kr.apan.net,203.255.248.233,NOT-SET,,NOT-SET,
www.ep.ph.bham.ac.uk,147.188.47.66,51.45,-2.58,United Kingdom,
skitter.kaist.kr.apan.net,192.249.24.30,37.550,126.967,Korea, Rep,
ping.desy.de,131.169.5.90,53.5748,9.8779,Germany,http://www.desy.de
mvxme1.me.infn.it,192.135.18.10,41.883,12.500,Italy,
kekux.kek.jp,130.87.34.2,36.08,140.25,Japan,
www.ums.edu.my,202.186.7.14,6.0366,116.1203,Malaysia,http://www.ums.edu.my
uerj.br,152.92.1.10,-22.88,-43.28,Brazil,
radius3193.62.127.17,NOT-SET,NOT-SET,,NOT-SET,
www.sta.ne,192.185.190.114,13.4885,2.1278,Niger,http://www.sta.ne/index.php/en
82.193.117.210.ipnet.kiev.ua,82.193.117.210,50.4500,30.5233,Ukraine,http://www.ipnet.kiev.ua/
www.data.com,12.130.5.36,40.270,-74.517,United States,
un.riken.go.jp,,,,,
concave.cs.wits.ac.za,146.141.27.66,-25.550,28.000,South Africa,
www.ams.ac.ir,94.184.190.5,35.6961,51.4231,Iran,http://www.ams.ac.ir
hosting.bluevision.pt,195.22.11.36,38.42,-9.11,Portugal,http://hosting.bluevision.pt/speedtest/upload.php
oceana.sdsc.edu,132.249.40.200,32.72,-117.16,United States,
www.accessallareas.ae,195.229.241.193,25.1456,55.2258,United Arab Emirates,http://www.accessallareas.ae
moondesy.de,NOT-SET,52.270,13.180,Germany,
www.ajyalalmwaheb.edu.sa,212.76.68.166,26.4258,50.1142,Saudi Arabia,http://www.ajyalalmwaheb.edu.sa
gridmon.sara.nl,145.100.20.35,52.35,4.92,Netherlands,
namal.seecs.edu.pk,121.52.153.71,32.681633,71.791660,Pakistan,https://www.namal.edu.pk/
oragon.uni.net.th,202.28.2.253,13.7591,100.531,Thailand,http://www.uni.net.th
pww.uib.no,,,,,
ftp.platform.com,192.219.104.253,43.700,79.250,Canada,
www.ysmu.am,217.113.1.238,0.1877,44.5258,Armenia,http://www.ysmu.am/
www.kdn.co.ke,196.201.229.201,-1.3104,36.829,Kenya,http://www.kdn.co.ke
www.univ-ouaga.bf,212.52.131.9,12.3788,-1.4997,Burkina Faso,http://www.univ-ouaga.bf
mon01.nren.net.np,202.52.0.3,27.77911,85.36836,Nepal,http://www.nren.net.np
www.ijs..ee,,,,,
argusbnl.gov,,,,,
rs1.pb.rsng.net,198.32.128.130,34.033,-118.233,United States,
ns1.utexas.edu,128.83.185.40,30.26,-97.74,United States,
www.mitpune.com,203.199.134.21,8.5163,73.8150,India,http://www.unipune.ac.in/
sal-gw.kaist.ac.kr,143.248.185.254,37.550,126.967,Korea, Rep,
www.uclv.edu.cu,200.55.145.10,22.4367,-79.9006,Cuba,http://www.uclv.edu.cu
isb.nayatel.com,203.82.48.3,33.7182,73.0605,Pakistan,http://isb.nayatel.com
www.lanl.gov,204.121.60.11,35.73,-105.15,United States,
socrates.ultralight.org,192.84.86.90,34.15,-118.14,United States,http://snv1.ultralight.org/node1.ultralight.org
csg-ippm.net.wisc.edu,198.150.1.22,43.07,-89.40,United States,
sanchar.ncb.ernet.in,202.141.136.156,12.97,77.58,India,http://www.eis.ernet.in/index.htm
d0az02.physics.arizona.edu,128.196.189.117,32.217,-110.967,United States,
gn.refer.org,82.206.223.82,9.5092,-13.7122,Guinea,
ccasn07.in2p3.fr,134.158.105.27,46,6,France,
gizmostuff.net,64.202.189.170,2.15,101.19,Malaysia,http://www.gizmostuff.net/speedtest/upload.php
iepm-ncp.ncp.edu.pk,124.109.34.212,33.6525,73.1579,Pakistan,http://www.ncp.edu.pk
utdallas.edu,104.16.44.54,32.99,-96.66,United States,
www.cas.ac.ls,196.202.243.133,-29.32,27.48,Lesotho,http://www.cas.ac.ls
iperf2-gig.nslabs.ufl.edu,128.227.75.71,29.65,-82.33,United States,
203.255.248.197,203.255.248.197,NOT-SET,,Korea, Rep,
cosmos.kaist.ac.kr,192.249.24.2,37.550,126.967,Korea, Rep,
www.artlib.net.tw,59.125.85.228,4.1431,120.6631,Taiwan,http://www.artlib.net.tw
207.148.158.82,207.148.158.82,51.08,-114.08,Canada,
www.umbb.dz,193.194.80.101,35.57,6.17,Algeria,
www.univ-mahajanga.mg,41.242.103.163,-16.40,46.25,Madagascar,http://www.univ-mahajanga.mg/
www.it.su.se,193.11.30.141,59.3628,18.0590,Sweden,http://www.it.su.se
GB-HOME-G.PBI.NET,216.102.95.254,37.775,-122.417,United States,
www.beltei.edu.kh,115.178.24.7,11.5478,104.9148,Cambodia,http://www.beltei.edu.kh
www.univiu.org,81.208.101.230,45.49,12.33,Italy,
ccpntc3.in2p3.fr,134.158.69.191,45.45,4.51,France,
www.knust.edu.gh,69.64.84.25,6.6776,-1.5717,Ghana,http://www.knust.edu.gh
www.asm.md,193.226.65.35,47.006,28.858,Moldova,
fnsrvsm.minos-soudan.org,198.124.213.1,NOT-SET,,United States,
186.232.60.129,186.232.60.129,-22.9035,-43.2096,Brazil,http://www.linea.gov.br
www.hep.uiuc.edu,130.126.112.171,40.11,-88.21,United States,
194.67.220.225,194.67.220.225,42.67,74.83,Kyrgyzstan,
tanetbackbone-moe.edu.tw,NOT-SET,25.000,121.400,Taiwan,
hephp1.ucsd.carleton.ca,,,,,
www.unju.edu.ar,200.45.224.18,-24.1862,-65.3001,Argentina,http://www.unju.edu.ar
gnt4.grid.man.ac.uk,193.60.157.104,53.5,-2.21,United Kingdom,
www.rnp.br,200.130.35.4,-15.783,-47.917,Brazil,
pinger.uaar.edu.pk,111.68.99.248,33.6492,73.0824,Pakistan,http://www.uaar.edu.pk/
www.cmu.edu,128.2.42.52,40.4439,-79.9561,United States,http://cmu.edu
140.109.129.1,140.109.129.1,NOT-SET,,NOT-SET,
www.polsri.ac.id,202.9.69.34,-2.9909,104.7566,Indonesia,http://www.polsri.ac.id
pingerpwr.pern.edu.pk,121.52.147.242,33.991158,71.442767,Pakistan,http://pingerpwr.pern.edu.pk/
www.ncit.edu.np,202.79.33.237,27.7,-85.21,Nepal,http://ncit.net.np/
sun.ihep.ac.cn,202.38.128.58,39.91,116.43,China,
canel4.iis.sinica.edu.tw,140.109.20.1,25.03,121.63,Taiwan,
www.utk.edu,160.36.79.164,35.9901,-83.9622,United States,http://www.utk.edu
in2p3.fr,134.158.69.48,48.867,2.333,France,
wwwg.cs.wisc.edu,NOT-SET,NOT-SET,,NOT-SET,
noc.kr.apan.net,203.255.248.51,37.57,127,Korea, Rep,
infn-garr.pi.infn.it,212.189.154.1,43.72,10.4,Italy,
gw36.hep.ph.ic.ac.uk,155.198.216.147,51.500,-0.167,United Kingdom,
www.oauife.edu.ng,82.206.239.12,7.55,4.57,Nigeria,http://www.oauife.edu.ng
ns.nasa.gov,192.203.230.10,37.323,-121.933,United States,
www.agristats.gov.na,209.88.21.55,-22.57,17.08,Namibia,http://www.agristats.gov.na
pistol.ncsl.nist.gov,129.6.100.29,39.00,-77.13,United States,
desperado.utd.rochester.edu,128.151.7.1,43.15,-77.60,United States,
www.phdk,NOT-SET,NOT-SET,,NOT-SET,
www.ntu.edu.pk,70.84.251.138,31.4,73.0,Pakistan,http://www.ntu.edu.pk
www.sci.am,93.187.162.92,40.1927,44.508,Armenia,http://www.sci.am/
dns1.ethz.,,,,,
www.nic.mr.,82.151.64.7,18.086,-15.975,Mauritania,http://www.nic.mr
ns.credis.ro,195.95.166.203,44.4351,26.0801,Romania,http://www.credis.ro
bcproxy1.ac.il,128.139.197.24,31.783,35.233,Israel,
data.com,192.215.17.39,NOT-SET,,United States,
www.umc.edu.dz,213.140.56.84,36.121,6.725,Algeria,http://www.umc.edu.dz
www.qau.edu.pk,202.83.169.195,33.7,73.2,Pakistan,http://www.qau.edu.pk
www.ucc.edu.gh,41.204.53.162,5.1035,-1.2825,Ghana,http://www.ucc.edu.gh
br5s4p0-10bf-ioe.ascc.net,140.109.128.1,25.03,121.63,Taiwan,
www.upr.ac.id,216.189.147.105,-2.2100,113.9200,Indonesia,http://www.upr.ac.id
br5s5p1-10bf-survey.ascc.net,140.109.171.1,25.03,121.63,Taiwan,
pingpuc.cl,,,,,
vanderbilt.edu,NOT-SET,36.161,-86.750,United States,
www.hz.zj.cn,122.224.80.158,30.25,120.17,China,
bcproxy.ac.il,128.139.195.19,31.783,35.233,Israel,
bislext1.hpl.external.hp.com,192.6.19.77,37.00,-122.00,United States,
www.itrc.ac.ir,80.191.2.5,35.67,51.43,Iran,http://www.itrc.ac.ir
ongkot.kmutt.ac.th,202.44.8.66,13.681,100.74,Thailand,
fw98.ht.hr,195.29.161.67,45.817,15.933,Croatia,
speedcheck.liwest.at,212.33.36.190,48.3,14.3,Austria,http://speedcheck.liwest.at/speedtest/upload.php
cernh8.cern.ch,192.65.184.8,46.23,6.06,Switzerland,
hyu-sap.kr.apan.net,203.255.248.217,37.550,126.967,Korea, Rep,
www.imamu.edu.sa,212.138.48.90,24.8136,46.7019,Saudi Arabia,http://www.imamu.edu.sa/
www-apan.au.apan.net,150.203.198.2,37.550,126.967,Korea, Rep,
147.231.26.40,147.231.26.40,50.08,14.433,Czech Republic,
www-ribf.riken.go.jp,134.160.28.77,35.700,139.767,Japan,
www.aau.edu.et,213.55.95.5,9.05,38.7,Ethiopia,http://www.aau.edu.et
80.231.23.133,80.231.23.133,10,49,Somalia,
cepheid.physedu,,,,,
www.ue.edu.ph,116.50.153.37,14.5525,121.0678,Philippines,http://www.ue.edu.ph
www.nfiu.gov.ng,193.238.30.99,9.176,7.181,Nigeria,http://www.nfiu.gov.ng
mail.neda.af,117.55.192.5,34.5,69.17,Afghanistan,http://neda.af
nukhimain.seecs.edu.pk,111.68.108.109,24.856898,67.264848,Pakistan,http://nukhimain.seecs.edu.pk
www.amharainfo.gov.et,213.55.85.226,11.608,37.3216,Ethiopia,http://www.amharainfo.gov.et
mpdr0.milwaukee.wi.ameritech.net,206.141.239.126,42.043,-88.150,United States,
www.ornl.gov,128.219.152.164,36.010,-84.250,United States,
www.nscp.umd.edu,129.2.40.171,38.99,-76.93,United States,
www.lu.lv,195.13.129.152,56.900,24.167,Latvia,
dxcnaf.cnaf.infn.it,131.154.3.1,44.50,11.33,Italy,
www.incap.org.gt,168.234.197.82,14.63,-90.37,Guatemala,
dzero.physics.lsa.umich.edu,141.211.96.24,,,United States,
noc.ilan.netnoc.ilan.net.il,,,,,
hoss.ece.rice.edu,128.42.246.165,29.834,-95.000,United States,
tnt1-1-2-5.berk.wli.net,209.150.160.67,NOT-SET,,NOT-SET,
name-server-out.rcnp.osaka-u.ac.jp,202.13.209.14,34.50,135.50,Japan,
gw37.hep.ph.ic.ac.uk,155.198.216.148,51.500,-0.167,United Kingdom,
dzero.bu.edu,128.197.41.63,42.36,-71.06,United States,
www.ebanksalaam.dj,196.201.195.44,11.5,43,Djibouti,http://www.ebanksalaam.dj
j.root-servers.net,198.41.0.10,38.970,-77.383,United States,
www.kent.edu,50.19.247.246,41.17,-81.1966,United States,http://www.kent.edu
202.13.200.2,202.13.200.2,35.700,139.767,Japan,
pinger.uet.edu.pk,111.68.102.14,31.58,74.36,Pakistan,http://pinger.uet.edu.pk
cepheid.olorado.edu,,,,,
enslapp.ens-lyon.fr,140.77.241.1,48.867,2.333,France,
www.assemblee.bi,196.2.13.50,-3.3833,29.3667,Burundi,http://www.assemblee.bi
www.agrimarket.gov.bt,202.144.151.52,27.4756,89.6087,Bhutan,http://www.agrimarket.gov.bt
surveyor.cs.brown.edu,128.148.37.2,41.817,-71.400,United States,
192.190.216.201,192.190.216.201,NOT-SET,,NOT-SET,
ns1.u2.physics.yale.edu,,,,,
ccpntc3.in2p3.frserver.net.cmu.edu,NOT-SET,40.437,-80.000,United States,
134.79.206.144,134.79.206.144,33.5,-112.1,United States,http://www.gdc4s.com
www.aalto.fi,199.83.131.222,60.1825,24.8312,Finland,http://www.aalto.fi
covad-dsl-gw.stanford.edu,171.64.6.66,37.442,-122.150,United States,
wayne.edu,141.217.1.22,42.442,-83.117,United States,
www.ut.ac.ir,217.218.33.14,35.67,51.43,Iran,
pcgiga-gbe.cern.ch,NOT-SET,46.22,6.15,Switzerland,
pktw03.phy.154.3.1,NOT-SET,NOT-SET,,NOT-SET,
192.215.116.29,192.215.116.29,NOT-SET,,NOT-SET,
zaius.pa.msu.edu,35.9.71.53,,,United States,
demoniak.ch,84.16.82.34,50.43,30.52,Switzerland,http://www.demoniak.ch/speedtest/speedtest/upload.php
www.bnl.gov,130.199.4.14,40.76,-72.90,United States,
ping.phys.hawaii.edu,128.171.30.240,21.31,-157.86,United States,
www.intercollege.ac.cy,50.17.248.109,35.15,33.35,Cyprus,http://www.intercollege.ac.cy
www.alief.dz,91.121.45.149,36.7128,3.2124,Algeria,http://www.alief.dz
www.bunda.unima.mw,193.220.46.67,-13.97,33.82,Malawi,http://www.bunda.unima.mw
pinger.iba-suk.edu.pk,121.52.154.76,27.726253,68.819397,Pakistan,http://pinger.iba-suk.edu.pk:1313/
truthc.phy.olemiss.edu,130.74.16.104,34.37,-89.52,United States,
ezmp2.ipv4.switch.ch,130.59.35.14,47.38,8.55,Switzerland,
pinger.uob.edu.pk,121.52.157.112,30.1655,66.9908,Pakistan,http://www.uob.edu.pk
129.137.128.163,129.137.128.163,39.100,-84.500,United States,
pinsuna.phs.uc.edu,,,,,
arachnophobia.mit.edu,18.69.0.27,42.365,-71.100,United States,
bbfarm04.roma1.infn.it,NOT-SET,41.88,12.5,Italy,
192.5.186.100,192.5.186.100,NOT-SET,,NOT-SET,
amp-uhyderabad,202.41.85.71,17.25,78.41,India,
www.tsc.ru,84.237.0.66,56.5,85.08,Russia,
ph211-gw.net.ic.ac.uk,155.198.211.79,51.50,-0.08,United Kingdom,
www.eri.sci.org,66.96.146.129,30.0649,31.2507,Egypt,http://www.eri.sci.org
pingne.uoregon.edu,,,,,
www.hawaii.edu,128.171.94.101,21,-157,United States,
www.dcc.uchile.cl,192.80.24.4,-33.400,-70.667,Chile,
wboson.physics.colostate.edu,129.82.140.61,40.58,-105.08,United States,
www.dsl.net.pk,203.82.48.3,33.67,73.13,Pakistan,http://www.dsl.net.pk
cithep130.ultralight.org,198.32.44.130,34.14,-118.08,United States,http://www.cacr.caltech.edu/projects/tier2-support/
pajek.net,91.185.196.161,46.03,14.3,Slovenia,http://pajek.net/speedtest/speedtest/upload.php
www.ameslab.gov,147.155.12.13,42.032,-93.617,United States,
nevis1.columbia.edu,192.12.82.3,40.849,-73.867,United States,
www.esmt.sn,213.154.80.147,14.7253,-17.4647,Senegal,
ping.isnic.is,193.4.58.91,64.15,-21.97,Iceland,
www.zu.ac.ae,195.229.146.76,24.47,54.37,United Arab Emirates,http://www.zu.ac.ae/
www.nikhef.nl,192.16.199.160,52.350,4.900,Netherlands,
www.universitycollegeshahputra.edu.my,199.27.134.51,3.7634,103.2202,Malaysia,http://www.universitycollegeshahputra.edu.my
www.biu.ac.il,132.70.60.68,32.07,34.8,Israel,
63.193.232.86,63.193.232.86,NOT-SET,,NOT-SET,
ntc.net.pk,202.83.160.58,,,,
speedtest.ivory.azstarnet.az,89.147.255.10,40.4,49.88,Azerbaijan,http://speedtest.ivory.azstarnet.az/upload.php
www.seypoly.edu.sc,41.86.46.5,-4.7408,55.5081,Seychelles,http://www.seypoly.edu.sc/
brunsvigia.tenet.ac.za,196.21.99.222,-33.92,18.42,South Africa,http://www.tenet.ac.za/
atgrid.grid.umich.edu,141.211.43.109,42.27,-83.73,United States,
multivacphysics.utoronto.ca,,,,,
www.udes.edu.co,190.90.164.17,6.2695,-75.5659,Colombia,http://www.udes.edu.co
scipum.mcs.anl.gov,,,,,
pinger.es.net,198.129.252.204,37.873,-122.267,United States,http://www.es.net
dns2.gtelecom.gw,195.8.14.243,11.85,-15.583,Guinea-Bissau,
www.douanes.ci,213.136.105.197,8,-5,Ivory Coast,http://www.douanes.ci
www.bta.org.bw,213.193.45.165,-24.71,25.9,Botswana,http://www.bta.org.bw
www.uas.alaska.edu,137.229.218.103,58.3838,-134.6410,United States,http://www.uas.alaska.edu
www.tarumanagara.ac.id,202.146.254.77,-6.2115,106.8452,Indonesia,http://www.tarumanagara.ac.id
silas-1.cc.monash.edu.au,130.194.1.91,-35.250,149.133,Australia,
obara.gw.tohoku.ac.jp,130.34.11.123,41.400,141.700,Japan,
do-gw1.do.net.dtag.de,194.25.122.158,52.270,13.180,Germany,
pktw03.phy.tu-dresden.de,141.30.85.13,51.03,13.75,Germany,
speedtest.sliced.net,195.228.155.45,47.3,18.94,Hungary,http://speedtest.sliced.net/speedtest/upload.php
www.iso.bf,91.121.10.194,12.33,-2.33,Burkina Faso,http://www.iso.bf
www.unesp.br,200.145.6.90,-23.5614,-46.7308,Brazil,http://www.unesp.br
www.afyamzuri.org.zm,196.46.124.19,-15.8667,27.7667,Zambia,http://www.afyamzuri.org.zm
www.iust.edu.sy,213.178.251.51,33.0721,36.1769,Syria,http://www.iust.edu.sy
www.eng.bellsouth.net,205.152.6.78,33.00,-84.00,United States,
www.natmus.cul.na,196.20.25.130,-22.57,17.1,Namibia,http://www.natmus.cul.na
vaxpr.pr.infn.it,192.135.11.30,41.883,12.500,Italy,
www.jhu.edu,23.221.127.217,39.3288,-76.5967,United States,http://www.jhu.edu
pinger.unimas.my,49.50.236.98,1.4653,110.4274,Malaysia,http://www.unimas.my
tg.refer.org,41.207.188.10,6.17,1.35,Togo,http://tg.refer.org
216.59.82.1,216.59.82.1,35.822,-78.817,United States,
dunker-clued0.fnal.gov,131.225.226.162,,,United States,
speedtest.tsl.gr,147.52.82.46,35.2,25.8,Greece,http://speedtest.tsl.gr/speedtest/upload.php
www.lu.se,130.235.128.120,59.333,18.050,Sweden,
www.gsu.edu,104.130.251.77,29.4889,-98.3987,United States,http://www.gsu.edu
sj-a1-cisco.scruz.net,165.227.2.71,36.97,-122.02,United States,
128.141.200.6,128.141.200.6,46.22,6.15,Switzerland,
rnc.ro,193.230.31.220,44.450,26.167,Romania,
info.fuw.edu.pl,151.80.132.163,52.250,21.000,Poland,
www.unikl.edu.my,113.23.141.10,3.1143,101.6617,Malaysia,http://www.unikl.edu.my
axccl1.bo.infn.it,131.154.11.102,41.883,12.500,Italy,
www.umn.ac.id,123.231.236.229,-6.1783,106.6319,Indonesia,http://www.umn.ac.id
d0w.physik.uni-wuppertal.de,132.195.104.37,,,Germany,
www.etyk.org.cy,194.30.133.112,35.1660,33.3585,Cyprus,http://www.etyk.org.cy
www.anor.cm,195.24.207.182,3.8964,11.5073,Cameroon,http://www.anor.cm
wwwweast2.usec.sun.com,NOT-SET,37.388,-122.067,United States,
noc.ilan.net.il,128.139.252.3,31.783,35.233,Israel,
tkysun.phys.s.u-tokyo.ac.jp,133.11.1.21,35.68,139.73,Japan,
yalph2.physidu,,,,,
ipm.mib.infn.it,193.206.156.253,41.88,12.5,Italy,
www.cmsf.cv,213.150.196.36,14.8958,-24.495,Cape Verde,http://www.cmsf.cv
www.aic.ac.nz,114.23.126.166,-36.8556,174.7651,New Zealand,http://www.aic.ac.nz
www.doe.gov,205.254.147.254,38.90,-77.04,United States,
speedtest.hellokitty.vg,61.195.68.44,35.69,139.75,Japan,http://karuizawa.hellokitty.vg
www.epa.gov,,,,,
unix.savba.sh,,,,,
lhr.comsats.net.pk,210.56.16.10,24.700,67.00,Pakistan,
www.samarinda.org,202.158.74.3,-0.5,117.15,Indonesia,
ipwt.pa-x.dec.com,204.123.8.3,37.00,-122.00,United States,
lns62cs.er.doe.gov,,,,,
www.hokudai.ac.jp,133.87.1.200,43.0714,141.3469,Japan,http://www.hokudai.ac.jp
users.sdsc.edu,132.249.20.57,32.8831,-117.238,United States,http://www.sdsc.edu
www.umich.mx,148.216.1.17,19.67,-101.18,Mexico,
www.tvcabo.co.ao,196.202.252.54,-8.8368,13.2332,Angola,http://www.tvcabo.co.ao
hpssmon.riken.go.jp,134.160.229.129,35.78,139.62,Japan,
www.stmaryuniversitycollege.edu.et,213.55.83.210,9.0227,38.7468,Ethiopia,http://www.stmaryuniversitycollege.edu.et
www.ceaki.kfki.hu,0.0.0.0,NOT-SET,,Hungary,
www.natconsumercredit.gov.ng,212.100.64.9,9.1758,7.1808,Nigeria,http://www.natconsumercredit.gov.ng
www.ncp.edu.pk,202.83.173.74,33.6525,73.1579,Pakistan,http://www.ncp.edu.pk
www.in2p3.fr,134.158.69.48,48.867,2.333,France,
www.acet.or.tz,41.220.180.1,-6.8,39.28,Tanzania,http://www.acet.or.tz
www.dolphinics.no,193.71.152.218,59.933,10.750,Norway,
yalp150.physics.colostate.edu,,,,,
probe36.mot.com,136.182.1.101,33.488,-111.917,United States,
speedtest.vectoral.info,89.149.224.59,50.7,8.41,Germany,http://speedtest.vectoral.info/speedtest/upload.php
hpl2cmu1.cern.ch,,,,,
mbl.dsl.net.pk,203.82.48.234,33.67,73.13,Pakistan,
www.case.edu,129.22.12.21,41.5074,-81.6053,United States,http://www.case.edu
www.stmarycollege.edu.et,213.55.83.210,8,38,Ethiopia,http://www.stmarycollege.edu.et
www.zcuniversity.edu.zm,184.168.27.47,-12.8382,28.0856,Zambia,http://www.zcuniversity.edu.zm
lapphp0.in2p3.fr,192.70.68.22,48.867,2.333,France,
www.unicomer.deusto.es,130.206.135.135,43.3,-2.9,Spain,http://www.unicomer.deusto.es
132.204.64.28,132.204.64.28,45.50,-73.60,Canada,
rs1.aads.rsng.net,198.32.130.130,34.033,-118.233,United States,
www.ab.kg,213.145.129.23,42.8731,74.6003,Kyrgyzstan,http://www.ab.kg
www.unikin.cd,185.27.248.42,-4.4194,15.3097,Democratic Republic of Congo,http://www.unikin.cd
gppnm06.gridpp.rl.ac.uk,130.246.187.145,51.75,-1.25,United Kingdom,
uhmanoa-tp.ps.uhnet.net,132.160.6.178,21.29973,-157.815471,United States,http://uhmanoa-tp.ps.uhnet.net
www.sohag-univ.edu.eg,103.227.46.15,26.5516,31.6920,Egypt,http://www.sohag-univ.edu.eg
ping.if.usp.br,143.107.128.16,-23.55,-46.63,Brazil,
hpssd0.riken.go.jp,134.160.229.101,35.78,139.62,Japan,
moon.atomki.hu,193.6.176.20,47.50,21.62,Hungary,
heppc1.phy.uic.edu,131.193.191.188,41.883,-87.617,United States,
yaltivac.sdsc.edu,,,,,
www.cici.edu.kh,66.147.244.217,11.5713,104.8967,Cambodia,http://www.cici.edu.kh/
www.cesc.pf,202.3.245.31,-17.5451,-149.5693,French Polynesia,http://www.cesc.pf
hobbes.mib.infn.it,193.206.156.251,45,9,Italy,
www.desy.de,131.169.30.61,53.53,9.98,Germany,
fnal.fnal.gov,131.225.111.1,41.85,-88.31,United States,
www.elibrary.com.mm,203.81.72.157,16.783,96.1667,Myanmar,http://www.elibrary.com.mm
asoju.oauife.edu.ng,63.100.199.60,7.55,4.57,Nigeria,
ping.rmki.kfki.hu,148.6.176.200,47.500,19.083,Hungary,http://www.rmki.kfki.hu
pip505.cithep.caltech.edu,,,,,
www.upesh.com,64.20.33.131,34.0,71.5,Pakistan,http://www.upesh.com
www.artp.tg,41.207.190.74,6.11667,1.21667,Togo,http://www.artp.tg
statmach5.es.net,198.128.2.45,38,-122,United States,
ns.dns.br,200.160.0.5,-15.783,-47.917,Brazil,
148.71.113.190,148.71.113.190,NOT-SET,,NOT-SET,
dns1.ethz.ch,129.132.98.12,47.37,8.53,Switzerland,
anl.gov,NOT-SET,41.858,-88.017,United States,
ccali.in2p3.fr,134.158.240.157,48.44,2.10,France,
caps10.phys.latech.edu,138.47.37.79,32.52,-92.64,United States,
www.mmcert.org.mm,203.81.81.251,16.80,96.15,Myanmar,http://www.mmcert.org.mm
ccsvsn04.in2p3.fr,134.158.104.199,45.75,4.85,France,
ccp.si,194.249.1.39,46.05,14.5,Slovenia,http://www.ccp.si
heptel.rl.ac.uk,193.63.181.6,51.75,-1.25,United Kingdom,
phyerprise.phys.vt.edu,,,,,
ipwt.westgroup.com,163.231.230.29,44.81,-93.14,United States,
elecrisc.ing.ucv.ve,150.185.86.10,10.54,-66.93,Venezuela,
ns1.lbl.gov,128.3.34.186,37.873,-122.267,United States,
fnsimu1.fnal.gov,131.225.110.19,41.85,-88.31,United States,
www.ciim.ac.cy,213.169.137.34,35.15,33.35,Cyprus,http://www.ciim.ac.cy
ping.bnl.gov,130.199.5.29,40.76,-72.90,United States,
www.uct.ac.za,137.158.128.7,-33.55,18.22,South Africa,
www.gips.ac.bw,174.122.127.162,-24.646,25.9119,Botswana,http://www.gips.ac.bw
pinger.kohat.edu.pk,121.52.146.180,33.521825,71.446622,Pakistan,http://pinger.kohat.edu.pk/
dad.finance.gov.mv,202.1.197.237,4.16,73.50,Maldives,http://dad.finance.gov.mv
www.inafocam.edu.do,173.201.92.1,18.4559,-69.9401,Dominican Republic,http://www.inafocam.edu.do
sarka.fzu.cz,147.231.26.40,50.08,14.43,Czech Republic,
zz.nullwave.ru,217.70.119.254,55.04,82.93,Russia,http://zz.nullwave.ru/speedtest/upload.php
www.dis.edu.bd,203.190.11.3,23.7470,90.3716,Bangladesh,http://www.dis.edu.bd/
ns.yahoo.com,66.218.71.63,37.345,-121.933,United States,
cgi.cs.wisc.edu,198.133.224.11,43.070,-89.383,United States,
www.slc.dz,81.52.165.36,36.753520,3.025309,Algeria,http://www.slc.dz
enterprisisc.edu,,,,,
www.hanyang.ac.kr,166.104.177.24,37.550,126.967,Korea, Rep,
www.epfl.ch,128.178.50.12,46.5207,6.5682,Switzerland,http://www.epfl.ch
namunu.learn.ac.lk,192.248.1.161,6.94,79.85,Sri Lanka,http://namunu.learn.ac.lk
www-unix.mcs.anl.gov,140.221.9.85,41.858,-88.017,United States,
kinnaird.seecs.edu.pk,111.68.105.183,31.537206,74.340678,Pakistan,http://kinnaird.seecs.edu.pk
www.rtu.lv,213.175.89.169,56.95,24.1,Latvia,http://www.rtu.lv
kaist-tap.kr.apan.net,203.255.248.233,37.550,126.967,Korea, Rep,
pinger.cse.ust.hk,143.89.41.37,22.3361,114.2649,China,http://www.cse.ust.hk/
ns.netsgo.com,210.115.125.37,37.550,126.967,Korea, Rep,
www.uapa.edu.do,209.200.242.240,18.4496,-65.951,Dominican Republic,http://www.uapa.edu.do
www.achimota.edu.gh,193.194.185.25,5.5557,-0.1963,Ghana,http://www.achimota.edu.gh
www.uzsci.net,83.69.129.8,41.32,69.3,Uzbekistan,http://www.uzsci.net
www.scphys.kyoto-u.ac.jp,,,,,
infnsun.aquila.infn.it,192.84.154.30,41.883,12.500,Italy,
osfserver.le.infn.it,192.84.152.11,41.883,12.500,Italy,
www.customs.gov.tt,190.213.6.155,10.65,-61.5167,Trinidad and Tobago,http://www.customs.gov.tt
antenna.cs.nps.navy.mil,131.120.7.215,38.82,-77.01,United States,
www.linea.gov.br,146.134.17.37,-22.9035,-43.2096,Brazil,http://www.linea.gov.br
www.aec.mk,195.26.152.200,42,21.43,Macedonia,http://www.aec.mk
www.unerg.edu.ve,63.246.132.10,10.2,-67.9,Venezuela,http://www.unerg.edu.ve
bislextl.hpl.external.hp.com,NOT-SET,NOT-SET,,NOT-SET,
uob.edu.pk,202.83.165.202,30.25,67,Pakistan,http://uob.edu.pk
sknbi.dk,NOT-SET,NOT-SET,,NOT-SET,
ppc.papnet.cl,200.49.23.130,-38.45,-72.4,Chile,http://ppc.papnet.cl/speedtest/upload.php
www.iitk.ac.in,203.200.95.142,26.47,80.35,India,http://www.iitk.ac.in
www.cnepd.edu.dz,193.194.64.71,36.8,3.051,Algeria,http://www.cnepd.edu.dz
www.college.edu.sn,196.1.94.92,14.6707,-17.4381,Senegal,http://www.college.edu.sn
www.slac.stanford.edu,134.79.197.200,37.41,-122.20,United States,
dcc.uchile.cl,,,,,
bnl-nyc.es.net,134.55.208.50,NOT-SET,,United States,
www.cecs.cl,200.9.156.130,-33.400,-70.667,Chile,
140.109.64.1,140.109.64.1,NOT-SET,,NOT-SET,
ipwt.dir.,,,,,
lhc-opn-mon-fzk.gridka.de,192.108.47.28,53.65,12.8,Germany,http://www.fzk.de/fzk/idcplg?IdcService=FZK
niobe.ncsa.uiuc.edu,141.142.36.38,40.11,-88.21,United States,
om16.omantel.net.om,212.72.1.186,23.59,58.58,Oman,
uoregon.edu,128.223.142.244,44.05,-123.09,United States,
fisica.usac.edu.gt,168.234.75.209,14.6248,-90.5328,Guatemala,http://www.usac.edu.gt
ping.cs.wisc.es.colostate.edu,,,,,
speedtest.sahara.com.sa,212.76.68.93,26.58,50.03,Saudi Arabia,http://speedtest.sahara.com.sa/speedtest/upload.asp
www.conare.ac.cr,163.178.80.50,9.98,-84.07,Costa Rica,http://www.conare.ac.cr
www.cuc.ac.cr,190.112.221.83,9.8616,-83.9258,Costa Rica,http://www.cuc.ac.cr
lattice.nt.aarnet.net.au,203.28.79.38,-12.47,130.83,Australia,
www.altavista.digital.com,NOT-SET,NOT-SET,,NOT-SET,
calamari.gatech.edu,130.207.244.56,33.75,-84.39,United States,
www.eafit.edu.co,200.12.180.27,6.2017,-75.5766,Colombia,http://www.eafit.edu.co
www.arions.lv,85.15.218.6,57.25,21.32,Latvia,http://www.arions.lv/speedtest/upload.php
www.aazimbabwe.co.zw,193.88.249.22,-17.818,31.045,Zimbabwe,http://www.aazimbabwe.co.zw
80.231.23.247,80.231.23.247,10,49,Somalia,
www.numl.edu.pk,111.68.97.117,33.66724,73.05066,Pakistan,http://www.numl.edu.pk
ping.slac.stanforu,,,,,
202.249.47.9,202.249.47.9,NOT-SET,,NOT-SET,
www.rsu.ac.th,110.164.128.228,14.0167,100.73,Thailand,http://www.rsu.ac.th
www.urcabahamas.bs,208.87.34.100,25.0746,-77.3194,Bahamas,http://www.urcabahamas.bs
speedtest.adslthailand.com,115.178.60.135,13.75,100.52,Thailand,http://speedtest.adslthailand.com/speedtest/upload.php
www.uac.bj,196.192.16.5,6.4410,2.3527,Benin,http://www.uac.bj
www.upsi.edu.my,202.47.171.108,3.6852,101.5251,Malaysia,http://www.upsi.edu.my
aidabg.net,195.24.54.2,41.36,25.64,Bulgaria,http://www.aidabg.net/speedtest/speedtest/upload.php
iastate.edu,129.186.1.99,42.032,-93.617,United States,
speedtest-2.internode.on.net,203.26.94.189,-34.93,138.6,Australia,http://speedtest-2.internode.on.net/speedtest/upload.php
www.centralbank.org.ls,196.202.244.98,-15.10,12.09,Lesotho,http://www.centralbank.org.ls
surveyor.cis.upenn.edu,158.130.12.174,39.95,-75.15,United States,
www.es.net,198.128.3.112,37.873,-122.267,United States,
pdg.lbl.gov,131.243.48.146,37.87,-122.29,United States,
217.117.4.8,217.117.4.8,7.55,4.57,Nigeria,
dhcp-nebula-124-66.slac.stanford.edu,134.79.124.66,37.418,-122.203,United States,http://www.slac.stanford.edu
raman.physics.ucla.edu,128.97.23.117,34.058,-118.250,United States,
pinger.giki.edu.pk,121.52.146.230,34.06904,72.64333,Pakistan,http://pinger.giki.edu.pk
webmail.izi.re,80.69.213.134,-20.87,55.47,Reunion-French Colony,https://webmail.izi.re
www.ccs.ornl.gov,134.167.16.23,36.010,-84.250,United States,
84.54.21.148,84.54.21.148,6.2919,-10.7947,Liberia,http://www.universityliberia.org
physuna.phs.nford.edu,NOT-SET,NOT-SET,,United States,
ping.cs.wi.phys.vt.edu,,,,,
140.109.174.1,140.109.174.1,NOT-SET,,NOT-SET,
www.kku.edu.sa,212.26.68.5,18.22,42.5,Saudi Arabia,http://www.kku.edu.sa
www.unib.ac.id,180.250.28.36,-3.7921,102.2620,Indonesia,http://www.unib.ac.id
www.andina.com.pe,190.102.133.195,-7.8281,-74.8236,Peru,
ns1.gov.sc,202.72.100.170,-4.583,55.667,Seychelles,
speed.unidata.it,194.183.16.174,41.45,12.3,Italy,http://speed.unidata.it/speedtest/upload.php
www.zipmail.com.br,200.221.8.45,-15.783,-47.917,Brazil,
www.iua.edu.sd,41.67.44.12,15.5309,32.5677,Sudan,http://www.iua.edu.sd
www.bankofbotswana.bw,83.143.28.88,-24.6570,25.9119,Botswana,http://www.bankofbotswana.bw
www.tohoku.ac.jp,130.34.15.80,38.2497,140.8773,Japan,http://www.tohoku.ac.jp/english/
ns1.pi.infn.it,212.189.152.2,41.883,12.500,Italy,
140.109.114.254,140.109.114.254,0,0,,
www.granma.cu,190.92.127.13,23.1193,-82.3849,Cuba,http://www.granma.cu/
www.dicko.com.gn,82.206.222.21,9.509,-13.71,Guinea,http://www.dicko.com.gn
140.109.19.1,140.109.19.1,25.000,121.400,Taiwan,
hephp1.rl.ac.uk,130.246.44.4,51.75,-1.25,United Kingdom,
202.83.160.42,202.83.160.42,33.40,73.10,Pakistan,http://202.83.160.42
www.scl.ameslab.gov,147.155.137.28,42.032,-93.617,United States,
riesling.caida.org,192.172.226.24,32.85,-117.27,United States,
speedtest.bensoft.ro,195.49.249.195,45.45,21.13,Romania,http://speedtest.bensoft.ro/speedtest/upload.php
mail.alex.edu.eg,67.215.65.132,31.2106,29.9131,Egypt,http://www.alex.edu.eg
pinger3.cki.hu,,,,,
df.uba.ar,157.92.23.1,-34.00,-58.5,Argentina,
speedtest.bitcom.com.br,187.63.191.2,-28.91,-51.61,Brazil,http://speedtest.bitcom.com.br/speedtest/upload.php
elearning.braeburn.ac.ke,196.200.30.12,-1.28,36.81,Kenya,http://elearning.braeburn.ac.ke
www.noclibya.com.ly,80.76.216.10,32.8863,13.1891,Libya Arab Jamahiriya,http://www.noclibya.com.ly
192.12.65.65,192.12.65.65,NOT-SET,,NOT-SET,
iepmbw.bnl.org,192.203.218.61,40.76,72.90,United States,
speedtest.citylink.co.nz,202.7.6.11,-41.17,174.46,New Zealand,http://speedtest.citylink.co.nz/speedtest/upload.php
www.sabah.com.my,27.0.4.20,5.9832,116.0666,Malaysia,http://www.sabah.com.my
speedtest.servihosting.es,84.232.1.9,38.28,0.47,Spain,http://speedtest.servihosting.es/speedtest/upload.php
harmony.center.osaka-u.ac.jp,133.1.8.193,34.50,135.50,Japan,
hep505.cithep.caltech.edu,131.215.126.149,34.15,-118.14,United States,
www.icarnet.hr,,,,,
ftp.physics.clnfnet.lnf.infn.it,NOT-SET,NOT-SET,,NOT-SET,
pinger.cern.ch,192.91.244.6,46.232496,6.045914,Switzerland,http://www.cern.ch
lns62.lns.uc.edu,,,,,
www.icsaddis.edu.et,213.55.84.125,8,38,Ethiopia,http://www.icsaddis.edu.et
www.unsrat.ac.id,180.250.208.56,1.4917,124.8428,Indonesia,http://www.unsrat.ac.id
gw34.hep.ph.ic.ac.uk,155.198.216.145,51.500,-0.167,United Kingdom,
www.gov.bw,168.167.134.24,-24.6464,25.9119,Botswana,http://www.gov.bw/
193.206.84.12,193.206.84.12,41.883,12.500,Italy,
www.ecnu.edu.cn,202.120.88.9,31.23,121.47,China,http://www.ecnu.edu.cn
ns1.utexas.e4.118.51,NOT-SET,30.26,-97.74,United States,
www.fis.cinvestav.mx,148.247.8.11,19.400,-99.150,Mexico,
lanl-gw.lanl.gov,192.16.1.1,35.73,-105.15,United States,
raiden.micnet.com.br,200.252.204.9,-16.28,-54.38,Brazil,http://raiden.micnet.com.br/speedtest/upload.php
br6s3s4-fddi-cc.ascc.net,140.109.15.6,25.03,121.63,Taiwan,
www.ucam.ac.ma,212.217.51.4,31.82,-8,Morocco,
qmserver.genetics.utah.edu,155.100.231.12,40.542,-111.883,United States,
lns62.lnno,,,,,
www.ladiscusion.cl,164.77.201.51,-33.5933,-71.6217,Chile,http://www.ladiscusion.cl
www.afe.mr,82.151.64.110,18.08,-15.97,Mauritania,http://www.afe.mr
80.231.23.77,80.231.23.77,10,49,Somalia,
www.nomad.mu,216.146.38.125,-20.1856,57.477,Mauritius,http://www.nomad.mu
9.254,NOT-SET,NOT-SET,,NOT-SET,
www.dur.ac.uk,129.234.4.26,51.500,-0.167,United Kingdom,
pizephysics.carleton.ca,,,,,
pc52.hep.ucl.ac.uk,128.40.4.152,51.5,-0.12,United Kingdom,
denise.sgowdy.org,171.66.152.51,NOT-SET,,United States,
140.109.160.1,140.109.160.1,NOT-SET,,NOT-SET,
www.ucci.org.ua,195.64.255.34,50.4,30.5,Ukraine,http://www.ucci.org.ua
pinguino.cs.wisc.edu,128.105.166.46,43.070,-89.383,United States,
www.ub.tg,41.207.188.27,6.1457,1.2034,Togo,http://www.ub.tg
net100.lbl.gov,131.243.2.93,37.87,-122.27,United States,
netmon.physics.carleton.ca,134.117.14.93,45.42,-75.70,Canada,http://www.carleton.ca/
sarcee.phys.ualberta.ca,129.128.7.65,53.528,-113.526,Canada,
nic.es.net,NOT-SET,37.873,-122.267,United States,
radius5.212.55,NOT-SET,NOT-SET,,NOT-SET,
www.sunysb.edu,129.49.2.176,40.9150,-73.1199,United States,
rockvax.rockefeller.edu,129.85.1.21,40.849,-73.867,United States,
maui.ccd.bnl.gov,130.199.6.30,40.76,-72.90,United States,
sgiserv.rmki.k.hu,NOT-SET,47.500,19.083,Hungary,
www.aisha.ac.zm,196.12.12.67,-15.417,28.283,Zambia,http://www.aisha.ac.zm
140.105.28.27,140.105.28.27,45.65,13.78,Italy,http://www.itcp.it
stargrid01.rcf.bnl.gov,130.199.6.111,40.78,-72.92,United States,
startap-tpr.jp.apan.net,203.181.248.241,35.75,139.50,Japan,
axpze1.pd.infn.it,192.84.143.101,45.40,11.90,Italy,
apan.net,,,,,
male.dhivehinet.net.mv,202.1.203.18,4.1,73.3,Maldives,http://male.dhivehinet.net.mv/speedtest/upload.php
pkt.uib.no,,,,,
www.edls.edu.bs,205.186.183.236,25.0600,-77.3450,Bahamas,http://www.edls.edu.bs
br6s7p1-10bt-admbuilding.ascc.net,140.109.192.1,25.03,121.63,Taiwan,
www.alaska.edu,137.229.3.147,64.847,-147.717,United States,http://www.alaska.edu
www.centroazzurro.sm,185.21.118.31,43.9694,12.4799,San Marino,http://www.centroazzurro.sm/
www.tfanus.com.er,196.200.97.1,5.3324,38.9262,Eritrea,http://www.tfanus.com.er
www.argon.com.tr,77.92.143.41,41.0053,28.977,Turkey,
www.sun.com,192.9.49.33,37.388,-122.067,United States,
www.afriregister.bi,196.2.8.101,-3.5,30,Burundi,
www.impots.gov.cm,195.24.203.48,3.9,11.5,Cameroon,http://www.impots.gov.cm
buproxy.ac.il,128.139.197.25,31.783,35.233,Israel,
cisco-g4-0-0.oak.mindspring.net,209.86.81.129,37.80,-122.27,United States,
www.kokotalk.sc,196.1.120.131,-4.6167,55.45,Seychelles,http://www.kokotalk.sc
59.165.131.15.man-static.vsnl.net.in,59.165.131.15,18.98,72.83,India,http://www.vsnl.net.in
www.uew.edu.gh,41.74.91.129,5.3375,-0.6255,Ghana,http://www.uew.edu.gh
www.kfmc.med.sa,193.37.143.55,24.6880,46.7224,Saudi Arabia,http://www.kfmc.med.sa
www.rcnp.osaka-u.ac.jp,202.13.207.47,34.50,135.50,Japan,
pinger.khu.ac.kr,163.180.118.68,37.2397,127.084,Korea, Rep,http://networking.khu.ac.kr
jlabs1.cebaf.gov,129.57.34.20,37,-76,United States,
www.celcom.com.my,203.82.70.248,3.11241,101.657,Malaysia,http://www.celcom.com.my
phys15a.phs.uc.edu,,,,,
www.ecu.edu,150.216.243.60,35.5235,-77.3008,United States,http://www.ecu.edu
sarka.fzpt,,,,,
www.ui.edu.ng,69.33.174.209,7.38,3.93,Nigeria,http://www.ui.edu.ng
ping.unesp.br,200.145.0.41,-23.55,-46.63,Brazil,http://www.usp.br/internacional/home.php?idioma=en
www.umt.edu.my,58.26.189.68,5.4053,103.0877,Malaysia,http://www.umt.edu.my
surf.sno.laurentian.ca,142.51.70.5,43.650,-79.333,Canada,
www.itp.ac.cn,159.226.161.124,39.55,116.42,China,
www.cgg.gov.in,196.12.55.10,17.37,78.43,India,http://www.cgg.gov.in
ns1.cebaf.gov,129.57.32.100,36.977,-76.417,United States,
access1-s4-0-4-1.au1.concert.net,166.49.150.81,33.763,-84.317,United States,
monitor.scarlet.an,190.2.128.86,12.7,-68.56,Netherlands Antilles,http://monitor.scarlet.an/speedtest/speedtest/upload.php
www.afribone.net.gn,41.77.187.10,9.5370,-13.6785,Guinea,http://www.afribone.net.gn
bsdi2-de1.ai3.net,202.249.47.19,35.700,139.767,Japan,
ihep.ac.cn,202.38.128.6,39.93,116.4,China,
moon.225.212.55,NOT-SET,NOT-SET,,NOT-SET,
www.abu.edu.ng,196.220.67.54,11.1526,7.6500,Nigeria,http://www.abu.edu.ng/
cpt.univ-mrs.fr,139.124.7.110,48.867,2.333,France,
adl-a-ext1.aarnet.net.au,202.158.195.68,-34.9233,138.5892,Australia,http://www.aarnet.edu.au
quest.seecs.edu.pk,121.52.154.108,26.235942,68.390089,Pakistan,http://quest.seecs.edu.pk
www.ucan.edu,41.223.42.214,-8.917,13.167,Angola,http://www.ucan.edu
pingerisl-fjwu.pern.edu.pk,111.68.106.250,33.585848,73.064719,Pakistan,http://pingerisl-fjwu.pern.edu.pk/
140.109.175.1,140.109.175.1,NOT-SET,,NOT-SET,
www.ihep.ac.cn,202.38.128.8,39.92,116.43,China,
www.ed.ac.uk,129.215.228.101,55.9477,-3.1867,United Kingdom,http://www.ed.ac.uk
br5s5p0-10bt-ihp.ascc.net,140.109.138.1,25.03,121.63,Taiwan,
www.bonesha.bi,196.2.12.32,-3.3762,29.3593,Burundi,http://www.bonesha.bi/
www.cambridge.edu.jo,80.90.160.133,31.9494,35.9329,Jordan,http://www.cambridge.edu.jo
speed.airnet.net.nz,202.137.240.186,-39.29,176.55,New Zealand,http://speed.airnet.net.nz/ookla/speedtest/upload.php
www.uob.edu.pk,121.52.157.105,30.1658,66.9908,Pakistan,http://www.uob.edu.pk
www.unud.ac.id,103.29.196.229,-8.6563,115.2221,Indonesia,http://www.unud.ac.id
uclv12.uclv.edu.cu,200.55.145.12,22.41,-79.97,Cuba,
nuisb.seecs.edu.pk,111.68.96.89,33.655387,73.015437,Pakistan,http://nuisb.seecs.edu.pk
vtinte.phys.vt.edu,NOT-SET,37.23,-80.43,United States,
www.ucbp.com.et,213.55.84.57,9.0,38.8,Ethiopia,http://www.ucbp.com.et
utkvm1.utk.edu,160.36.178.69,35.96,-83.91,United States,
www.inp.kz,92.46.47.15,50.4,80.23,Kazakhstan,http://www.inp.kz
www.uonbi.ac.ke,62.56.157.11,-1.28,36.8162,Kenya,
www.ill.fr,193.49.43.124,48.867,2.333,France,
www.unitec.edu,200.107.212.133,15.43,-88.02,Honduras,
pinger.ictp.it,140.105.28.117,45.70749,13.716527,Italy,http://www.ictp.it
www.cgr.gob.ni,190.184.95.4,12.1508,-86.2683,Nicaragua,http://www.cgr.gob.ni
waikato.ac.nz,,,,,
www-hep.phys.unm.edu,198.59.169.73,35.083,-106.650,United States,
pizeh2.physics.yale.edu,,,,,
ccs2.ornl.gov,160.91.4.43,35.97,-84.29,United States,
fermi.physics.umd.edu,129.2.40.166,38.99,-76.93,United States,
www.ub.edu.bi,154.119.7.10,3.3789,29.3838,Burundi,http://www.ub.edu.bi
ns1.dns.br,200.255.253.234,-15.783,-47.917,Brazil,
www.rol.net.mv,202.21.176.41,4.1667,73.5,Maldives,http://www.rol.net.mv
www.df.uba.ar,157.92.23.11,-34.617,-58.400,Argentina,
www.camtel.cm,195.24.192.47,3.9,11.5,Cameroon,http://www.camtel.cm
www.unram.ac.id,108.162.198.80,-8.5819,116.1167,Indonesia,http://www.unram.ac.id
cshl.org,143.48.1.1,NOT-SET,,United States,
www.uzulu.ac.za,196.220.42.61,-29.567,30.933,South Africa,
tamalepoly.edu.gh,209.217.224.149,9.4304,-0.8672,Ghana,http://tamalepoly.edu.gh
trieste-gw1.ts.infn.it,140.105.6.1,45.60,13.80,Italy,
193.222.119.6,193.222.119.6,47.133,9.517,Liechtenstein,
www.vma.edu.ph,75.125.60.15,10.211,123.89,Philippines,http://www.vma.edu.ph
www.olade.org.ec,190.95.206.100,-0.23,-78.5,Ecuador,
www.nwa.gov.jm,208.163.38.98,18.0078,-76.7991,Jamaica,http://www.nwa.gov.jm
ns1.priorweb.be,62.182.60.69,51,3.75,Belgium,
www.uir.ac.id,202.83.120.92,0.2933,101.7068,Indonesia,http://www.uir.ac.id
check.at.5gate.net,195.242.184.3,48.12,16.22,Austria,http://check.at.5gate.net/speedtest/upload.php
www.ntc.net.np,202.70.64.2,27.67,85.32,Nepal,http://www.ntc.net.np
166.49.29.201,166.49.29.201,NOT-SET,,United States,
140.109.138.1,140.109.138.1,NOT-SET,,NOT-SET,
ping2.scl.ameslab.gov,198.124.224.1,42.03,-93.61,United States,
pinger.alquds.edu,62.90.25.198,31.77,35.23,Palestine,http://www.alquds.edu
trinetra.ncb.ernet.in,202.141.136.157,28.6,77.2,India,
pinger.slac.stanford.edu,134.79.104.80,37.4177,-122.2035,United States,http://www.slac.stanford.edu
www.mpaal.org.br,187.45.193.213,-23.5505,-46.6333,Brazil,http://www.mpaal.org.br/
www.buid.ac.ae,94.200.87.5,25.2521,55.28,United Arab Emirates,http://www.buid.ac.ae
www.kisr.edu.kw,161.252.49.35,29.3697,47.9783,Kuwait,http://www.kisr.edu.kw
www.cafenoc.tg,80.248.64.10,8,1.17,Togo,http://www.cafenoc.tg
www.ifj.edu.pl,149.156.44.1,50.05,19.92,Poland,
ethz.ch,129.132.97.15,47.38,8.55,Switzerland,
park.nikhef.nl,192.16.199.192,NOT-SET,,Netherlands,
www.cu.edu.eg,193.227.13.3,30.05,31.25,Egypt,www.cu.edu.eg
pvamu.edu,129.207.5.11,30.09,-95.99,United States,
icu-tap.kr.apan.net,203.255.248.221,37.550,126.967,Korea, Rep,
www.uii.ac.id,103.55.139.18,-7.7972,110.3688,Indonesia,http://www.uii.ac.id
www.usindh.edu.pk,64.235.234.82,26.95,76.42,Pakistan,http://www.usindh.edu.pk
www.uca.edu.sv,168.243.1.4,13.67,-89.17,El Salvador,
lns62.lns.cornell.edu,128.84.47.62,41.48,-81.68,United States,
utktac.tac.tsukuba.ac.jp,130.158.192.10,36.08,140.25,Japan,
www.health.gov.mv,202.21.188.251,4.1667,73.5,Maldives,http://www.health.gov.mv
w01gva-ge-0.cern.datatag.org,192.91.239.1,46.22,6.15,Switzerland,
wisc.edu,144.92.9.144,43.07,-89.40,United States,
stromboli.incor.usp.br,200.144.72.50,-15.783,-47.917,Brazil,
www.jlab.org,129.57.34.117,36.977,-76.417,United States,
www.schoolnet.na,196.44.128.212,-22.53,17.06,Namibia,
x4u2.dx4u2.desy.de,NOT-SET,52.270,13.180,Germany,
www.cfse.gov.pr,66.231.165.83,18.4663,-66.1057,Puerto Rico,http://www.cfse.gov.pr
ns.shinbiro.net,202.30.143.11,37.550,126.967,Korea, Rep,
ftp.eso.org,134.171.56.106,50.733,7.100,Germany,
ping.c.lnf.infn.it,,,,,
enterprise.phys.l.edu,,,,,
lobel92.74.212.5,NOT-SET,NOT-SET,,NOT-SET,
wiggum.mcs.anl.gov,140.221.11.99,41.858,-88.017,United States,
arashi.cc.kyushu-u.ac.jp,133.5.8.10,35.700,139.767,Japan,
